site_name,services_delivered_at_site,health_center_type,health_center_location_type,health_center_location_setting,county,state,grant_number,bhcmis_org_id,bphc_assigned_number,health_center_look_alike_number,address,city,zip,site_telephone_number,website,admin_functions_performed_at_site,hrsa_grant_programs,native_hawaiian_health_center_admin_site,health_center_service_delivery_site_group,hhs_region,u_s_senator_name_1,u_s_senator_name_2,cong_district,u_s_congressional_representative_name,in_u_s_mex_border_100_km_area,in_u_s_mex_border_county,rural_status,grantee_name,geoid,tract_latitude,tract_longitude,lat,lon
Denmark-Olar High School,Yes,Service Delivery Site,Permanent,School,Bamberg County,SC,H80CS00090,041180,BPS-H80-022352,[No Data],197 Viking Cir,Denmark,29042-1566,803-793-3307,,No,Community Health Centers,No,Service Delivery Sites,Region 4,Lindsey Graham,Tim Scott,South Carolina District 06,James E. Clyburn,No,No,Yes,"FAMILY HEALTH CENTERS, INC.",45009960100,+33.3261599,-081.1667580,33.32722214,-81.12302847
ReGenesis Health Care-Union Family Dentistry,Yes,Service Delivery Site,Permanent,All Other Clinic Types,Union County,SC,H80CS00298,0421000,BPS-H80-031535,[No Data],115 Thomas St Ste C,Union,29379-2147,864-398-4185,www.myrhc.org,No,Community Health Centers,No,Service Delivery Sites,Region 4,Lindsey Graham,Tim Scott,South Carolina District 05,Ralph Norman,No,No,Yes,"Regenesis Health Care, Inc",45087030200,+34.7080486,-081.6317056,34.71504452,-81.63108294
Family Health Center at Holly Hill,Yes,Service Delivery Site,Permanent,All Other Clinic Types,Orangeburg County,SC,H80CS00090,041180,BPS-H80-014461,[No Data],922 Holly St,Holly Hill,29059-2762,803-531-6900,,No,Community Health Centers,No,Service Delivery Sites,Region 4,Lindsey Graham,Tim Scott,South Carolina District 06,James E. Clyburn,No,No,Yes,"FAMILY HEALTH CENTERS, INC.",45075010200,+33.3204311,-080.3922399,33.32625449,-80.41722662
Beaufort Jasper Hampton Comprehensive Health Services Mobile Unit,Yes,Service Delivery Site,Mobile Van,All Other Clinic Types,Jasper County,SC,H80CS00699,041190,BPS-H80-032238,[No Data],719 Okatie Hwy,Okatie,29909-3963,843-987-7400,www.bjhchs.org,No,Community Health Centers; Migrant Health Centers,No,Service Delivery Sites,Region 4,Lindsey Graham,Tim Scott,South Carolina District 06,James E. Clyburn,No,No,No,"BEAUFORT-JASPER-HAMPTON COMPREHENSIVE HEALTH SERVICES, INCORPORATED",45053950201,+32.3984799,-080.9415727,32.31187011,-80.93488397
NEW HORIZON FAMILY HEALTH SERVICES,No,Administrative,Permanent,All Other Clinic Types,Greenville County,SC,H80CS00578,042610,BPS-H80-005150,[No Data],130 Mallard St,Greenville,29601-4046,864-233-1534,www.newhorizonfhs.org,Yes,Community Health Centers; Health Care for the Homeless,No,Administrative Sites,Region 4,Lindsey Graham,Tim Scott,South Carolina District 04,"William R. Timmons, IV",No,No,No,"New Horizon Family Health Services, Inc",45045000500,+34.8376715,-082.4115284,34.83888643,-82.41454756
Valcourt Pediatric Associates,Yes,Service Delivery Site,Permanent,All Other Clinic Types,Colleton County,SC,H80CS28973,04E01160,BPS-H80-027256,[No Data],124 Medical Park Dr,Walterboro,29488-5719,843-782-3636,,No,Community Health Centers,No,Service Delivery Sites,Region 4,Lindsey Graham,Tim Scott,South Carolina District 06,James E. Clyburn,No,No,Yes,"GENESIS HEALTHCARE, INC",45029970402,+32.9671267,-080.6527418,32.92310762,-80.66903458
CSC BENNETTSVILLE CENTER,Yes,Service Delivery Site,Permanent,All Other Clinic Types,Marlboro County,SC,H80CS00654,045230,BPS-H80-001872,[No Data],999 Cheraw St,Bennettsville,29512-2420,843-479-2341,www.caresouth-carolina.com,No,Community Health Centers,No,Service Delivery Sites,Region 4,Lindsey Graham,Tim Scott,South Carolina District 07,Tom Rice,No,No,Yes,CARE SOUTH CAROLINA INC,45069960200,+34.5638971,-079.7572819,34.63153227,-79.69622554
Smoaks Middle School Camp,Yes,Service Delivery Site,Seasonal,All Other Clinic Types,Colleton County,SC,H80CS09088,041110,BPS-H80-020781,[No Data],906 Sunrise Rd,Smoaks,29481-6508,843-866-7850,www.fetterhealthcare.org,No,Community Health Centers; Health Care for the Homeless; Migrant Health Centers,No,Service Delivery Sites,Region 4,Lindsey Graham,Tim Scott,South Carolina District 06,James E. Clyburn,No,No,Yes,"FETTER HEALTH CARE NETWORK, INC.",45029970100,+33.0964204,-080.8101778,33.09103599,-80.798479
Teague Street Admin Office,No,Administrative,Permanent,Unknown,Aiken County,SC,H80CS00653,045220,BPS-H80-022209,[No Data],740 Teague St NW,Aiken,29801-4048,803-380-7000,,Yes,Community Health Centers,No,Administrative Sites,Region 4,Lindsey Graham,Tim Scott,South Carolina District 02,Joe Wilson,No,No,No,"Rural Health Services, Inc.",45003021400,+33.5732059,-081.7228476,33.57339847,-81.71357906
COMMUNITY MEDICAL CENTER,Yes,Service Delivery Site,Permanent,All Other Clinic Types,Orangeburg County,SC,H80CS00090,041180,BPS-H80-002222,[No Data],10278 Old Number Six Hwy,Vance,29163-9342,803-492-3031,www.myfhc.org,No,Community Health Centers,No,Service Delivery Sites,Region 4,Lindsey Graham,Tim Scott,South Carolina District 06,James E. Clyburn,No,No,Yes,"FAMILY HEALTH CENTERS, INC.",45075010300,+33.4385177,-080.4719225,33.44285099,-80.42247713
Tandem Health,Yes,Service Delivery Site,Permanent,All Other Clinic Types,Sumter County,SC,H80CS00868,0423590,BPS-H80-005578,[No Data],1278 N Lafayette Dr,Sumter,29150-2964,803-774-4500 x545,www.tandemhealthsc.org,No,Community Health Centers,No,Service Delivery Sites,Region 4,Lindsey Graham,Tim Scott,South Carolina District 06,James E. Clyburn,No,No,No,Tandem Health SC,45085000800,+33.9535614,-080.3493350,33.94315527,-80.3419262
HAMPTON MEDICAL CENTER,Yes,Service Delivery Site,Permanent,All Other Clinic Types,Hampton County,SC,H80CS00699,041190,BPS-H80-005528,[No Data],200 Elm St E,Hampton,29924-3430,843-943-2233,www.bjhchs.org,No,Community Health Centers; Migrant Health Centers,No,Service Delivery Sites,Region 4,Lindsey Graham,Tim Scott,South Carolina District 06,James E. Clyburn,No,No,Yes,"BEAUFORT-JASPER-HAMPTON COMPREHENSIVE HEALTH SERVICES, INCORPORATED",45049920200,+32.8590563,-081.0106074,32.86553614,-81.10722632
Hopkins Pediatrics and Family Practice,Yes,Service Delivery Site,Permanent,All Other Clinic Types,Richland County,SC,H80CS00730,043270,BPS-H80-013621,[No Data],9023 Garners Ferry Rd,Hopkins,29061-9540,803-978-1848,,No,Community Health Centers; Health Care for the Homeless; Migrant Health Centers,No,Service Delivery Sites,Region 4,Lindsey Graham,Tim Scott,South Carolina District 06,James E. Clyburn,No,No,No,Eau Claire Cooperative Health Center,45079011901,+33.9611342,-080.8599622,33.94587616,-80.87027788
Rosa Clark Medical Clinic,Yes,Service Delivery Site,Permanent,All Other Clinic Types,Oconee County,SC,H80CS30713,04E01242,BPS-H80-019264,[No Data],210 S Oak St,Seneca,29678-3416,864-888-4825,www.rosaclarkclinic.com,No,Community Health Centers,No,Service Delivery Sites,Region 4,Lindsey Graham,Tim Scott,South Carolina District 03,Jeff Duncan,No,No,Yes,Rosa Clark Medical Clinic Inc,45073030800,+34.6414943,-082.9517476,34.6807845,-82.95592488
"Health Care Partners of South Carolina, Inc. - CONWAY OFFICE",Yes,Service Delivery Site,Permanent,All Other Clinic Types,Horry County,SC,H80CS00411,047000,BPS-H80-003461,[No Data],1608 Main St,Conway,29526-3572,843-247-4700,www.hscpsc.org,No,Community Health Centers,No,Service Delivery Sites,Region 4,Lindsey Graham,Tim Scott,South Carolina District 07,Tom Rice,No,No,No,"HEALTH CARE PARTNERS OF SOUTH CAROLINA, INC.",45051070200,+33.8580120,-079.0476531,33.85083866,-79.05657183
"COMMUNITY MEDICINE FOUNDATION, INC.",Yes,Service Delivery Site,Permanent,All Other Clinic Types,York County,SC,H80CS00750,042600,BPS-H80-003766,[No Data],1131 Saluda St,Rock Hill,29730-5776,803-325-7744,http://www.ncfmc.net,No,Community Health Centers; Public Housing,No,Service Delivery Sites,Region 4,Lindsey Graham,Tim Scott,South Carolina District 05,Ralph Norman,No,No,No,"Community Medicine Foundation, Inc.",45091060300,+34.9144554,-081.0197342,34.90748384,-81.02996696
Denmark-Olar Middle School,Yes,Service Delivery Site,Permanent,School,Bamberg County,SC,H80CS00090,041180,BPS-H80-024670,[No Data],45 Green St,Denmark,29042-2395,803-793-3383,,No,Community Health Centers,No,Service Delivery Sites,Region 4,Lindsey Graham,Tim Scott,South Carolina District 06,James E. Clyburn,No,No,Yes,"FAMILY HEALTH CENTERS, INC.",45009960100,+33.3261599,-081.1667580,33.30217584,-81.14365181
LOW COUNTRY HEALTH CARE SYSTEM,Yes,Service Delivery Site,Permanent,All Other Clinic Types,Allendale County,SC,H80CS00092,0416080,BPS-H80-003494,[No Data],333 Revolutionary Trl,Fairfax,29827-7109,803-632-2533,www.lowcountryhealthcaresystem.com,No,Community Health Centers,No,Service Delivery Sites,Region 4,Lindsey Graham,Tim Scott,South Carolina District 06,James E. Clyburn,No,No,Yes,"Low Country Health Care System, Inc.",45005970400,+32.8745690,-081.3241455,32.96615935,-81.25438788
Williams Center Camp,Yes,Service Delivery Site,Seasonal,All Other Clinic Types,Colleton County,SC,H80CS09088,041110,BPS-H80-020780,[No Data],78 Cross Swamp Rd,Lodge,29082-9340,843-866-7850,www.fetterhealthcare.org,No,Community Health Centers; Health Care for the Homeless; Migrant Health Centers,No,Service Delivery Sites,Region 4,Lindsey Graham,Tim Scott,South Carolina District 06,James E. Clyburn,No,No,Yes,"FETTER HEALTH CARE NETWORK, INC.",45029970200,+32.9765716,-080.9462173,32.99305783,-80.88407742
SANDHILLS MEDICAL  Inc. - MCBEE site,Yes,Service Delivery Site,Permanent,All Other Clinic Types,Chesterfield County,SC,H80CS00501,045050,BPS-H80-000140,[No Data],645 S Seventh St,Mc Bee,29101-7101,843-335-8291,n/a,No,Community Health Centers,No,Service Delivery Sites,Region 4,Lindsey Graham,Tim Scott,South Carolina District 07,Tom Rice,No,No,Yes,SANDHILLS MEDICAL FOUNDATION,45025950800,+34.4978789,-080.2561591,34.45982576,-80.26020147
RIDGELAND MEDICAL CENTER,Yes,Service Delivery Site,Permanent,All Other Clinic Types,Jasper County,SC,H80CS00699,041190,BPS-H80-001677,[No Data],30 US-278,Ridgeland,29936-4476,843-726-3979,www.bjhchs.org,No,Community Health Centers; Migrant Health Centers,No,Service Delivery Sites,Region 4,Lindsey Graham,Tim Scott,South Carolina District 06,James E. Clyburn,No,No,No,"BEAUFORT-JASPER-HAMPTON COMPREHENSIVE HEALTH SERVICES, INCORPORATED",45053950202,+32.5364880,-080.8861724,32.48534615,-80.98440767
WAVERLY WOMEN'S HEALTH CENTER,Yes,Service Delivery Site,Permanent,All Other Clinic Types,Richland County,SC,H80CS00730,043270,BPS-H80-002994,[No Data],1228 Harden St Ste B,Columbia,29204-1800,803-744-0540,www.ecchc.org,No,Community Health Centers; Health Care for the Homeless; Migrant Health Centers,No,Service Delivery Sites,Region 4,Lindsey Graham,Tim Scott,South Carolina District 06,James E. Clyburn,No,No,No,Eau Claire Cooperative Health Center,45079001300,+34.0080154,-081.0131624,34.00713798,-81.01914601
JAMES J DAVIS EARLY LEARNING CENTER,Yes,Service Delivery Site,Seasonal,School,Beaufort County,SC,H80CS00699,041190,BPS-H80-002431,[No Data],364 Keans Neck Rd,Seabrook,29940-3122,843-466-3579,www.bjhchs.org,No,Community Health Centers; Migrant Health Centers,No,Service Delivery Sites,Region 4,Lindsey Graham,Tim Scott,South Carolina District 06,James E. Clyburn,No,No,Yes,"BEAUFORT-JASPER-HAMPTON COMPREHENSIVE HEALTH SERVICES, INCORPORATED",45013000100,+32.5821594,-080.7263936,32.55578859,-80.70944409
Sterling Sharpe Pediatric Center,Yes,Service Delivery Site,Permanent,All Other Clinic Types,Richland County,SC,H80CS00730,043270,BPS-H80-014747,[No Data],4605 Monticello Rd Ste 1,Columbia,29203-4156,803-252-7001,,No,Community Health Centers; Health Care for the Homeless; Migrant Health Centers,No,Service Delivery Sites,Region 4,Lindsey Graham,Tim Scott,South Carolina District 06,James E. Clyburn,No,No,No,Eau Claire Cooperative Health Center,45079000300,+34.0467069,-081.0624544,34.0455828,-81.04275867
Five Points Pediatrics Behavioral Health @ Hand Middle School,Yes,Service Delivery Site,Seasonal,School,Richland County,SC,H80CS00730,043270,BPS-H80-027189,[No Data],2600 Wheat St,Columbia,29205-2315,803-748-7002,,No,Community Health Centers; Health Care for the Homeless; Migrant Health Centers,No,Service Delivery Sites,Region 4,Lindsey Graham,Tim Scott,South Carolina District 02,Joe Wilson,No,No,No,Eau Claire Cooperative Health Center,45079002100,+33.9963901,-081.0085159,33.99549732,-81.00743474
CSC LAKE VIEW CENTER,Yes,Service Delivery Site,Permanent,All Other Clinic Types,Dillon County,SC,H80CS00654,045230,BPS-H80-002114,[No Data],103 N Kemper St,Lake View,29563-3115,843-759-2189,www.caresouth-carolina.com,No,Community Health Centers,No,Service Delivery Sites,Region 4,Lindsey Graham,Tim Scott,South Carolina District 07,Tom Rice,No,No,Yes,CARE SOUTH CAROLINA INC,45033970500,+34.3339068,-079.2077718,34.34330538,-79.16717775
"FAMILY HEALTH CENTERS, INC.",Yes,Service Delivery Site,Permanent,All Other Clinic Types,Orangeburg County,SC,H80CS00090,041180,BPS-H80-000515,[No Data],3310 Magnolia St,Orangeburg,29115-1466,803-531-8951,www.myfhc.org,No,Community Health Centers,No,Service Delivery Sites,Region 4,Lindsey Graham,Tim Scott,South Carolina District 06,James E. Clyburn,No,No,Yes,"FAMILY HEALTH CENTERS, INC.",45075011100,+33.5450483,-080.8457594,33.52886919,-80.83889586
NORFIELD MEDICAL CENTER,Yes,Service Delivery Site,Permanent,All Other Clinic Types,Orangeburg County,SC,H80CS00090,041180,BPS-H80-002632,[No Data],7061 Norway Rd,Neeses,29107-9021,803-263-4086,www.myfhc.org,No,Community Health Centers,No,Service Delivery Sites,Region 4,Lindsey Graham,Tim Scott,South Carolina District 02,Joe Wilson,No,No,Yes,"FAMILY HEALTH CENTERS, INC.",45075011800,+33.4920648,-081.1791302,33.47395041,-81.1865928
ReGenesis Health Care - Gaffney,Yes,Service Delivery Site,Permanent,All Other Clinic Types,Cherokee County,SC,H80CS00298,0421000,BPS-H80-020810,[No Data],1341 N Limestone St,Gaffney,29340-4733,864-582-2411,,No,Community Health Centers,No,Service Delivery Sites,Region 4,Lindsey Graham,Tim Scott,South Carolina District 05,Ralph Norman,No,No,Yes,"Regenesis Health Care, Inc",45021970302,+35.0992561,-081.6011090,35.08561672,-81.6388466
Elijah Wright Family Health Center,Yes,Service Delivery Site,Permanent,All Other Clinic Types,Berkeley County,SC,H80CS09088,041110,BPS-H80-015188,[No Data],1681 Old Highway 6,Cross,29436-3602,843-753-2334,www.fetterhealthcare.org,No,Community Health Centers; Health Care for the Homeless; Migrant Health Centers,No,Service Delivery Sites,Region 4,Lindsey Graham,Tim Scott,South Carolina District 06,James E. Clyburn,No,No,No,"FETTER HEALTH CARE NETWORK, INC.",45015020101,+33.3435539,-080.1699561,33.363554,-80.19158001
NEW HORIZON FAMILY DENTAL CARE,Yes,Service Delivery Site,Permanent,All Other Clinic Types,Greenville County,SC,H80CS00578,042610,BPS-H80-003257,[No Data],1 Memorial Medical Dr,Greenville,29605-4407,864-351-2400 x3005,www.newhorizonfhs.org,No,Community Health Centers; Health Care for the Homeless,No,Service Delivery Sites,Region 4,Lindsey Graham,Tim Scott,South Carolina District 04,"William R. Timmons, IV",No,No,No,"New Horizon Family Health Services, Inc",45045002107,+34.8167433,-082.4266676,34.81667388,-82.42107397
Temporary Site - Andrews Healthcare Center Annex,Yes,Service Delivery Site,Seasonal,All Other Clinic Types,Georgetown County,SC,H80CS00828,048430,BPS-H80-030724,[No Data],411 E Main St,Andrews,29510-4011,843-887-3274,,No,Community Health Centers; Migrant Health Centers,No,Service Delivery Sites,Region 4,Lindsey Graham,Tim Scott,South Carolina District 07,Tom Rice,No,No,Yes,St. James Health and Wellness Inc.,45043920202,+33.5087031,-079.4737419,33.45008713,-79.55591271
GREER,Yes,Service Delivery Site,Permanent,All Other Clinic Types,Greenville County,SC,H80CS00578,042610,BPS-H80-002239,[No Data],111 Berry Ave # A,Greer,29651-1307,864-801-2035,www.newhorizonfhs.org,No,Community Health Centers; Health Care for the Homeless,No,Service Delivery Sites,Region 4,Lindsey Graham,Tim Scott,South Carolina District 04,"William R. Timmons, IV",No,No,No,"New Horizon Family Health Services, Inc",45045002504,+34.9441768,-082.2341056,34.94623489,-82.22302728
BARNWELL FAMILY MEDICINE,Yes,Service Delivery Site,Permanent,All Other Clinic Types,Barnwell County,SC,H80CS00092,0416080,BPS-H80-003809,[No Data],86 Wren St,Barnwell,29812-1529,843-259-5762,www.lowcountryhealthcaresystem.com,No,Community Health Centers,No,Service Delivery Sites,Region 4,Lindsey Graham,Tim Scott,South Carolina District 02,Joe Wilson,No,No,Yes,"Low Country Health Care System, Inc.",45011970300,+33.2731810,-081.3721662,33.25529588,-81.3628387
LRMC - Mobile Van # 4,Yes,Service Delivery Site,Mobile Van,All Other Clinic Types,Horry County,SC,H80CS00700,047060,BPS-H80-028302,[No Data],4220 Carolina Exchange Dr,Myrtle Beach,29579-4220,843-663-8000,,No,Community Health Centers; Health Care for the Homeless; Migrant Health Centers,No,Service Delivery Sites,Region 4,Lindsey Graham,Tim Scott,South Carolina District 07,Tom Rice,No,No,No,"Little River Medical Center, Inc.",45051060209,+33.7718668,-078.9473766,33.76189464,-78.96459276
Charleston Family Health Center,Yes,Service Delivery Site,Permanent,All Other Clinic Types,Charleston County,SC,H80CS09088,041110,BPS-H80-002798,[No Data],51 Nassau St,Charleston,29403-5513,843-722-4112,www.fetterhealthcare.org,No,Community Health Centers; Health Care for the Homeless; Migrant Health Centers,No,Service Delivery Sites,Region 4,Lindsey Graham,Tim Scott,South Carolina District 06,James E. Clyburn,No,No,No,"FETTER HEALTH CARE NETWORK, INC.",45019000700,+32.7893794,-079.9385460,32.79392862,-79.93860134
BROAD RIVER ELEM SCHOOL HLTH CTR,Yes,Service Delivery Site,Seasonal,School,Beaufort County,SC,H80CS00699,041190,BPS-H80-005025,[No Data],474 Broad River Blvd,Beaufort,29906-9489,843-322-8379,www.bjhchs.org,No,Community Health Centers; Migrant Health Centers,No,Service Delivery Sites,Region 4,Lindsey Graham,Tim Scott,South Carolina District 01,Nancy Mace,No,No,Yes,"BEAUFORT-JASPER-HAMPTON COMPREHENSIVE HEALTH SERVICES, INCORPORATED",45013000501,+32.4255231,-080.7676172,32.420724,-80.75530633
Genesis Health Care,No,Administrative,Permanent,All Other Clinic Types,Richland County,SC,H80CS28973,04E01160,BPS-H80-015665,[No Data],3400 West Ave,Columbia,29203-6901,803-254-3676,http://www.genesisfqhc.org,Yes,Community Health Centers,No,Administrative Sites,Region 4,Lindsey Graham,Tim Scott,South Carolina District 06,James E. Clyburn,No,No,No,"GENESIS HEALTHCARE, INC",45079000500,+34.0325295,-081.0314226,34.03045774,-81.03235388
Whale Branch Elementary School,Yes,Service Delivery Site,Seasonal,School,Beaufort County,SC,H80CS00699,041190,BPS-H80-010169,[No Data],15 Stuart Point Rd,Seabrook,29940-3601,843-466-1000,www.bjhchs.org,No,Community Health Centers; Migrant Health Centers,No,Service Delivery Sites,Region 4,Lindsey Graham,Tim Scott,South Carolina District 06,James E. Clyburn,No,No,Yes,"BEAUFORT-JASPER-HAMPTON COMPREHENSIVE HEALTH SERVICES, INCORPORATED",45013000200,+32.5007617,-080.7468659,32.53149838,-80.74329236
Fairfield Elementary School,Yes,Service Delivery Site,Seasonal,School,Fairfield County,SC,H80CS00730,043270,BPS-H80-029408,[No Data],1226 US Highway 321 Byp S,Winnsboro,29180-7188,803-653-1052,,No,Community Health Centers; Health Care for the Homeless; Migrant Health Centers,No,Service Delivery Sites,Region 4,Lindsey Graham,Tim Scott,South Carolina District 05,Ralph Norman,No,No,No,Eau Claire Cooperative Health Center,45039960500,+34.2860838,-081.1792971,34.34868397,-81.08867945
ReGenesis Health Care-Phoenix Center,Yes,Service Delivery Site,Permanent,All Other Clinic Types,Greenville County,SC,H80CS00298,0421000,BPS-H80-031524,[No Data],1400 Cleveland St,Greenville,29607-2410,864-467-3790,,No,Community Health Centers,No,Service Delivery Sites,Region 4,Lindsey Graham,Tim Scott,South Carolina District 04,"William R. Timmons, IV",No,No,No,"Regenesis Health Care, Inc",45045001400,+34.8159886,-082.3754469,34.82254273,-82.37401486
EB Ellington Elementary,Yes,Service Delivery Site,Seasonal,School,Charleston County,SC,H80CS09088,041110,BPS-H80-019145,[No Data],5540 Old Jacksonboro Rd,Ravenel,29470-5201,843-889-9411,www.fetterhealth.org,No,Community Health Centers; Health Care for the Homeless; Migrant Health Centers,No,Service Delivery Sites,Region 4,Lindsey Graham,Tim Scott,South Carolina District 06,James E. Clyburn,No,No,No,"FETTER HEALTH CARE NETWORK, INC.",45019005800,+32.8077688,-080.1815928,32.78485668,-80.21135359
The Pendergrass Family Health Center,Yes,Service Delivery Site,Permanent,All Other Clinic Types,Greenwood County,SC,H80CS00785,042780,BPS-H80-005484,[No Data],93 S Greenwood Ave,Ware Shoals,29692-1534,864-456-7436,www.carolinahealthcenters.org,No,Community Health Centers; Migrant Health Centers,No,Service Delivery Sites,Region 4,Lindsey Graham,Tim Scott,South Carolina District 03,Jeff Duncan,No,No,Yes,"CAROLINA HEALTH CENTERS, INC.",45047970102,+34.3181322,-082.2696150,34.38891888,-82.23830917
LAKELANDS FAMILY PRACTICE CTR,Yes,Service Delivery Site,Permanent,All Other Clinic Types,Laurens County,SC,H80CS00785,042780,BPS-H80-000210,[No Data],17124 Highway 72 W,Waterloo,29384-5144,864-393-1020,www.carolinahealthcenters.org,No,Community Health Centers; Migrant Health Centers,No,Service Delivery Sites,Region 4,Lindsey Graham,Tim Scott,South Carolina District 03,Jeff Duncan,No,No,Yes,"CAROLINA HEALTH CENTERS, INC.",45059921001,+34.3629151,-082.0389254,34.28702385,-82.05009322
Affinity Health Center- Fort Mill,Yes,Service Delivery Site,Permanent,All Other Clinic Types,York County,SC,H80CS28972,04E00154,BPS-H80-015685,[No Data],120 Elliott St E,Fort Mill,29715-1800,803-909-9748,N/A,No,Community Health Centers,No,Service Delivery Sites,Region 4,Lindsey Graham,Tim Scott,South Carolina District 05,Ralph Norman,No,No,No,Affinity Health Center,45091061101,+35.0203157,-080.9347880,35.00907838,-80.94050247
Tandem Health,Yes,Service Delivery Site,Permanent,All Other Clinic Types,Sumter County,SC,H80CS00868,0423590,BPS-H80-003139,[No Data],25 E Clark St,Pinewood,29125-8989,803-774-4501,www.tandemhealthsc.org,No,Community Health Centers,No,Service Delivery Sites,Region 4,Lindsey Graham,Tim Scott,South Carolina District 05,Ralph Norman,No,No,No,Tandem Health SC,45085001901,+33.8036072,-080.4217087,33.73988527,-80.46211381
Denmark-Olar Elementary School,Yes,Service Delivery Site,Permanent,School,Bamberg County,SC,H80CS00090,041180,BPS-H80-024669,[No Data],1459 Sol Blatt Blvd,Denmark,29042-2503,803-793-3112,,No,Community Health Centers,No,Service Delivery Sites,Region 4,Lindsey Graham,Tim Scott,South Carolina District 06,James E. Clyburn,No,No,Yes,"FAMILY HEALTH CENTERS, INC.",45009960100,+33.3261599,-081.1667580,33.3096271,-81.13039172
Careteam + Family Health and Specialty Care,Yes,Service Delivery Site,Permanent,All Other Clinic Types,Horry County,SC,[No Data],04E01301,BPS-LAL-022173,LAL31819,100 Professional Park Dr,Conway,29526-9260,843-234-0005,careteamplus.org,No,,No,Look-Alike Service Delivery Sites,Region 4,Lindsey Graham,Tim Scott,South Carolina District 07,Tom Rice,No,No,No,,45051060405,+33.7922107,-079.0120361,33.78210861,-79.01167919
LRMC-Mobile Van #2,Yes,Service Delivery Site,Mobile Van,School,Horry County,SC,H80CS00700,047060,BPS-H80-008485,[No Data],4303 Live Oak Dr,Little River,29566-9138,843-455-8217,http://www.lrmcenter.com,No,Community Health Centers; Health Care for the Homeless; Migrant Health Centers,No,Service Delivery Sites,Region 4,Lindsey Graham,Tim Scott,South Carolina District 07,Tom Rice,No,No,No,"Little River Medical Center, Inc.",45051040104,+33.8868648,-078.6108585,33.88282526,-78.59913944
"Foothills Community Health Care, Inc",No,Administrative,Permanent,Unknown,Pickens County,SC,H80CS24157,04E00503,BPS-H80-030955,[No Data],403 Hillcrest Dr Ste D,Easley,29640-1207,864-722-0283,,Yes,Community Health Centers,No,Administrative Sites,Region 4,Lindsey Graham,Tim Scott,South Carolina District 03,Jeff Duncan,No,No,No,"Foothills Community Health Care, Inc.",45077010801,+34.8349715,-082.6269605,34.83787243,-82.61013483
New Horizon Family Health Services Main Site,Yes,Administrative/Service Delivery Site,Permanent,All Other Clinic Types,Greenville County,SC,H80CS00578,042610,BPS-H80-014725,[No Data],975 W Faris Rd,Greenville,29605-4241,864-729-8330 x2259,www.newhorizonfhs.org,Yes,Community Health Centers; Health Care for the Homeless,No,Service Delivery Sites,Region 4,Lindsey Graham,Tim Scott,South Carolina District 04,"William R. Timmons, IV",No,No,No,"New Horizon Family Health Services, Inc",45045002103,+34.8059127,-082.4073509,34.81634741,-82.41414004
LRMC: MYRTLE BEACH MEDICAL CENTER,Yes,Service Delivery Site,Permanent,All Other Clinic Types,Horry County,SC,H80CS00700,047060,BPS-H80-002005,[No Data],7724 N Kings Hwy,Myrtle Beach,29572-3041,843-663-8040,http://www.lrmcenter.com/,No,Community Health Centers; Health Care for the Homeless; Migrant Health Centers,No,Service Delivery Sites,Region 4,Lindsey Graham,Tim Scott,South Carolina District 07,Tom Rice,No,No,No,"Little River Medical Center, Inc.",45051050303,+33.7568838,-078.8111818,33.74813801,-78.81726313
Barnwell Family Medicine Administrative Office,No,Administrative,Permanent,All Other Clinic Types,Barnwell County,SC,H80CS00092,0416080,BPS-H80-010572,[No Data],110 Wren St,Barnwell,29812-1533,803-259-5762,,Yes,Community Health Centers,No,Administrative Sites,Region 4,Lindsey Graham,Tim Scott,South Carolina District 02,Joe Wilson,No,No,Yes,"Low Country Health Care System, Inc.",45011970300,+33.2731810,-081.3721662,33.25517767,-81.36249632
CareSouth Carolina Bennettsville Women's Services,Yes,Service Delivery Site,Permanent,All Other Clinic Types,Marlboro County,SC,H80CS00654,045230,BPS-H80-017636,[No Data],1076 Marlboro Way Ste 1,Bennettsville,29512-2495,843-454-2294,www.caresouth-carolina.com,No,Community Health Centers,No,Service Delivery Sites,Region 4,Lindsey Graham,Tim Scott,South Carolina District 07,Tom Rice,No,No,Yes,CARE SOUTH CAROLINA INC,45069960301,+34.6238660,-079.6508936,34.63620878,-79.69537239
WACCAMAW CENTER FOR MENTAL HEALTH,Yes,Service Delivery Site,Permanent,All Other Clinic Types,Horry County,SC,H80CS00700,047060,BPS-H80-007350,[No Data],164 Waccamaw Medical Park Dr,Conway,29526-8903,843-347-5060,www.lrmcenter.com,No,Community Health Centers; Health Care for the Homeless; Migrant Health Centers,No,Service Delivery Sites,Region 4,Lindsey Graham,Tim Scott,South Carolina District 07,Tom Rice,No,No,No,"Little River Medical Center, Inc.",45051060405,+33.7922107,-079.0120361,33.78679698,-78.9967351
St. Matthews K-8 School,Yes,Service Delivery Site,Permanent,School,Calhoun County,SC,H80CS00090,041180,BPS-H80-024656,[No Data],132 Saints Ave,St Matthews,29135-9005,803-655-2750,,No,Community Health Centers,No,Service Delivery Sites,Region 4,Lindsey Graham,Tim Scott,South Carolina District 06,James E. Clyburn,No,No,No,"FAMILY HEALTH CENTERS, INC.",45017950200,+33.6883735,-080.8061167,33.66635583,-80.79673049
Calhoun County High School,Yes,Service Delivery Site,Permanent,School,Calhoun County,SC,H80CS00090,041180,BPS-H80-024664,[No Data],150 Saints Ave,St Matthews,29135-9005,803-874-3071,,No,Community Health Centers,No,Service Delivery Sites,Region 4,Lindsey Graham,Tim Scott,South Carolina District 06,James E. Clyburn,No,No,No,"FAMILY HEALTH CENTERS, INC.",45017950200,+33.6883735,-080.8061167,33.66524698,-80.79881696
Affinity Health Center- York,Yes,Service Delivery Site,Permanent,All Other Clinic Types,York County,SC,H80CS28972,04E00154,BPS-H80-015697,[No Data],37 Pinckney St,York,29745-1731,803-909-6363,N/A,No,Community Health Centers,No,Service Delivery Sites,Region 4,Lindsey Graham,Tim Scott,South Carolina District 05,Ralph Norman,No,No,Yes,Affinity Health Center,45091061601,+34.9915480,-081.2629540,34.98462937,-81.2480438
"Pelion Pediatrics, Family &amp; Dental Practice",Yes,Service Delivery Site,Permanent,All Other Clinic Types,Lexington County,SC,H80CS00730,043270,BPS-H80-011150,[No Data],8063 Edmund Hwy,Pelion,29123-9805,803-894-3736,www.ecchc.org,No,Community Health Centers; Health Care for the Homeless; Migrant Health Centers,No,Service Delivery Sites,Region 4,Lindsey Graham,Tim Scott,South Carolina District 02,Joe Wilson,No,No,No,Eau Claire Cooperative Health Center,45063020904,+33.7310064,-081.2106588,33.77029017,-81.24199315
ReGenesis Health Care - Family Dentistry,Yes,Service Delivery Site,Permanent,All Other Clinic Types,Spartanburg County,SC,H80CS00298,0421000,BPS-H80-017594,[No Data],362 N Pine St,Spartanburg,29302-1631,864-398-4185,www.myrhc.org,No,Community Health Centers,No,Service Delivery Sites,Region 4,Lindsey Graham,Tim Scott,South Carolina District 04,"William R. Timmons, IV",No,No,No,"Regenesis Health Care, Inc",45083021200,+34.9509248,-081.9167596,34.95851417,-81.92352017
CareSouth Carolina Dillon Center,Yes,Service Delivery Site,Permanent,All Other Clinic Types,Dillon County,SC,H80CS00654,045230,BPS-H80-014178,[No Data],207 E Monroe St,Dillon,29536-2557,843-774-4337,www.caresouth-carolina.com,No,Community Health Centers,No,Service Delivery Sites,Region 4,Lindsey Graham,Tim Scott,South Carolina District 07,Tom Rice,No,No,Yes,CARE SOUTH CAROLINA INC,45033970300,+34.4536751,-079.4414521,34.42443124,-79.36507264
Waverly Family Practice,Yes,Service Delivery Site,Permanent,All Other Clinic Types,Richland County,SC,H80CS00730,043270,BPS-H80-015200,[No Data],1228 Harden St Ste C,Columbia,29204-1800,803-748-1181,,No,Community Health Centers; Health Care for the Homeless; Migrant Health Centers,No,Service Delivery Sites,Region 4,Lindsey Graham,Tim Scott,South Carolina District 06,James E. Clyburn,No,No,No,Eau Claire Cooperative Health Center,45079001300,+34.0080154,-081.0131624,34.00697764,-81.01949201
EAU CLAIRE INTERNAL MEDICINE,Yes,Service Delivery Site,Permanent,All Other Clinic Types,Richland County,SC,H80CS00730,043270,BPS-H80-011147,[No Data],4605 Monticello Rd,Columbia,29203-4156,803-754-0151,www.ecchc.org,No,Community Health Centers; Health Care for the Homeless; Migrant Health Centers,No,Service Delivery Sites,Region 4,Lindsey Graham,Tim Scott,South Carolina District 06,James E. Clyburn,No,No,No,Eau Claire Cooperative Health Center,45079000300,+34.0467069,-081.0624544,34.0455828,-81.04275867
SALUDA FAMILY PRACTICE,Yes,Service Delivery Site,Permanent,All Other Clinic Types,Saluda County,SC,H80CS00785,042780,BPS-H80-002111,[No Data],219 Greenwood Hwy,Saluda,29138-1143,864-445-2181,www.carolinahealthcenters.org,No,Community Health Centers; Migrant Health Centers,No,Service Delivery Sites,Region 4,Lindsey Graham,Tim Scott,South Carolina District 03,Jeff Duncan,No,No,Yes,"CAROLINA HEALTH CENTERS, INC.",45081960201,+33.9955697,-081.8669890,34.00732289,-81.77880519
Women's Health and Pediatric &amp; Adolescent Center,Yes,Service Delivery Site,Permanent,All Other Clinic Types,York County,SC,H80CS00750,042600,BPS-H80-016865,[No Data],1140 Saluda St,Rock Hill,29730-6225,803-325-7744,www.ncfmc.net,No,Community Health Centers; Public Housing,No,Service Delivery Sites,Region 4,Lindsey Graham,Tim Scott,South Carolina District 05,Ralph Norman,No,No,No,"Community Medicine Foundation, Inc.",45091060401,+34.9148169,-081.0342626,34.9066159,-81.03027139
Aiken Specialty Services,Yes,Service Delivery Site,Permanent,All Other Clinic Types,Aiken County,SC,H80CS00092,0416080,BPS-H80-028388,[No Data],209 Abbeville Ave NW,Aiken,29801-3923,803-306-1433,www.lowcountryhealthcaresystem.com,No,Community Health Centers,No,Service Delivery Sites,Region 4,Lindsey Graham,Tim Scott,South Carolina District 02,Joe Wilson,No,No,No,"Low Country Health Care System, Inc.",45003021400,+33.5732059,-081.7228476,33.56686427,-81.71854131
CSC ROSA LEE GERALD CENTER,Yes,Service Delivery Site,Permanent,All Other Clinic Types,Darlington County,SC,H80CS00654,045230,BPS-H80-003367,[No Data],737 S Main St,Society Hill,29593-8972,843-378-4501,www.caresouth-carolina.com,No,Community Health Centers,No,Service Delivery Sites,Region 4,Lindsey Graham,Tim Scott,South Carolina District 07,Tom Rice,No,No,No,CARE SOUTH CAROLINA INC,45031010100,+34.4505586,-079.8239245,34.50111652,-79.86336253
HopeHealth Second Loop Rd,Yes,Service Delivery Site,Permanent,All Other Clinic Types,Florence County,SC,H80CS08240,0452150,BPS-H80-031426,[No Data],1920 2nd Loop Rd,Florence,29501-6123,843-432-3700,,No,Community Health Centers,No,Service Delivery Sites,Region 4,Lindsey Graham,Tim Scott,South Carolina District 07,Tom Rice,No,No,No,"HopeHealth, Inc.",45041001300,+34.1682753,-079.8015603,34.17143682,-79.80128515
Baptist Hill Middle High School,Yes,Service Delivery Site,Seasonal,School,Charleston County,SC,H80CS09088,041110,BPS-H80-019147,[No Data],5117 Baptist Hill Rd,Hollywood,29449-6916,843-889-2276,www.fetterhealthcare.org,No,Community Health Centers; Health Care for the Homeless; Migrant Health Centers,No,Service Delivery Sites,Region 4,Lindsey Graham,Tim Scott,South Carolina District 06,James E. Clyburn,No,No,No,"FETTER HEALTH CARE NETWORK, INC.",45019002502,+32.7290527,-080.2269830,32.72783731,-80.26162791
Village Family Practice,Yes,Service Delivery Site,Permanent,All Other Clinic Types,Greenwood County,SC,H80CS00785,042780,BPS-H80-016917,[No Data],420 Epting Ave Ste B,Greenwood,29646-4040,864-547-8250,www.carolinahealthcenters.org,No,Community Health Centers; Migrant Health Centers,No,Service Delivery Sites,Region 4,Lindsey Graham,Tim Scott,South Carolina District 03,Jeff Duncan,No,No,Yes,"CAROLINA HEALTH CENTERS, INC.",45047970800,+34.1118770,-082.1861034,34.17132295,-82.15753427
Summerville Support Services Center,No,Administrative,Permanent,All Other Clinic Types,Dorchester County,SC,H80CS09088,041110,BPS-H80-004317,[No Data],700 N Pine St,Summerville,29483-6641,843-722-4112,www.fetterhealthcare.org,Yes,Community Health Centers; Health Care for the Homeless; Migrant Health Centers,No,Administrative Sites,Region 4,Lindsey Graham,Tim Scott,South Carolina District 01,Nancy Mace,No,No,No,"FETTER HEALTH CARE NETWORK, INC.",45035010700,+33.0271006,-080.1731660,33.02945804,-80.17231479
Five Points Walk-in Center,Yes,Service Delivery Site,Permanent,All Other Clinic Types,Richland County,SC,H80CS00730,043270,BPS-H80-014706,[No Data],1228 Harden St Ste A,Columbia,29204-1800,803-748-7002,,No,Community Health Centers; Health Care for the Homeless; Migrant Health Centers,No,Service Delivery Sites,Region 4,Lindsey Graham,Tim Scott,South Carolina District 06,James E. Clyburn,No,No,No,Eau Claire Cooperative Health Center,45079001300,+34.0080154,-081.0131624,34.00713798,-81.01914601
Health Care Partners of SC Admin. #2,No,Administrative,Permanent,Unknown,Horry County,SC,H80CS00411,047000,BPS-H80-029968,[No Data],1606 Main St,Conway,29526-3572,843-248-4700,,Yes,Community Health Centers,No,Administrative Sites,Region 4,Lindsey Graham,Tim Scott,South Carolina District 07,Tom Rice,No,No,No,"HEALTH CARE PARTNERS OF SOUTH CAROLINA, INC.",45051070200,+33.8580120,-079.0476531,33.85054601,-79.05621702
"Ridgeway Pediatrics, Family &amp; Dental Practice",Yes,Service Delivery Site,Permanent,All Other Clinic Types,Fairfield County,SC,H80CS00730,043270,BPS-H80-003306,[No Data],755 US Highway 21 S,Ridgeway,29130-6844,803-337-2920,www.ecchc.org,No,Community Health Centers; Health Care for the Homeless; Migrant Health Centers,No,Service Delivery Sites,Region 4,Lindsey Graham,Tim Scott,South Carolina District 05,Ralph Norman,No,No,No,Eau Claire Cooperative Health Center,45039960300,+34.3424663,-080.9219134,34.2985128,-80.95216052
SANDHILLS MEDICAL FOUNDATION Inc. - Jefferson Site,Yes,Service Delivery Site,Permanent,All Other Clinic Types,Chesterfield County,SC,H80CS00501,045050,BPS-H80-003604,[No Data],409 E Church St,Jefferson,29718-8701,843-335-8291,n/a,No,Community Health Centers,No,Service Delivery Sites,Region 4,Lindsey Graham,Tim Scott,South Carolina District 07,Tom Rice,No,No,Yes,SANDHILLS MEDICAL FOUNDATION,45025950200,+34.6454671,-080.3337693,34.65629023,-80.38141229
Whiskey Road,Yes,Service Delivery Site,Permanent,All Other Clinic Types,Aiken County,SC,H80CS00653,045220,BPS-H80-024842,[No Data],4200 Whiskey Rd,Aiken,29803-8534,803-380-7000,www.ruralhs.org,No,Community Health Centers,No,Service Delivery Sites,Region 4,Lindsey Graham,Tim Scott,South Carolina District 02,Joe Wilson,No,No,No,"Rural Health Services, Inc.",45003022001,+33.4469771,-081.6399794,33.465049,-81.68758804
Cayce/West Columbia Primary Care Center,Yes,Service Delivery Site,Permanent,All Other Clinic Types,Lexington County,SC,H80CS00730,043270,BPS-H80-017093,[No Data],407 N Brown St,West Columbia,29169-5710,803-995-8936,www.ecchc.org,No,Community Health Centers; Health Care for the Homeless; Migrant Health Centers,No,Service Delivery Sites,Region 4,Lindsey Graham,Tim Scott,South Carolina District 02,Joe Wilson,No,No,No,Eau Claire Cooperative Health Center,45063020505,+33.9923387,-081.0921352,33.98995521,-81.08107134
Pediatrics of Batesburg - Leesville,Yes,Service Delivery Site,Permanent,All Other Clinic Types,Lexington County,SC,H80CS00730,043270,BPS-H80-001268,[No Data],120 E Church St,Leesville,29070-7594,803-532-2208,www.ecchc.org,No,Community Health Centers; Health Care for the Homeless; Migrant Health Centers,No,Service Delivery Sites,Region 4,Lindsey Graham,Tim Scott,South Carolina District 02,Joe Wilson,No,No,No,Eau Claire Cooperative Health Center,45063021402,+33.9067406,-081.5379320,33.91437951,-81.52825538
Port Royal Medical Center II,Yes,Service Delivery Site,Permanent,All Other Clinic Types,Beaufort County,SC,H80CS00699,041190,BPS-H80-017991,[No Data],2210 Mossy Oaks Rd,Port Royal,29935-1046,843-987-7400,,No,Community Health Centers; Migrant Health Centers,No,Service Delivery Sites,Region 4,Lindsey Graham,Tim Scott,South Carolina District 01,Nancy Mace,No,No,Yes,"BEAUFORT-JASPER-HAMPTON COMPREHENSIVE HEALTH SERVICES, INCORPORATED",45013000800,+32.3847275,-080.6965888,32.40039832,-80.68696602
LCHCS dba Barnwell Family Specialty Services,Yes,Service Delivery Site,Permanent,All Other Clinic Types,Barnwell County,SC,H80CS00092,0416080,BPS-H80-027132,[No Data],124 Wren St,Barnwell,29812-1527,803-632-2533,,No,Community Health Centers,No,Service Delivery Sites,Region 4,Lindsey Graham,Tim Scott,South Carolina District 02,Joe Wilson,No,No,Yes,"Low Country Health Care System, Inc.",45011970300,+33.2731810,-081.3721662,33.25507476,-81.36219868
Fetter Mobile Medical Unit 2,Yes,Service Delivery Site,Mobile Van,All Other Clinic Types,Charleston County,SC,H80CS09088,041110,BPS-H80-031930,[No Data],51 Nassau St,Charleston,29403-5513,843-722-4112,www.fetterhealthcare.org,No,Community Health Centers; Health Care for the Homeless; Migrant Health Centers,No,Service Delivery Sites,Region 4,Lindsey Graham,Tim Scott,South Carolina District 06,James E. Clyburn,No,No,No,"FETTER HEALTH CARE NETWORK, INC.",45019000700,+32.7893794,-079.9385460,32.79392862,-79.93860134
LRMC - Loris Site,Yes,Service Delivery Site,Permanent,All Other Clinic Types,Horry County,SC,H80CS00700,047060,BPS-H80-008713,[No Data],3817 Main St,Loris,29569-3017,843-663-8000 x5400,www.lrmcenter.com,No,Community Health Centers; Health Care for the Homeless; Migrant Health Centers,No,Service Delivery Sites,Region 4,Lindsey Graham,Tim Scott,South Carolina District 07,Tom Rice,No,No,Yes,"Little River Medical Center, Inc.",45051020200,+34.0490659,-078.8433664,34.05759528,-78.89326654
McCune Branch Camp,Yes,Service Delivery Site,Seasonal,All Other Clinic Types,Colleton County,SC,H80CS09088,041110,BPS-H80-018939,[No Data],221 Mccune Branch Ln,Lodge,29082-9169,843-722-4112,,No,Community Health Centers; Health Care for the Homeless; Migrant Health Centers,No,Service Delivery Sites,Region 4,Lindsey Graham,Tim Scott,South Carolina District 06,James E. Clyburn,No,No,Yes,"FETTER HEALTH CARE NETWORK, INC.",45029970200,+32.9765716,-080.9462173,33.05845568,-80.96195424
ST GEORGE MEDICAL CENTER,Yes,Service Delivery Site,Permanent,All Other Clinic Types,Dorchester County,SC,H80CS00090,041180,BPS-H80-005099,[No Data],401 Ridge St,Saint George,29477-2451,843-563-5315,www.myfhc.org,No,Community Health Centers,No,Service Delivery Sites,Region 4,Lindsey Graham,Tim Scott,South Carolina District 06,James E. Clyburn,No,No,Yes,"FAMILY HEALTH CENTERS, INC.",45035010200,+33.1882779,-080.5663258,33.18881529,-80.57483733
Elijah Washington Medical Center,Yes,Service Delivery Site,Permanent,All Other Clinic Types,Beaufort County,SC,H80CS00699,041190,BPS-H80-001163,[No Data],21 Paige Point Blf,Sheldon,29941-2700,843-846-8148,www.bjhchs.org,No,Community Health Centers; Migrant Health Centers,No,Service Delivery Sites,Region 4,Lindsey Graham,Tim Scott,South Carolina District 06,James E. Clyburn,No,No,Yes,"BEAUFORT-JASPER-HAMPTON COMPREHENSIVE HEALTH SERVICES, INCORPORATED",45013000100,+32.5821594,-080.7263936,32.5658728,-80.78505049
Tandem Health,Yes,Service Delivery Site,Permanent,All Other Clinic Types,Sumter County,SC,H80CS00868,0423590,BPS-H80-013422,[No Data],319 N Main St,Sumter,29150-4258,803-774-4500,www.tandemhealthsc.org,No,Community Health Centers,No,Service Delivery Sites,Region 4,Lindsey Graham,Tim Scott,South Carolina District 06,James E. Clyburn,No,No,No,Tandem Health SC,45085002000,+33.9296368,-080.3508768,33.92570167,-80.34114275
Sandy Run K-8 School,Yes,Service Delivery Site,Permanent,School,Calhoun County,SC,H80CS00090,041180,BPS-H80-024673,[No Data],450 Old Swamp Rd,Swansea,29160-8390,803-655-2746,,No,Community Health Centers,No,Service Delivery Sites,Region 4,Lindsey Graham,Tim Scott,South Carolina District 06,James E. Clyburn,No,No,No,"FAMILY HEALTH CENTERS, INC.",45017950100,+33.7420117,-080.9452527,33.81251648,-80.94092575
COMMUNITY KITCHEN,Yes,Service Delivery Site,Permanent,All Other Clinic Types,Horry County,SC,H80CS00700,047060,BPS-H80-005675,[No Data],1411 Mr Joe White Ave,Myrtle Beach,29577-5615,843-663-8067,www.lrmcenter.com,No,Community Health Centers; Health Care for the Homeless; Migrant Health Centers,No,Service Delivery Sites,Region 4,Lindsey Graham,Tim Scott,South Carolina District 07,Tom Rice,No,No,No,"Little River Medical Center, Inc.",45051050600,+33.7041378,-078.8898834,33.70236201,-78.88929603
Donald E. Gatch Medical Center,Yes,Service Delivery Site,Permanent,All Other Clinic Types,Jasper County,SC,H80CS00699,041190,BPS-H80-000226,[No Data],552 Stiney Rd,Hardeeville,29927-5228,843-784-2181,www.bjhchs.org,No,Community Health Centers; Migrant Health Centers,No,Service Delivery Sites,Region 4,Lindsey Graham,Tim Scott,South Carolina District 06,James E. Clyburn,No,No,No,"BEAUFORT-JASPER-HAMPTON COMPREHENSIVE HEALTH SERVICES, INCORPORATED",45053950300,+32.2481288,-081.0599775,32.29790322,-81.08236853
HopeHealth @ FMU,Yes,Service Delivery Site,Permanent,All Other Clinic Types,Florence County,SC,H80CS08240,0452150,BPS-H80-010450,[No Data],121 S Evander Dr,Florence,29506-4212,843-432-2935,,No,Community Health Centers,No,Service Delivery Sites,Region 4,Lindsey Graham,Tim Scott,South Carolina District 07,Tom Rice,No,No,No,"HopeHealth, Inc.",45041000500,+34.1727846,-079.6571958,34.19591047,-79.65859884
Sandhills Medical Foundation - Ruby,Yes,Service Delivery Site,Permanent,All Other Clinic Types,Chesterfield County,SC,H80CS00501,045050,BPS-H80-022340,[No Data],290 Market St,Ruby,29741-2900,843-823-0363,sandhillsmedical.org,No,Community Health Centers,No,Service Delivery Sites,Region 4,Lindsey Graham,Tim Scott,South Carolina District 07,Tom Rice,No,No,Yes,SANDHILLS MEDICAL FOUNDATION,45025950300,+34.7507742,-080.2423477,34.74123198,-80.18476861
ReGenesis Health Care-Spartanburg,Yes,Service Delivery Site,Permanent,All Other Clinic Types,Spartanburg County,SC,H80CS00298,0421000,BPS-H80-001734,[No Data],750 S Church St,Spartanburg,29306-5348,864-582-2411,www.myrhc.org,No,Community Health Centers,No,Service Delivery Sites,Region 4,Lindsey Graham,Tim Scott,South Carolina District 04,"William R. Timmons, IV",No,No,No,"Regenesis Health Care, Inc",45083020900,+34.9352379,-081.9329353,34.93299919,-81.93129589
"Sandhills Medical, Camden Office",Yes,Service Delivery Site,Permanent,All Other Clinic Types,Kershaw County,SC,H80CS00501,045050,BPS-H80-010352,[No Data],2611 Liberty Hill Rd,Camden,29020-1871,803-432-3447,,No,Community Health Centers,No,Service Delivery Sites,Region 4,Lindsey Graham,Tim Scott,South Carolina District 05,Ralph Norman,No,No,Yes,SANDHILLS MEDICAL FOUNDATION,45055970500,+34.2954753,-080.6158639,34.2773319,-80.61108504
NCFMC-Administrative Site,No,Administrative,Permanent,All Other Clinic Types,York County,SC,H80CS00750,042600,BPS-H80-030362,[No Data],371 E Main St,Rock Hill,29730-5372,803-325-7744,,Yes,Community Health Centers; Public Housing,No,Administrative Sites,Region 4,Lindsey Graham,Tim Scott,South Carolina District 05,Ralph Norman,No,No,No,"Community Medicine Foundation, Inc.",45091060300,+34.9144554,-081.0197342,34.92293198,-81.021445
Enterprise Pediatrics Health Center,Yes,Service Delivery Site,Permanent,All Other Clinic Types,Charleston County,SC,H80CS09088,041110,BPS-H80-002514,[No Data],2047 Comstock Ave,North Charleston,29405-8117,843-747-8893,www.fetterhealthcare.org,No,Community Health Centers; Health Care for the Homeless; Migrant Health Centers,No,Service Delivery Sites,Region 4,Lindsey Graham,Tim Scott,South Carolina District 06,James E. Clyburn,No,No,No,"FETTER HEALTH CARE NETWORK, INC.",45019005400,+32.8200646,-079.9429888,32.83925598,-79.96022179
New Directions,Yes,Service Delivery Site,Permanent,All Other Clinic Types,Horry County,SC,H80CS00700,047060,BPS-H80-007598,[No Data],1005 Osceola St,Myrtle Beach,29577-8008,843-663-8067,www.lrmcenter.com,No,Community Health Centers; Health Care for the Homeless; Migrant Health Centers,No,Service Delivery Sites,Region 4,Lindsey Graham,Tim Scott,South Carolina District 07,Tom Rice,No,No,No,"Little River Medical Center, Inc.",45051050600,+33.7041378,-078.8898834,33.70658833,-78.89368583
Andrews Elementary School Based Health Clinic,Yes,Service Delivery Site,Seasonal,School,Georgetown County,SC,H80CS00828,048430,BPS-H80-027910,[No Data],13072 County Line Rd,Andrews,29510-6811,843-264-3419,,No,Community Health Centers; Migrant Health Centers,No,Service Delivery Sites,Region 4,Lindsey Graham,Tim Scott,South Carolina District 07,Tom Rice,No,No,Yes,St. James Health and Wellness Inc.,45043920201,+33.4085413,-079.4854138,33.46294853,-79.57037931
Family Health Care,Yes,Service Delivery Site,Permanent,All Other Clinic Types,Aiken County,SC,H80CS00653,045220,BPS-H80-010948,[No Data],120 Darlington Dr,Aiken,29803-8542,803-614-1404,www.ruralhs.org,No,Community Health Centers,No,Service Delivery Sites,Region 4,Lindsey Graham,Tim Scott,South Carolina District 02,Joe Wilson,No,No,No,"Rural Health Services, Inc.",45003022001,+33.4469771,-081.6399794,33.46551889,-81.68716777
C A R E Team Express Mobile Medical Unit,Yes,Service Delivery Site,Mobile Van,All Other Clinic Types,Greenville County,SC,H80CS00578,042610,BPS-H80-003838,[No Data],111A Berry Ave,Greer,29651-1307,864-801-2035 x1212,www.newhorizonfhs.org,No,Community Health Centers; Health Care for the Homeless,No,Service Delivery Sites,Region 4,Lindsey Graham,Tim Scott,South Carolina District 04,"William R. Timmons, IV",No,No,No,"New Horizon Family Health Services, Inc",45045002504,+34.9441768,-082.2341056,34.94627447,-82.2233295
HopeHealth - Lake City,Yes,Service Delivery Site,Permanent,All Other Clinic Types,Florence County,SC,H80CS08240,0452150,BPS-H80-012289,[No Data],241 Kelley St,Lake City,29560-2446,843-394-1051,,No,Community Health Centers,No,Service Delivery Sites,Region 4,Lindsey Graham,Tim Scott,South Carolina District 06,James E. Clyburn,No,No,Yes,"HopeHealth, Inc.",45041002201,+33.8669969,-079.7884800,33.87738315,-79.75714177
Eau Claire - Walk-In,Yes,Service Delivery Site,Permanent,All Other Clinic Types,Richland County,SC,H80CS00730,043270,BPS-H80-012699,[No Data],4605 Monticello Rd Ste 2,Columbia,29203-4156,803-744-0540,,No,Community Health Centers; Health Care for the Homeless; Migrant Health Centers,No,Service Delivery Sites,Region 4,Lindsey Graham,Tim Scott,South Carolina District 06,James E. Clyburn,No,No,No,Eau Claire Cooperative Health Center,45079000300,+34.0467069,-081.0624544,34.0455828,-81.04275867
Willow Swamp Road Camp,Yes,Service Delivery Site,Seasonal,All Other Clinic Types,Colleton County,SC,H80CS09088,041110,BPS-H80-020779,[No Data],3139 Willow Swamp Rd,Islandton,29929,843-866-7850,www.fetterhealthcare.org,No,Community Health Centers; Health Care for the Homeless; Migrant Health Centers,No,Service Delivery Sites,Region 4,Lindsey Graham,Tim Scott,South Carolina District 06,James E. Clyburn,No,No,Yes,"FETTER HEALTH CARE NETWORK, INC.",45029970200,+32.9765716,-080.9462173,33.01032984,-80.93679174
RUTH P. FIELD MEDICAL CENTER,Yes,Service Delivery Site,Permanent,All Other Clinic Types,Beaufort County,SC,H80CS00699,041190,BPS-H80-001803,[No Data],719 N Okatie Hwy,Ridgeland,29936-8276,843-987-7400,www.bjhchs.org,No,Community Health Centers; Migrant Health Centers,No,Service Delivery Sites,Region 4,Lindsey Graham,Tim Scott,South Carolina District 01,Nancy Mace,No,No,No,"BEAUFORT-JASPER-HAMPTON COMPREHENSIVE HEALTH SERVICES, INCORPORATED",45013002202,+32.3376045,-080.8200441,32.36085148,-80.87219837
Health Care Partners of SC Women's Care,Yes,Service Delivery Site,Permanent,All Other Clinic Types,Horry County,SC,H80CS00411,047000,BPS-H80-027989,[No Data],243 Singleton Ridge Rd,Conway,29526-8391,843-248-4700,,No,Community Health Centers,No,Service Delivery Sites,Region 4,Lindsey Graham,Tim Scott,South Carolina District 07,Tom Rice,No,No,No,"HEALTH CARE PARTNERS OF SOUTH CAROLINA, INC.",45051060405,+33.7922107,-079.0120361,33.78909187,-78.99856973
Eau Claire Family Dentistry at Monticello Road,Yes,Service Delivery Site,Permanent,All Other Clinic Types,Richland County,SC,H80CS00730,043270,BPS-H80-029783,[No Data],4605 Monticello Rd Bldg C,Columbia,29203-4156,803-733-5969,www.ecchc.org,No,Community Health Centers; Health Care for the Homeless; Migrant Health Centers,No,Service Delivery Sites,Region 4,Lindsey Graham,Tim Scott,South Carolina District 06,James E. Clyburn,No,No,No,Eau Claire Cooperative Health Center,45079000300,+34.0467069,-081.0624544,34.0455828,-81.04275867
"CAROLINA HEALTH CENTERS, INC.",No,Administrative,Permanent,All Other Clinic Types,Greenwood County,SC,H80CS00785,042780,BPS-H80-002333,[No Data],313 Main St Ste B,Greenwood,29646-2757,864-388-0301,www.carolinahealthcenters.org,Yes,Community Health Centers; Migrant Health Centers,No,Administrative Sites,Region 4,Lindsey Graham,Tim Scott,South Carolina District 03,Jeff Duncan,No,No,Yes,"CAROLINA HEALTH CENTERS, INC.",45047970500,+34.1960292,-082.1475885,34.19055523,-82.16028228
Charleston Dorchester Mental Health Center,Yes,Service Delivery Site,Permanent,All Other Clinic Types,Charleston County,SC,H80CS09088,041110,BPS-H80-010849,[No Data],2100 Charlie Hall Blvd,Charleston,29414-5832,843-852-4100,fcfetter.com,No,Community Health Centers; Health Care for the Homeless; Migrant Health Centers,No,Service Delivery Sites,Region 4,Lindsey Graham,Tim Scott,South Carolina District 01,Nancy Mace,No,No,No,"FETTER HEALTH CARE NETWORK, INC.",45019002613,+32.8200495,-080.0433739,32.81431052,-80.04599515
CSC BISHOPVILLE CENTER,Yes,Service Delivery Site,Permanent,All Other Clinic Types,Lee County,SC,H80CS00654,045230,BPS-H80-003903,[No Data],545 Sumter Hwy,Bishopville,29010-7601,803-484-5317,www.caresouth-carolina.com,No,Community Health Centers,No,Service Delivery Sites,Region 4,Lindsey Graham,Tim Scott,South Carolina District 05,Ralph Norman,No,No,Yes,CARE SOUTH CAROLINA INC,45061920200,+34.2712347,-080.3181752,34.20824536,-80.26333522
HCPSC School Based Health at Johnsonville High School,Yes,Service Delivery Site,Seasonal,School,Florence County,SC,H80CS00411,047000,BPS-H80-031109,[No Data],237 S Georgetown Hwy,Johnsonville,29555-8081,843-248-4700,https://hcpsc.org/,No,Community Health Centers,No,Service Delivery Sites,Region 4,Lindsey Graham,Tim Scott,South Carolina District 07,Tom Rice,No,No,Yes,"HEALTH CARE PARTNERS OF SOUTH CAROLINA, INC.",45041001900,+33.8455832,-079.4838564,33.81536536,-79.44195397
Laurens Community Care Medical Home Referral Center,Yes,Service Delivery Site,Permanent,Hospital,Laurens County,SC,H80CS00785,042780,BPS-H80-011836,[No Data],22725 Highway 76 E,Clinton,29325-7527,864-396-0200,www.carolinahealthcenters.org,No,Community Health Centers; Migrant Health Centers,No,Service Delivery Sites,Region 4,Lindsey Graham,Tim Scott,South Carolina District 03,Jeff Duncan,No,No,Yes,"CAROLINA HEALTH CENTERS, INC.",45059920302,+34.4434477,-081.9881019,34.47979601,-81.94128696
Waverly Womens Healthcare and Internal Medicine of Batesburg/Leesville,Yes,Service Delivery Site,Permanent,All Other Clinic Types,Lexington County,SC,H80CS00730,043270,BPS-H80-007534,[No Data],338 E Columbia Ave,Batesburg Leesville,29070-9285,803-532-1580,www.ecchc.org,No,Community Health Centers; Health Care for the Homeless; Migrant Health Centers,No,Service Delivery Sites,Region 4,Lindsey Graham,Tim Scott,South Carolina District 02,Joe Wilson,No,No,No,Eau Claire Cooperative Health Center,45063021402,+33.9067406,-081.5379320,33.91478228,-81.51621257
Little River Medical Center Annex,No,Administrative,Permanent,All Other Clinic Types,Horry County,SC,H80CS00700,047060,BPS-H80-024472,[No Data],2220 Highway 17,Little River,29566-9233,843-663-8000,,Yes,Community Health Centers; Health Care for the Homeless; Migrant Health Centers,No,Administrative Sites,Region 4,Lindsey Graham,Tim Scott,South Carolina District 07,Tom Rice,No,No,No,"Little River Medical Center, Inc.",45051040104,+33.8868648,-078.6108585,33.88562423,-78.5978529
Andrews Healthcare Annex,Yes,Administrative/Service Delivery Site,Permanent,All Other Clinic Types,Georgetown County,SC,H80CS00828,048430,BPS-H80-031369,[No Data],411 E Main St,Andrews,29510-4011,843-264-1223,www.stjamessanteefhc.com,Yes,Community Health Centers; Migrant Health Centers,No,Service Delivery Sites,Region 4,Lindsey Graham,Tim Scott,South Carolina District 07,Tom Rice,No,No,Yes,St. James Health and Wellness Inc.,45043920202,+33.5087031,-079.4737419,33.45008713,-79.55591271
"Health Care Partners of South Carolina, Inc. - JOHNSONVILLE OFFICE",Yes,Service Delivery Site,Permanent,All Other Clinic Types,Florence County,SC,H80CS00411,047000,BPS-H80-002857,[No Data],123 E Broadway St,Johnsonville,29555-4252,843-386-3573,www.hscpsc.com,No,Community Health Centers,No,Service Delivery Sites,Region 4,Lindsey Graham,Tim Scott,South Carolina District 07,Tom Rice,No,No,Yes,"HEALTH CARE PARTNERS OF SOUTH CAROLINA, INC.",45041001900,+33.8455832,-079.4838564,33.81789104,-79.44831633
"St. James-SanteeFamily Health Center, Inc-Sampit Site",Yes,Service Delivery Site,Permanent,All Other Clinic Types,Georgetown County,SC,H80CS00828,048430,BPS-H80-008943,[No Data],2482 Powell Rd,Georgetown,29440-8590,843-527-7533,NA,No,Community Health Centers; Migrant Health Centers,No,Service Delivery Sites,Region 4,Lindsey Graham,Tim Scott,South Carolina District 07,Tom Rice,No,No,Yes,St. James Health and Wellness Inc.,45043920800,+33.2899077,-079.4344696,33.33027868,-79.47273801
BROOKLAND-CAYCE MEDICAL PRACTICE,Yes,Service Delivery Site,Permanent,All Other Clinic Types,Lexington County,SC,H80CS00730,043270,BPS-H80-001508,[No Data],1115 State St,Cayce,29033-4342,803-939-0174,www.ecchc.org,No,Community Health Centers; Health Care for the Homeless; Migrant Health Centers,No,Service Delivery Sites,Region 4,Lindsey Graham,Tim Scott,South Carolina District 02,Joe Wilson,No,No,No,Eau Claire Cooperative Health Center,45063020201,+33.9783035,-081.0571089,33.98331167,-81.05555281
Tandem Health,No,Administrative,Permanent,Unknown,Sumter County,SC,H80CS00868,0423590,BPS-H80-027395,[No Data],550 S Pike W,Sumter,29150-2616,803-774-4500,www.tandemhealthsc.org,Yes,Community Health Centers,No,Administrative Sites,Region 4,Lindsey Graham,Tim Scott,South Carolina District 05,Ralph Norman,No,No,No,Tandem Health SC,45085000901,+33.9483910,-080.3732220,33.95027482,-80.36251115
Pediatrics of Newberry,Yes,Service Delivery Site,Permanent,All Other Clinic Types,Newberry County,SC,H80CS00730,043270,BPS-H80-011152,[No Data],2525 Kinard St,Newberry,29108-2909,803-405-0220,www.ecchc.org,No,Community Health Centers; Health Care for the Homeless; Migrant Health Centers,No,Service Delivery Sites,Region 4,Lindsey Graham,Tim Scott,South Carolina District 05,Ralph Norman,No,No,Yes,Eau Claire Cooperative Health Center,45071950202,+34.2795093,-081.5635938,34.28813764,-81.60577546
LCHCS Administrative Office,No,Administrative,Permanent,All Other Clinic Types,Barnwell County,SC,H80CS00092,0416080,BPS-H80-031297,[No Data],914 Reynolds Rd,Barnwell,29812-6358,803-259-5762,www.lowcountryhealthcaresystem.com,Yes,Community Health Centers,No,Administrative Sites,Region 4,Lindsey Graham,Tim Scott,South Carolina District 02,Joe Wilson,No,No,Yes,"Low Country Health Care System, Inc.",45011970300,+33.2731810,-081.3721662,33.25626455,-81.3599728
HopeHealth Bethea,Yes,Service Delivery Site,Permanent,All Other Clinic Types,Darlington County,SC,H80CS08240,0452150,BPS-H80-021667,[No Data],157 Home Ave,Darlington,29532-7625,843-432-2960 x14410,,No,Community Health Centers,No,Service Delivery Sites,Region 4,Lindsey Graham,Tim Scott,South Carolina District 07,Tom Rice,No,No,No,"HopeHealth, Inc.",45031011400,+34.2667090,-079.8343225,34.2549585,-79.83951579
Little River Medical Center at Carolina Forest,Yes,Service Delivery Site,Permanent,All Other Clinic Types,Horry County,SC,H80CS00700,047060,BPS-H80-017195,[No Data],4220 Carolina Exchange Dr,Myrtle Beach,29579-4220,800-663-8000,,No,Community Health Centers; Health Care for the Homeless; Migrant Health Centers,No,Service Delivery Sites,Region 4,Lindsey Graham,Tim Scott,South Carolina District 07,Tom Rice,No,No,No,"Little River Medical Center, Inc.",45051060209,+33.7718668,-078.9473766,33.76189464,-78.96459276
Fetter Mobile Medical Unit 1,Yes,Service Delivery Site,Mobile Van,All Other Clinic Types,Charleston County,SC,H80CS09088,041110,BPS-H80-030917,[No Data],51 Nassau St,Charleston,29403-5513,843-722-4112,www.fetterhealthcare.org,No,Community Health Centers; Health Care for the Homeless; Migrant Health Centers,No,Service Delivery Sites,Region 4,Lindsey Graham,Tim Scott,South Carolina District 06,James E. Clyburn,No,No,No,"FETTER HEALTH CARE NETWORK, INC.",45019000700,+32.7893794,-079.9385460,32.79392862,-79.93860134
CALHOUN FALLS FAMILY PRACTICE,Yes,Service Delivery Site,Permanent,All Other Clinic Types,Abbeville County,SC,H80CS00785,042780,BPS-H80-000417,[No Data],535 Jackson St,Calhoun Falls,29628-1222,864-418-8578,www.carolinahealthcenters.org,No,Community Health Centers; Migrant Health Centers,No,Service Delivery Sites,Region 4,Lindsey Graham,Tim Scott,South Carolina District 03,Jeff Duncan,No,No,Yes,"CAROLINA HEALTH CENTERS, INC.",45001950600,+34.1246804,-082.5850722,34.09224948,-82.58604152
Berkeley Community Mental Health,Yes,Service Delivery Site,Permanent,All Other Clinic Types,Berkeley County,SC,H80CS09088,041110,BPS-H80-024847,[No Data],403 Stony Landing Rd,Moncks Corner,29461-3967,843-761-8282,https://www.berkeleymentalhealth.org,No,Community Health Centers; Health Care for the Homeless; Migrant Health Centers,No,Service Delivery Sites,Region 4,Lindsey Graham,Tim Scott,South Carolina District 01,Nancy Mace,No,No,No,"FETTER HEALTH CARE NETWORK, INC.",45015020506,+33.1834737,-079.9987130,33.1963282,-79.99170481
"Sandhills Medical Foundation, Inc - Admin Annex",No,Administrative,Permanent,Unknown,Kershaw County,SC,H80CS00501,045050,BPS-H80-022180,[No Data],1111 Broad St,Camden,29020-3611,803-335-8291,,Yes,Community Health Centers,No,Administrative Sites,Region 4,Lindsey Graham,Tim Scott,South Carolina District 05,Ralph Norman,No,No,Yes,SANDHILLS MEDICAL FOUNDATION,45055970800,+34.2226390,-080.5951484,34.24694662,-80.60721294
UPTOWN FAMILY PRACTICE CENTER,Yes,Service Delivery Site,Permanent,All Other Clinic Types,Greenwood County,SC,H80CS00785,042780,BPS-H80-003974,[No Data],313 Main St Ste A,Greenwood,29646-2757,864-229-4446,www.carolinahealthcenters.org,No,Community Health Centers; Migrant Health Centers,No,Service Delivery Sites,Region 4,Lindsey Graham,Tim Scott,South Carolina District 03,Jeff Duncan,No,No,Yes,"CAROLINA HEALTH CENTERS, INC.",45047970500,+34.1960292,-082.1475885,34.19055523,-82.16028228
Toby's Place (Oliver Gospel Mission),Yes,Service Delivery Site,Permanent,Domestic Violence,Richland County,SC,H80CS00730,043270,BPS-H80-031747,[No Data],,Columbia,,803-730-0742,www.cooperativehealth.org,No,Community Health Centers; Health Care for the Homeless; Migrant Health Centers,No,Service Delivery Sites,Region 4,Lindsey Graham,Tim Scott,South Carolina District 06,James E. Clyburn,No,No,No,Eau Claire Cooperative Health Center,45079001600,+34.0035118,-081.0483875,33.99882,-81.04536999
PORT ROYAL MEDICAL CENTER,Yes,Service Delivery Site,Permanent,All Other Clinic Types,Beaufort County,SC,H80CS00699,041190,BPS-H80-003203,[No Data],1320 Ribaut Rd,Port Royal,29935-1118,843-986-0900,www.bjhchs.org,No,Community Health Centers; Migrant Health Centers,No,Service Delivery Sites,Region 4,Lindsey Graham,Tim Scott,South Carolina District 01,Nancy Mace,No,No,Yes,"BEAUFORT-JASPER-HAMPTON COMPREHENSIVE HEALTH SERVICES, INCORPORATED",45013000800,+32.3847275,-080.6965888,32.39984585,-80.68524425
SouthStrand Medical Center,Yes,Service Delivery Site,Permanent,All Other Clinic Types,Horry County,SC,H80CS00700,047060,BPS-H80-011668,[No Data],3236 Holmestown Rd,Myrtle Beach,29588-7495,843-663-1013,www.lrmcenter.com,No,Community Health Centers; Health Care for the Homeless; Migrant Health Centers,No,Service Delivery Sites,Region 4,Lindsey Graham,Tim Scott,South Carolina District 07,Tom Rice,No,No,No,"Little River Medical Center, Inc.",45051051601,+33.6597535,-079.0227565,33.62535839,-79.00934626
Sandhills Medical Foundation- Bethune,Yes,Service Delivery Site,Permanent,All Other Clinic Types,Kershaw County,SC,H80CS00501,045050,BPS-H80-031866,[No Data],103 Main St N Bldg,Bethune,29009-9750,843-334-7145,,No,Community Health Centers,No,Service Delivery Sites,Region 4,Lindsey Graham,Tim Scott,South Carolina District 05,Ralph Norman,No,No,No,SANDHILLS MEDICAL FOUNDATION,45055970100,+34.4265586,-080.3805615,34.41517108,-80.34862418
SCPHCA/SCMHP Administration Office,No,Administrative,Permanent,Unknown,Richland County,SC,H80CS04184,0438110,BPS-H80-008699,[No Data],3 Technology Cir,Columbia,29203-9591,803-788-2778,www.scphca.org,Yes,Community Health Centers; Migrant Health Centers,No,Administrative Sites,Region 4,Lindsey Graham,Tim Scott,South Carolina District 06,James E. Clyburn,No,No,No,"Primary Health Care Association of S.C., The",45079011404,+34.1092531,-080.9554245,34.10289901,-80.96447806
ReGenesis Health Care - Administration/Family Medicine,Yes,Administrative/Service Delivery Site,Permanent,All Other Clinic Types,Spartanburg County,SC,H80CS00298,0421000,BPS-H80-015062,[No Data],460 Langdon St,Spartanburg,29302-1614,864-582-2411,www.myrhc.org,Yes,Community Health Centers,No,Service Delivery Sites,Region 4,Lindsey Graham,Tim Scott,South Carolina District 04,"William R. Timmons, IV",No,No,No,"Regenesis Health Care, Inc",45083021200,+34.9509248,-081.9167596,34.95865119,-81.92272576
HopeHealth Lake City School-based Health Center,Yes,Service Delivery Site,Seasonal,School,Florence County,SC,H80CS08240,0452150,BPS-H80-012324,[No Data],652 N Matthews Rd,Lake City,29560-7008,843-432-3677,www.hope-health.org,No,Community Health Centers,No,Service Delivery Sites,Region 4,Lindsey Graham,Tim Scott,South Carolina District 06,James E. Clyburn,No,No,Yes,"HopeHealth, Inc.",45041002201,+33.8669969,-079.7884800,33.88829475,-79.76485245
Estill Medical Center,Yes,Service Delivery Site,Permanent,All Other Clinic Types,Hampton County,SC,H80CS00699,041190,BPS-H80-001382,[No Data],776 2nd St E,Estill,29918-4926,803-625-2548,www.bjhchs.org,No,Community Health Centers; Migrant Health Centers,No,Service Delivery Sites,Region 4,Lindsey Graham,Tim Scott,South Carolina District 06,James E. Clyburn,No,No,Yes,"BEAUFORT-JASPER-HAMPTON COMPREHENSIVE HEALTH SERVICES, INCORPORATED",45049920400,+32.7786383,-081.2056929,32.75250253,-81.23331051
Hollywood Family Health Center,Yes,Service Delivery Site,Permanent,All Other Clinic Types,Charleston County,SC,H80CS09088,041110,BPS-H80-011207,[No Data],5225 Highway 165,Hollywood,29449-6144,843-889-2272,fcfetter.com,No,Community Health Centers; Health Care for the Homeless; Migrant Health Centers,No,Service Delivery Sites,Region 4,Lindsey Graham,Tim Scott,South Carolina District 06,James E. Clyburn,No,No,No,"FETTER HEALTH CARE NETWORK, INC.",45019002502,+32.7290527,-080.2269830,32.73576739,-80.24141218
"Health Care Partners of South Carolina, Inc. - CONWAY OFFICE",Yes,Administrative/Service Delivery Site,Permanent,All Other Clinic Types,Horry County,SC,H80CS00411,047000,BPS-H80-002223,[No Data],1708 Oak St,Conway,29526-3086,843-248-4700,www.hscpsc.com,Yes,Community Health Centers,No,Service Delivery Sites,Region 4,Lindsey Graham,Tim Scott,South Carolina District 07,Tom Rice,No,No,No,"HEALTH CARE PARTNERS OF SOUTH CAROLINA, INC.",45051070200,+33.8580120,-079.0476531,33.8516533,-79.05663729
Eau Claire Behavioral Medicine,Yes,Service Delivery Site,Permanent,All Other Clinic Types,Richland County,SC,H80CS00730,043270,BPS-H80-014748,[No Data],4605 Monticello Rd Ste 1,Columbia,29203-4156,803-252-0266,,No,Community Health Centers; Health Care for the Homeless; Migrant Health Centers,No,Service Delivery Sites,Region 4,Lindsey Graham,Tim Scott,South Carolina District 06,James E. Clyburn,No,No,No,Eau Claire Cooperative Health Center,45079000300,+34.0467069,-081.0624544,34.0455828,-81.04275867
Affinity Health Center- Clover,Yes,Service Delivery Site,Permanent,All Other Clinic Types,York County,SC,H80CS28972,04E00154,BPS-H80-015702,[No Data],300 Clinton Ave,Clover,29710-1627,803-909-6363,N/A,No,Community Health Centers,No,Service Delivery Sites,Region 4,Lindsey Graham,Tim Scott,South Carolina District 05,Ralph Norman,No,No,No,Affinity Health Center,45091061802,+35.0920972,-081.2223217,35.10512648,-81.21980425
Dental Mobile Unit (DMU),Yes,Service Delivery Site,Mobile Van,All Other Clinic Types,Darlington County,SC,H80CS00654,045230,BPS-H80-030012,[No Data],737 S Main St,Society Hill,29593-8972,866-815-9845,,No,Community Health Centers,No,Service Delivery Sites,Region 4,Lindsey Graham,Tim Scott,South Carolina District 07,Tom Rice,No,No,No,CARE SOUTH CAROLINA INC,45031010100,+34.4505586,-079.8239245,34.50111652,-79.86336253
Transitions Center,Yes,Service Delivery Site,Permanent,All Other Clinic Types,Richland County,SC,H80CS00730,043270,BPS-H80-014487,[No Data],2025 Main St,Columbia,29201-2125,803-260-7593,,No,Community Health Centers; Health Care for the Homeless; Migrant Health Centers,No,Service Delivery Sites,Region 4,Lindsey Graham,Tim Scott,South Carolina District 06,James E. Clyburn,No,No,No,Eau Claire Cooperative Health Center,45079003100,+34.0078902,-081.0307786,34.01267985,-81.03861558
Georgetown Pediatric Center,Yes,Service Delivery Site,Permanent,All Other Clinic Types,Georgetown County,SC,H80CS00828,048430,BPS-H80-014475,[No Data],57 Jessamine Ave,Georgetown,29440-5837,843-546-8686,,No,Community Health Centers; Migrant Health Centers,No,Service Delivery Sites,Region 4,Lindsey Graham,Tim Scott,South Carolina District 07,Tom Rice,No,No,Yes,St. James Health and Wellness Inc.,45043920600,+33.3933217,-079.3306841,33.4091789,-79.28736495
Care ROADS,Yes,Service Delivery Site,Mobile Van,All Other Clinic Types,Darlington County,SC,H80CS00654,045230,BPS-H80-030062,[No Data],1268 S 4th St,Hartsville,29550-0703,843-309-8102,,No,Community Health Centers,No,Service Delivery Sites,Region 4,Lindsey Graham,Tim Scott,South Carolina District 07,Tom Rice,No,No,Yes,CARE SOUTH CAROLINA INC,45031010700,+34.3541929,-080.0756425,34.35781196,-80.06000508
EAST COAST MIGRANT HEAD START PROGRAM,Yes,Service Delivery Site,Seasonal,School,Colleton County,SC,H80CS09088,041110,BPS-H80-009949,[No Data],14405 Bells Hwy,Lodge,29082-9331,843-768-9518,,No,Community Health Centers; Health Care for the Homeless; Migrant Health Centers,No,Service Delivery Sites,Region 4,Lindsey Graham,Tim Scott,South Carolina District 06,James E. Clyburn,No,No,Yes,"FETTER HEALTH CARE NETWORK, INC.",45029970200,+32.9765716,-080.9462173,32.99472926,-80.88623073
HopeHealth Timmonsville,Yes,Service Delivery Site,Permanent,All Other Clinic Types,Florence County,SC,H80CS08240,0452150,BPS-H80-012450,[No Data],210 E Market St,Timmonsville,29161-1812,843-346-3730,,No,Community Health Centers,No,Service Delivery Sites,Region 4,Lindsey Graham,Tim Scott,South Carolina District 07,Tom Rice,No,No,No,"HopeHealth, Inc.",45041002600,+34.0956922,-079.9204399,34.13428974,-79.93899378
TRAVELERS REST,Yes,Service Delivery Site,Permanent,All Other Clinic Types,Greenville County,SC,H80CS00578,042610,BPS-H80-008140,[No Data],1588 Geer Hwy,Travelers Rest,29690-9204,864-836-1109,www.newhorizonfhs.org,No,Community Health Centers; Health Care for the Homeless,No,Service Delivery Sites,Region 4,Lindsey Graham,Tim Scott,South Carolina District 04,"William R. Timmons, IV",No,No,No,"New Horizon Family Health Services, Inc",45045003903,+34.9881191,-082.4811278,34.99604712,-82.47336791
Foothills Community Health Care - Clemson,Yes,Service Delivery Site,Permanent,All Other Clinic Types,Pickens County,SC,H80CS24157,04E00503,BPS-H80-021590,[No Data],110 Liberty Dr,Clemson,29631-3157,864-722-0283 x201,www.myfchc.org,No,Community Health Centers,No,Service Delivery Sites,Region 4,Lindsey Graham,Tim Scott,South Carolina District 03,Jeff Duncan,No,No,No,"Foothills Community Health Care, Inc.",45077011203,+34.6792351,-082.8023449,34.68742213,-82.80978498
NORTH CENTRAL FAMILY MEDICAL CTR. CHESTER,Yes,Service Delivery Site,Permanent,All Other Clinic Types,Chester County,SC,H80CS00750,042600,BPS-H80-003684,[No Data],115 Cestrain Sq,Chester,29706-1979,803-581-0574,www.ncfmc.net,No,Community Health Centers; Public Housing,No,Service Delivery Sites,Region 4,Lindsey Graham,Tim Scott,South Carolina District 05,Ralph Norman,No,No,No,"Community Medicine Foundation, Inc.",45023020200,+34.7003242,-081.2195686,34.70232798,-81.20945519
CSC Bennettsville Pediatric Center,Yes,Service Delivery Site,Permanent,All Other Clinic Types,Marlboro County,SC,H80CS00654,045230,BPS-H80-004940,[No Data],210 W Main St,Bennettsville,29512-3122,843-479-1200,www.caresouth-carolina.com,No,Community Health Centers,No,Service Delivery Sites,Region 4,Lindsey Graham,Tim Scott,South Carolina District 07,Tom Rice,No,No,Yes,CARE SOUTH CAROLINA INC,45069960200,+34.5638971,-079.7572819,34.61592158,-79.68586404
WORKMAN STREET PHPC,No,Administrative,Permanent,All Other Clinic Types,York County,SC,H80CS00750,042600,BPS-H80-006562,[No Data],380 Workman St S,Rock Hill,29730-6354,803-325-7710,www.ncfmc.net,Yes,Community Health Centers; Public Housing,No,Administrative Sites,Region 4,Lindsey Graham,Tim Scott,South Carolina District 05,Ralph Norman,No,No,No,"Community Medicine Foundation, Inc.",45091060300,+34.9144554,-081.0197342,34.91480254,-81.01200396
Walterboro Family Health Center,Yes,Service Delivery Site,Permanent,All Other Clinic Types,Colleton County,SC,H80CS09088,041110,BPS-H80-008450,[No Data],302 Medical Park Dr,Walterboro,29488-5747,843-549-6853,www.fetterhealthcare.org,No,Community Health Centers; Health Care for the Homeless; Migrant Health Centers,No,Service Delivery Sites,Region 4,Lindsey Graham,Tim Scott,South Carolina District 06,James E. Clyburn,No,No,Yes,"FETTER HEALTH CARE NETWORK, INC.",45029970402,+32.9671267,-080.6527418,32.92345501,-80.67034401
BJHCHS Mobile Unit,Yes,Service Delivery Site,Mobile Van,All Other Clinic Types,Hampton County,SC,H80CS00699,041190,BPS-H80-014501,[No Data],200 Elm St E,Hampton,29924-3430,843-943-2233,,No,Community Health Centers; Migrant Health Centers,No,Service Delivery Sites,Region 4,Lindsey Graham,Tim Scott,South Carolina District 06,James E. Clyburn,No,No,Yes,"BEAUFORT-JASPER-HAMPTON COMPREHENSIVE HEALTH SERVICES, INCORPORATED",45049920200,+32.8590563,-081.0106074,32.86553614,-81.10722632
HopeHealth Kingstree,Yes,Service Delivery Site,Permanent,All Other Clinic Types,Williamsburg County,SC,H80CS08240,0452150,BPS-H80-012459,[No Data],520 Thurgood Marshall Hwy Ste B,Kingstree,29556-4108,843-355-5628,,No,Community Health Centers,No,Service Delivery Sites,Region 4,Lindsey Graham,Tim Scott,South Carolina District 06,James E. Clyburn,No,No,Yes,"HopeHealth, Inc.",45089970501,+33.6474741,-079.7149055,33.66064689,-79.81674807
LRMC Health Access,Yes,Service Delivery Site,Permanent,All Other Clinic Types,Horry County,SC,H80CS00700,047060,BPS-H80-003303,[No Data],1075 Mr Joe White Ave Unit 101,Myrtle Beach,29577-5658,843-663-8067,www.lrmcenter.com,No,Community Health Centers; Health Care for the Homeless; Migrant Health Centers,No,Service Delivery Sites,Region 4,Lindsey Graham,Tim Scott,South Carolina District 07,Tom Rice,No,No,No,"Little River Medical Center, Inc.",45051050600,+33.7041378,-078.8898834,33.69988222,-78.88633328
Johns Island Family Health Center,Yes,Service Delivery Site,Permanent,All Other Clinic Types,Charleston County,SC,H80CS09088,041110,BPS-H80-014185,[No Data],3627 Maybank Hwy,Johns Island,29455-4825,843-628-0284,www.fetterhealthcare.org,No,Community Health Centers; Health Care for the Homeless; Migrant Health Centers,No,Service Delivery Sites,Region 4,Lindsey Graham,Tim Scott,South Carolina District 01,Nancy Mace,No,No,No,"FETTER HEALTH CARE NETWORK, INC.",45019002101,+32.7430103,-080.0840064,32.71829816,-80.08221914
Lamar Family Care,Yes,Service Delivery Site,Permanent,All Other Clinic Types,Darlington County,SC,H80CS28973,04E01160,BPS-H80-017256,[No Data],301 W Main St,Lamar,29069-7102,843-395-8400,,No,Community Health Centers,No,Service Delivery Sites,Region 4,Lindsey Graham,Tim Scott,South Carolina District 07,Tom Rice,No,No,No,"GENESIS HEALTHCARE, INC",45031011600,+34.1546333,-080.0807553,34.17227993,-80.06605457
Sandhills Medical Foundation--Lugoff Baldwin Ave,Yes,Service Delivery Site,Permanent,All Other Clinic Types,Kershaw County,SC,H80CS00501,045050,BPS-H80-008626,[No Data],40 Baldwin Ave,Lugoff,29078-9406,843-335-8291,www.sandhillsmedicalfoundation.com,No,Community Health Centers,No,Service Delivery Sites,Region 4,Lindsey Graham,Tim Scott,South Carolina District 05,Ralph Norman,No,No,No,SANDHILLS MEDICAL FOUNDATION,45055970402,+34.2346731,-080.6900046,34.2245708,-80.68849938
Rosa Clark Medical Clinic - Mobile Dental,Yes,Service Delivery Site,Mobile Van,All Other Clinic Types,Oconee County,SC,H80CS30713,04E01242,BPS-H80-029771,[No Data],301 Memorial Dr,Seneca,29672-9491,864-882-4664 x86461,www.rosaclarkclinic.org,No,Community Health Centers,No,Service Delivery Sites,Region 4,Lindsey Graham,Tim Scott,South Carolina District 03,Jeff Duncan,No,No,Yes,Rosa Clark Medical Clinic Inc,45073030601,+34.7033834,-082.9775697,34.69402719,-82.98776539
RIDGE SPRING FAMILY PRACTICE,Yes,Service Delivery Site,Permanent,All Other Clinic Types,Saluda County,SC,H80CS00785,042780,BPS-H80-004413,[No Data],201 Aiken Rd,Ridge Spring,29129-9169,803-685-3100,www.carolinahealthcenters.org,No,Community Health Centers; Migrant Health Centers,No,Service Delivery Sites,Region 4,Lindsey Graham,Tim Scott,South Carolina District 03,Jeff Duncan,No,No,Yes,"CAROLINA HEALTH CENTERS, INC.",45081960400,+33.8896333,-081.6851220,33.8411328,-81.66229715
HomeTown Pediatrics,Yes,Service Delivery Site,Permanent,All Other Clinic Types,Laurens County,SC,H80CS00785,042780,BPS-H80-021965,[No Data],23265 Highway 76 E,Clinton,29325-7532,864-547-8300,,No,Community Health Centers; Migrant Health Centers,No,Service Delivery Sites,Region 4,Lindsey Graham,Tim Scott,South Carolina District 03,Jeff Duncan,No,No,Yes,"CAROLINA HEALTH CENTERS, INC.",45059920700,+34.4682270,-081.9191816,34.47567363,-81.93338299
ReGenesis Health Care - Union,Yes,Service Delivery Site,Permanent,All Other Clinic Types,Union County,SC,H80CS00298,0421000,BPS-H80-029609,[No Data],115 Thomas St,Union,29379-2147,864-594-0790,www.myrhc.org,No,Community Health Centers,No,Service Delivery Sites,Region 4,Lindsey Graham,Tim Scott,South Carolina District 05,Ralph Norman,No,No,Yes,"Regenesis Health Care, Inc",45087030200,+34.7080486,-081.6317056,34.71504452,-81.63108294
ST. MATTHEW'S FAMILY HEALTH CTR,Yes,Service Delivery Site,Permanent,All Other Clinic Types,Calhoun County,SC,H80CS00090,041180,BPS-H80-001022,[No Data],558 Chestnut St,Saint Matthews,29135-8104,803-874-2006,www.myfhc.org,No,Community Health Centers,No,Service Delivery Sites,Region 4,Lindsey Graham,Tim Scott,South Carolina District 06,James E. Clyburn,No,No,No,"FAMILY HEALTH CENTERS, INC.",45017950200,+33.6883735,-080.8061167,33.65975495,-80.79108255
Minnie Hughes Elementary,Yes,Service Delivery Site,Seasonal,School,Charleston County,SC,H80CS09088,041110,BPS-H80-019146,[No Data],8548 Willtown Rd,Hollywood,29449-5515,843-889-2976,www.fetterhealthcare.org,No,Community Health Centers; Health Care for the Homeless; Migrant Health Centers,No,Service Delivery Sites,Region 4,Lindsey Graham,Tim Scott,South Carolina District 06,James E. Clyburn,No,No,No,"FETTER HEALTH CARE NETWORK, INC.",45019002400,+32.7481866,-080.3518239,32.70057974,-80.3742516
HopeHealth Manning Adults,Yes,Service Delivery Site,Permanent,All Other Clinic Types,Clarendon County,SC,H80CS08240,0452150,BPS-H80-012452,[No Data],12 W South St,Manning,29102-2925,803-433-4321,,No,Community Health Centers,No,Service Delivery Sites,Region 4,Lindsey Graham,Tim Scott,South Carolina District 06,James E. Clyburn,No,No,Yes,"HopeHealth, Inc.",45027960701,+33.6390856,-080.2315868,33.68913681,-80.21234122
Denmark Medical Center,Yes,Service Delivery Site,Permanent,All Other Clinic Types,Bamberg County,SC,H80CS00090,041180,BPS-H80-017937,[No Data],5616 Carolina Hwy,Denmark,29042-2240,803-531-6905,www.myfhc.org,No,Community Health Centers,No,Service Delivery Sites,Region 4,Lindsey Graham,Tim Scott,South Carolina District 06,James E. Clyburn,No,No,Yes,"FAMILY HEALTH CENTERS, INC.",45009960100,+33.3261599,-081.1667580,33.31314481,-81.14386236
MARGARET J. WESTON HEALTH CENTER,Yes,Service Delivery Site,Permanent,All Other Clinic Types,Aiken County,SC,H80CS00653,045220,BPS-H80-000709,[No Data],4645 Augusta Rd,Clearwater,29842-7265,803-593-9283,www.ruralhs.org,No,Community Health Centers,No,Service Delivery Sites,Region 4,Lindsey Graham,Tim Scott,South Carolina District 02,Joe Wilson,No,No,No,"Rural Health Services, Inc.",45003021002,+33.5044854,-081.9155699,33.49447794,-81.89730418
"Family Health Centers, Inc. Mobile Dental Unit",Yes,Service Delivery Site,Mobile Van,All Other Clinic Types,Orangeburg County,SC,H80CS00090,041180,BPS-H80-018178,[No Data],3310 Magnolia St,Orangeburg,29115-1466,803-531-6905,www.myfhc.org,No,Community Health Centers,No,Service Delivery Sites,Region 4,Lindsey Graham,Tim Scott,South Carolina District 06,James E. Clyburn,No,No,Yes,"FAMILY HEALTH CENTERS, INC.",45075011100,+33.5450483,-080.8457594,33.52886919,-80.83889586
WHALE BRANCH MIDDLE SCHOOL,Yes,Service Delivery Site,Seasonal,School,Beaufort County,SC,H80CS00699,041190,BPS-H80-003587,[No Data],2009 Trask Pkwy,Seabrook,29940-3668,843-486-3015,www.bjhchs.org,No,Community Health Centers; Migrant Health Centers,No,Service Delivery Sites,Region 4,Lindsey Graham,Tim Scott,South Carolina District 06,James E. Clyburn,No,No,Yes,"BEAUFORT-JASPER-HAMPTON COMPREHENSIVE HEALTH SERVICES, INCORPORATED",45013000200,+32.5007617,-080.7468659,32.5333704,-80.74672896
ReGenesis Health Care - Woodruff,Yes,Service Delivery Site,Permanent,All Other Clinic Types,Spartanburg County,SC,H80CS00298,0421000,BPS-H80-012724,[No Data],220 Irby St,Woodruff,29388-1618,864-670-9415,,No,Community Health Centers,No,Service Delivery Sites,Region 4,Lindsey Graham,Tim Scott,South Carolina District 04,"William R. Timmons, IV",No,No,No,"Regenesis Health Care, Inc",45083023600,+34.7198669,-082.0268573,34.74267836,-82.03811076
Georgetown Health Services Center,Yes,Service Delivery Site,Permanent,All Other Clinic Types,Georgetown County,SC,H80CS00828,048430,BPS-H80-012121,[No Data],422 N Fraser St,Georgetown,29440-3260,843-436-1333,www.stjamessanteefhc.com,No,Community Health Centers; Migrant Health Centers,No,Service Delivery Sites,Region 4,Lindsey Graham,Tim Scott,South Carolina District 07,Tom Rice,No,No,Yes,St. James Health and Wellness Inc.,45043920302,+33.3895567,-079.2722447,33.37622597,-79.28773055
SANDHILLS MEDICAL FOUNDATION Inc - Sumter Site,Yes,Service Delivery Site,Permanent,All Other Clinic Types,Sumter County,SC,H80CS00501,045050,BPS-H80-002611,[No Data],425 N Salem Ave,Sumter,29150-4115,803-778-2442,n/a,No,Community Health Centers,No,Service Delivery Sites,Region 4,Lindsey Graham,Tim Scott,South Carolina District 05,Ralph Norman,No,No,No,SANDHILLS MEDICAL FOUNDATION,45085002000,+33.9296368,-080.3508768,33.93033297,-80.35038413
Fields Farm Camp,Yes,Service Delivery Site,Seasonal,All Other Clinic Types,Charleston County,SC,H80CS09088,041110,BPS-H80-020783,[No Data],3129 River Rd,Johns Island,29455-8857,843-559-5349,www.fetterhealthcare.org,No,Community Health Centers; Health Care for the Homeless; Migrant Health Centers,No,Service Delivery Sites,Region 4,Lindsey Graham,Tim Scott,South Carolina District 01,Nancy Mace,No,No,No,"FETTER HEALTH CARE NETWORK, INC.",45019002103,+32.6727041,-080.0718045,32.68148656,-80.02388453
"Health Care Partners of South Carolina, Inc. - MARION OFFICE",Yes,Service Delivery Site,Permanent,All Other Clinic Types,Marion County,SC,H80CS00411,047000,BPS-H80-011364,[No Data],145 Palmetto Pointe Rd,Marion,29571-6721,843-423-2400,www.hcpsc.com,No,Community Health Centers,No,Service Delivery Sites,Region 4,Lindsey Graham,Tim Scott,South Carolina District 07,Tom Rice,No,No,Yes,"HEALTH CARE PARTNERS OF SOUTH CAROLINA, INC.",45067950200,+34.2489777,-079.3850692,34.18571502,-79.3705679
Brookland Community Pediatrics,Yes,Service Delivery Site,Permanent,All Other Clinic Types,Lexington County,SC,H80CS00730,043270,BPS-H80-002540,[No Data],500 N 12th St,West Columbia,29169-6502,803-739-6982,www.ecchc.org,No,Community Health Centers; Health Care for the Homeless; Migrant Health Centers,No,Service Delivery Sites,Region 4,Lindsey Graham,Tim Scott,South Carolina District 02,Joe Wilson,No,No,No,Eau Claire Cooperative Health Center,45063020300,+33.9896272,-081.0628508,33.99345494,-81.07453698
Jerry Zucker Middle School of Science,Yes,Service Delivery Site,Seasonal,School,Charleston County,SC,H80CS09088,041110,BPS-H80-024844,[No Data],6401 Dorchester Rd,North Charleston,29418-5101,843-767-8383,http://zucker.ccsdschools.com/,No,Community Health Centers; Health Care for the Homeless; Migrant Health Centers,No,Service Delivery Sites,Region 4,Lindsey Graham,Tim Scott,South Carolina District 06,James E. Clyburn,No,No,No,"FETTER HEALTH CARE NETWORK, INC.",45019003110,+32.8669862,-080.0576673,32.87634594,-80.06240691
McCormick Family Practice,Yes,Service Delivery Site,Permanent,All Other Clinic Types,McCormick County,SC,H80CS00785,042780,BPS-H80-015233,[No Data],1319 S Main St,Mc Cormick,29835-7928,864-852-3336,www.carolinahealthcenters.org,No,Community Health Centers; Migrant Health Centers,No,Service Delivery Sites,Region 4,Lindsey Graham,Tim Scott,South Carolina District 03,Jeff Duncan,No,No,Yes,"CAROLINA HEALTH CENTERS, INC.",45065920200,+33.9241259,-082.2468990,33.90196668,-82.27974753
Freedom ROADS,Yes,Service Delivery Site,Mobile Van,All Other Clinic Types,Darlington County,SC,H80CS00654,045230,BPS-H80-030063,[No Data],1268 S 4th St,Hartsville,29550-0703,843-309-8102 x84385,,No,Community Health Centers,No,Service Delivery Sites,Region 4,Lindsey Graham,Tim Scott,South Carolina District 07,Tom Rice,No,No,Yes,CARE SOUTH CAROLINA INC,45031010700,+34.3541929,-080.0756425,34.35781196,-80.06000508
Eau Claire Family Dentistry,Yes,Service Delivery Site,Permanent,All Other Clinic Types,Richland County,SC,H80CS00730,043270,BPS-H80-014389,[No Data],3800 N Main St Ste C,Columbia,29203-6446,803-733-5969,,No,Community Health Centers; Health Care for the Homeless; Migrant Health Centers,No,Service Delivery Sites,Region 4,Lindsey Graham,Tim Scott,South Carolina District 06,James E. Clyburn,No,No,No,Eau Claire Cooperative Health Center,45079000200,+34.0408728,-081.0377278,34.0359668,-81.04156244
Olanta Family Care,Yes,Service Delivery Site,Permanent,All Other Clinic Types,Florence County,SC,H80CS28973,04E01160,BPS-H80-015674,[No Data],211 S Jones Rd,Olanta,29114-9705,843-396-9730,http://www.genesisfqhc.org,No,Community Health Centers,No,Service Delivery Sites,Region 4,Lindsey Graham,Tim Scott,South Carolina District 06,James E. Clyburn,No,No,No,"GENESIS HEALTHCARE, INC",45041002400,+33.9317418,-079.8698900,33.93514267,-79.93730357
Administrative Services,No,Administrative,Permanent,Unknown,Greenwood County,SC,H80CS00785,042780,BPS-H80-029706,[No Data],430 Cobb Rd,Greenwood,29649-9002,864-889-9980,,Yes,Community Health Centers; Migrant Health Centers,No,Administrative Sites,Region 4,Lindsey Graham,Tim Scott,South Carolina District 03,Jeff Duncan,No,No,Yes,"CAROLINA HEALTH CENTERS, INC.",45047970301,+34.2232322,-082.1807949,34.21839631,-82.18212083
"LITTLE RIVER MEDICAL CENTER, INC.: MAIN SITE",Yes,Service Delivery Site,Permanent,All Other Clinic Types,Horry County,SC,H80CS00700,047060,BPS-H80-005180,[No Data],4303 Live Oak Dr,Little River,29566-9138,843-663-8024,www.lrmcenter.com,No,Community Health Centers; Health Care for the Homeless; Migrant Health Centers,No,Service Delivery Sites,Region 4,Lindsey Graham,Tim Scott,South Carolina District 07,Tom Rice,No,No,No,"Little River Medical Center, Inc.",45051040104,+33.8868648,-078.6108585,33.88282526,-78.59913944
Clyburn Center for Primary Care,Yes,Service Delivery Site,Permanent,All Other Clinic Types,Aiken County,SC,H80CS00653,045220,BPS-H80-011343,[No Data],1000 Clyburn Pl,Aiken,29801-4193,803-380-7000,n/a,No,Community Health Centers,No,Service Delivery Sites,Region 4,Lindsey Graham,Tim Scott,South Carolina District 02,Joe Wilson,No,No,No,"Rural Health Services, Inc.",45003021400,+33.5732059,-081.7228476,33.57281068,-81.71151887
Archibald Rutledge,Yes,Service Delivery Site,Permanent,All Other Clinic Types,Spartanburg County,SC,H80CS00298,0421000,BPS-H80-021017,[No Data],764 N Church St,Spartanburg,29303-3097,864-582-2411,,No,Community Health Centers,No,Service Delivery Sites,Region 4,Lindsey Graham,Tim Scott,South Carolina District 04,"William R. Timmons, IV",No,No,No,"Regenesis Health Care, Inc",45083020301,+34.9629269,-081.9384470,34.96467365,-81.94233913
One80 Place,Yes,Service Delivery Site,Permanent,All Other Clinic Types,Charleston County,SC,H80CS09088,041110,BPS-H80-020782,[No Data],35 Walnut St,Charleston,29403-4514,843-723-9477,www.fetterhealthcare.org,No,Community Health Centers; Health Care for the Homeless; Migrant Health Centers,No,Service Delivery Sites,Region 4,Lindsey Graham,Tim Scott,South Carolina District 06,James E. Clyburn,No,No,No,"FETTER HEALTH CARE NETWORK, INC.",45019005300,+32.8001609,-079.9443767,32.79994695,-79.9439904
Williston Family Medicine,Yes,Service Delivery Site,Permanent,All Other Clinic Types,Barnwell County,SC,H80CS00092,0416080,BPS-H80-031746,[No Data],13649 Church St,Williston,29853-5829,803-266-0060,www.lowcountryhealthcaresystem.com,No,Community Health Centers,No,Service Delivery Sites,Region 4,Lindsey Graham,Tim Scott,South Carolina District 02,Joe Wilson,No,No,Yes,"Low Country Health Care System, Inc.",45011970100,+33.3910823,-081.3942081,33.40350319,-81.43416919
Leroy E. Browne Medical Center,Yes,Service Delivery Site,Permanent,All Other Clinic Types,Beaufort County,SC,H80CS00699,041190,BPS-H80-009246,[No Data],6315 Jonathan Francis Sr Rd,Saint Helena Island,29920-5310,843-987-7400,www.bjhchs.org,No,Community Health Centers; Migrant Health Centers,No,Service Delivery Sites,Region 4,Lindsey Graham,Tim Scott,South Carolina District 01,Nancy Mace,No,No,Yes,"BEAUFORT-JASPER-HAMPTON COMPREHENSIVE HEALTH SERVICES, INCORPORATED",45013001102,+32.3630229,-080.5792222,32.38486602,-80.57557324
LRMC- Mobile Van #1,Yes,Service Delivery Site,Mobile Van,All Other Clinic Types,Horry County,SC,H80CS00700,047060,BPS-H80-008484,[No Data],4303 Live Oak Dr,Little River,29566-9138,843-222-6594,http://www.lrmcenter.com/,No,Community Health Centers; Health Care for the Homeless; Migrant Health Centers,No,Service Delivery Sites,Region 4,Lindsey Graham,Tim Scott,South Carolina District 07,Tom Rice,No,No,No,"Little River Medical Center, Inc.",45051040104,+33.8868648,-078.6108585,33.88282526,-78.59913944
Eau Claire Podiatry,Yes,Service Delivery Site,Permanent,All Other Clinic Types,Richland County,SC,H80CS00730,043270,BPS-H80-013768,[No Data],3800 N Main St Ste B,Columbia,29203-6446,803-799-8407,,No,Community Health Centers; Health Care for the Homeless; Migrant Health Centers,No,Service Delivery Sites,Region 4,Lindsey Graham,Tim Scott,South Carolina District 06,James E. Clyburn,No,No,No,Eau Claire Cooperative Health Center,45079000200,+34.0408728,-081.0377278,34.0359668,-81.04156244
Kershaw Office,Yes,Service Delivery Site,Permanent,All Other Clinic Types,Lancaster County,SC,H80CS00501,045050,BPS-H80-011225,[No Data],205 W Marion St,Kershaw,29067-1412,843-335-8291,,No,Community Health Centers,No,Service Delivery Sites,Region 4,Lindsey Graham,Tim Scott,South Carolina District 05,Ralph Norman,No,No,Yes,SANDHILLS MEDICAL FOUNDATION,45057010200,+34.5820726,-080.5578749,34.54779348,-80.5832351
ReGenesis Health Care - Spartanburg Early Learning Center at Park Hills,Yes,Service Delivery Site,Permanent,School,Spartanburg County,SC,H80CS00298,0421000,BPS-H80-011418,[No Data],301 Crescent Ave,Spartanburg,29306-4143,864-596-8442,www.myrhc.org,No,Community Health Centers,No,Service Delivery Sites,Region 4,Lindsey Graham,Tim Scott,South Carolina District 04,"William R. Timmons, IV",No,No,No,"Regenesis Health Care, Inc",45083020701,+34.9279307,-081.9512610,34.92936928,-81.95057838
Lake Monticello Family Practice @ McCrorey-Liston,Yes,Service Delivery Site,Permanent,School,Fairfield County,SC,H80CS00730,043270,BPS-H80-013771,[No Data],1978 State Highway 215 S,Blair,29015-9443,803-635-9490,,No,Community Health Centers; Health Care for the Homeless; Migrant Health Centers,No,Service Delivery Sites,Region 4,Lindsey Graham,Tim Scott,South Carolina District 05,Ralph Norman,No,No,No,Eau Claire Cooperative Health Center,45039960100,+34.4273558,-081.3174179,34.39309068,-81.29204557
Mobile Medical Team,Yes,Service Delivery Site,Mobile Van,All Other Clinic Types,Greenville County,SC,H80CS00578,042610,BPS-H80-030021,[No Data],130 Mallard St,Greenville,29601-4046,864-729-8330,www.newhorizonfhs.org,No,Community Health Centers; Health Care for the Homeless,No,Service Delivery Sites,Region 4,Lindsey Graham,Tim Scott,South Carolina District 04,"William R. Timmons, IV",No,No,No,"New Horizon Family Health Services, Inc",45045000500,+34.8376715,-082.4115284,34.83888643,-82.41454756
ReGenesis Health Care - CC Woodson Community Center,Yes,Service Delivery Site,Permanent,All Other Clinic Types,Spartanburg County,SC,H80CS00298,0421000,BPS-H80-020809,[No Data],210 Bomar Ave,Spartanburg,29306-5406,864-582-2817,,No,Community Health Centers,No,Service Delivery Sites,Region 4,Lindsey Graham,Tim Scott,South Carolina District 04,"William R. Timmons, IV",No,No,No,"Regenesis Health Care, Inc",45083021001,+34.9324506,-081.9235445,34.92913183,-81.92936965
HopeHealth Manning Pediatrics,Yes,Service Delivery Site,Permanent,All Other Clinic Types,Clarendon County,SC,H80CS08240,0452150,BPS-H80-012449,[No Data],11 W Hospital St,Manning,29102-2912,803-433-4124,,No,Community Health Centers,No,Service Delivery Sites,Region 4,Lindsey Graham,Tim Scott,South Carolina District 06,James E. Clyburn,No,No,Yes,"HopeHealth, Inc.",45027960701,+33.6390856,-080.2315868,33.68796735,-80.21234646
HARDEEVILLE RIDGELAND MIDDLE SCHOOL,Yes,Service Delivery Site,Seasonal,School,Jasper County,SC,H80CS00699,041190,BPS-H80-001982,[No Data],150 Hurricane Vly,Hardeeville,29927-4056,843-717-1280,www.bjhchs.org,No,Community Health Centers; Migrant Health Centers,No,Service Delivery Sites,Region 4,Lindsey Graham,Tim Scott,South Carolina District 06,James E. Clyburn,No,No,No,"BEAUFORT-JASPER-HAMPTON COMPREHENSIVE HEALTH SERVICES, INCORPORATED",45053950300,+32.2481288,-081.0599775,32.32725049,-81.04136744
CareSouth Carolina Special Programs Administrative Office,No,Administrative,Permanent,Unknown,Darlington County,SC,H80CS00654,045230,BPS-H80-009835,[No Data],268 S Main St,Society Hill,29593-8901,843-378-3441,,Yes,Community Health Centers,No,Administrative Sites,Region 4,Lindsey Graham,Tim Scott,South Carolina District 07,Tom Rice,No,No,No,CARE SOUTH CAROLINA INC,45031010100,+34.4505586,-079.8239245,34.5098417,-79.85399047
Fetter Mobile Dental Unit,Yes,Service Delivery Site,Permanent,All Other Clinic Types,Charleston County,SC,H80CS09088,041110,BPS-H80-022268,[No Data],51 Nassau St,Charleston,29403-5513,843-723-9582,www.fetterhealthcare.org,No,Community Health Centers; Health Care for the Homeless; Migrant Health Centers,No,Service Delivery Sites,Region 4,Lindsey Graham,Tim Scott,South Carolina District 06,James E. Clyburn,No,No,No,"FETTER HEALTH CARE NETWORK, INC.",45019000700,+32.7893794,-079.9385460,32.79392862,-79.93860134
CareSouth Carolina Chesterfield Center,Yes,Service Delivery Site,Permanent,All Other Clinic Types,Chesterfield County,SC,H80CS00654,045230,BPS-H80-031755,[No Data],204 Perry Wiley Way,Chesterfield,29709-5701,843-623-5080,https://www.caresouth-carolina.com/,No,Community Health Centers,No,Service Delivery Sites,Region 4,Lindsey Graham,Tim Scott,South Carolina District 07,Tom Rice,No,No,Yes,CARE SOUTH CAROLINA INC,45025950400,+34.7255811,-080.1008750,34.73603,-80.08856499
"ST. JAMES-SANTEE FAMILY HEALTH CENTER, INC.",Yes,Service Delivery Site,Permanent,All Other Clinic Types,Charleston County,SC,H80CS00828,048430,BPS-H80-001926,[No Data],1189 Tibwin Rd,Mc Clellanville,29458-9405,843-887-3274,NA,No,Community Health Centers; Migrant Health Centers,No,Service Delivery Sites,Region 4,Lindsey Graham,Tim Scott,South Carolina District 01,Nancy Mace,No,No,No,St. James Health and Wellness Inc.,45019005000,+33.0393507,-079.5734552,33.08210645,-79.51144145
"Low Country Health Care System, Inc. dba Padgett Family Practice",Yes,Service Delivery Site,Permanent,All Other Clinic Types,Bamberg County,SC,H80CS00092,0416080,BPS-H80-022082,[No Data],526 North St,Bamberg,29003-1319,803-245-2433,,No,Community Health Centers,No,Service Delivery Sites,Region 4,Lindsey Graham,Tim Scott,South Carolina District 06,James E. Clyburn,No,No,Yes,"Low Country Health Care System, Inc.",45009960200,+33.2528574,-080.9598246,33.30747479,-81.02919776
HopeHealth Manning School-based Clinic,Yes,Service Delivery Site,Seasonal,School,Clarendon County,SC,H80CS08240,0452150,BPS-H80-031385,[No Data],2155 Paxville Hwy,Manning,29102-5074,803-433-4124,,No,Community Health Centers,No,Service Delivery Sites,Region 4,Lindsey Graham,Tim Scott,South Carolina District 06,James E. Clyburn,No,No,Yes,"HopeHealth, Inc.",45027960500,+33.7032431,-080.2749535,33.69803611,-80.22878116
Winnsboro Pediatric and Family Practice,Yes,Service Delivery Site,Permanent,All Other Clinic Types,Fairfield County,SC,H80CS00730,043270,BPS-H80-011279,[No Data],1136 Kincaid Bridge Rd Ste A,Winnsboro,29180-7116,803-635-1052,www.ecchc.org,No,Community Health Centers; Health Care for the Homeless; Migrant Health Centers,No,Service Delivery Sites,Region 4,Lindsey Graham,Tim Scott,South Carolina District 05,Ralph Norman,No,No,No,Eau Claire Cooperative Health Center,45039960500,+34.2860838,-081.1792971,34.37165744,-81.10312882
Tandem Health,Yes,Service Delivery Site,Permanent,All Other Clinic Types,Sumter County,SC,H80CS00868,0423590,BPS-H80-020999,[No Data],1105 N Lafayette Dr Ste B,Sumter,29150-2984,803-774-3600,www.tandemhealthsc.org,No,Community Health Centers,No,Service Delivery Sites,Region 4,Lindsey Graham,Tim Scott,South Carolina District 06,James E. Clyburn,No,No,No,Tandem Health SC,45085000700,+33.9552524,-080.3123100,33.93892999,-80.33765504
Genesis Health Care - Darlington,Yes,Service Delivery Site,Permanent,All Other Clinic Types,Darlington County,SC,H80CS28973,04E01160,BPS-H80-031143,[No Data],115 Exchange St,Darlington,29532-3203,843-944-8570,,No,Community Health Centers,No,Service Delivery Sites,Region 4,Lindsey Graham,Tim Scott,South Carolina District 07,Tom Rice,No,No,No,"GENESIS HEALTHCARE, INC",45031011100,+34.3032610,-079.8702831,34.30265799,-79.87009471
The Bethany Center,Yes,Service Delivery Site,Permanent,All Other Clinic Types,Greenwood County,SC,H80CS00785,042780,BPS-H80-011321,[No Data],924 Bypass 25 NE,Greenwood,29649-2900,864-229-4446,www.carolinahealthcenters.org,No,Community Health Centers; Migrant Health Centers,No,Service Delivery Sites,Region 4,Lindsey Graham,Tim Scott,South Carolina District 03,Jeff Duncan,No,No,Yes,"CAROLINA HEALTH CENTERS, INC.",45047970600,+34.1890147,-082.0906631,34.20669132,-82.13968719
Foothills Community Health Care - Anderson - Westside,Yes,Service Delivery Site,Permanent,All Other Clinic Types,Anderson County,SC,H80CS24157,04E00503,BPS-H80-029529,[No Data],1100 W Franklin St,Anderson,29624-2012,864-722-0283,www.myFCHC.org,No,Community Health Centers,No,Service Delivery Sites,Region 4,Lindsey Graham,Tim Scott,South Carolina District 03,Jeff Duncan,No,No,No,"Foothills Community Health Care, Inc.",45007000700,+34.4939131,-082.6616905,34.49607116,-82.66311575
Columbia Community Family Practice,Yes,Service Delivery Site,Permanent,All Other Clinic Types,Richland County,SC,H80CS00730,043270,BPS-H80-031863,[No Data],4808 Colonial Dr,Columbia,29203-4260,803-995-8527,,No,Community Health Centers; Health Care for the Homeless; Migrant Health Centers,No,Service Delivery Sites,Region 4,Lindsey Graham,Tim Scott,South Carolina District 06,James E. Clyburn,No,No,No,Eau Claire Cooperative Health Center,45079000100,+34.0497425,-081.0201576,34.04539982,-81.02843173
Lake Monticello Family Practice,Yes,Service Delivery Site,Permanent,All Other Clinic Types,Fairfield County,SC,H80CS00730,043270,BPS-H80-013620,[No Data],9017 State Highway 215 S,Jenkinsville,29065-9428,803-298-2068,,No,Community Health Centers; Health Care for the Homeless; Migrant Health Centers,No,Service Delivery Sites,Region 4,Lindsey Graham,Tim Scott,South Carolina District 05,Ralph Norman,No,No,No,Eau Claire Cooperative Health Center,45039960500,+34.2860838,-081.1792971,34.29631774,-81.28966221
Pee Dee Health Care,Yes,Service Delivery Site,Permanent,All Other Clinic Types,Darlington County,SC,H80CS28973,04E01160,BPS-H80-015658,[No Data],201 Cashua St,Darlington,29532-3301,843-393-7452,http://www.genesisfqhc.org,No,Community Health Centers,No,Service Delivery Sites,Region 4,Lindsey Graham,Tim Scott,South Carolina District 07,Tom Rice,No,No,No,"GENESIS HEALTHCARE, INC",45031011100,+34.3032610,-079.8702831,34.30459513,-79.86880348
CareSouth Carolina Cheraw Center,Yes,Service Delivery Site,Permanent,All Other Clinic Types,Chesterfield County,SC,H80CS00654,045230,BPS-H80-018857,[No Data],715 S Doctors Dr,Cheraw,29520-7108,843-537-0961,www.caresouth-carolina.com,No,Community Health Centers,No,Service Delivery Sites,Region 4,Lindsey Graham,Tim Scott,South Carolina District 07,Tom Rice,No,No,Yes,CARE SOUTH CAROLINA INC,45025950502,+34.7080062,-079.9249608,34.69501457,-79.91866639
HopeHealth Orangeburg,Yes,Service Delivery Site,Permanent,All Other Clinic Types,Orangeburg County,SC,H80CS08240,0452150,BPS-H80-028106,[No Data],1857 Joe S Jeffords Hwy,Orangeburg,29115-7473,803-535-2272,,No,Community Health Centers,No,Service Delivery Sites,Region 4,Lindsey Graham,Tim Scott,South Carolina District 06,James E. Clyburn,No,No,Yes,"HopeHealth, Inc.",45075010600,+33.4186687,-080.7840432,33.47315333,-80.84502345
Pendleton Place Youth Drop In Center - Medical Exam Room,Yes,Service Delivery Site,Permanent,All Other Clinic Types,Greenville County,SC,H80CS00578,042610,BPS-H80-030022,[No Data],1133 Pendleton St,Greenville,29601-2317,864-729-8330,www.newhorizonfhs.org,No,Community Health Centers; Health Care for the Homeless,No,Service Delivery Sites,Region 4,Lindsey Graham,Tim Scott,South Carolina District 04,"William R. Timmons, IV",No,No,No,"New Horizon Family Health Services, Inc",45045000800,+34.8493143,-082.4271138,34.8449305,-82.42183965
Family Medical Center of Blackville,Yes,Service Delivery Site,Permanent,All Other Clinic Types,Barnwell County,SC,H80CS00092,0416080,BPS-H80-024716,[No Data],130 Baker St N,Blackville,29817-2426,803-284-1045,,No,Community Health Centers,No,Service Delivery Sites,Region 4,Lindsey Graham,Tim Scott,South Carolina District 02,Joe Wilson,No,No,Yes,"Low Country Health Care System, Inc.",45011970200,+33.3685118,-081.2762976,33.35590091,-81.26635898
Packing Shed Housing Camp,Yes,Service Delivery Site,Seasonal,All Other Clinic Types,Charleston County,SC,H80CS09088,041110,BPS-H80-018938,[No Data],771 Brownswood Rd,Johns Island,29455-3239,843-722-4112,,No,Community Health Centers; Health Care for the Homeless; Migrant Health Centers,No,Service Delivery Sites,Region 4,Lindsey Graham,Tim Scott,South Carolina District 01,Nancy Mace,No,No,No,"FETTER HEALTH CARE NETWORK, INC.",45019002101,+32.7430103,-080.0840064,32.76494467,-80.07120666
"Low Country Health Care System, Inc. dba Barnwell Pediatrics, P.A.",Yes,Service Delivery Site,Permanent,All Other Clinic Types,Barnwell County,SC,H80CS00092,0416080,BPS-H80-013577,[No Data],10706 Marlboro Ave,Barnwell,29812-6376,803-259-7337,www.lowcountryhealthcaresystem.com/,No,Community Health Centers,No,Service Delivery Sites,Region 4,Lindsey Graham,Tim Scott,South Carolina District 02,Joe Wilson,No,No,Yes,"Low Country Health Care System, Inc.",45011970400,+33.2281969,-081.2774271,33.25813807,-81.35311012
Eastover Family Practice,Yes,Service Delivery Site,Permanent,All Other Clinic Types,Richland County,SC,H80CS00730,043270,BPS-H80-024916,[No Data],3041 Old Eastover Rd,Eastover,29044-8303,803-353-8741,,No,Community Health Centers; Health Care for the Homeless; Migrant Health Centers,No,Service Delivery Sites,Region 4,Lindsey Graham,Tim Scott,South Carolina District 06,James E. Clyburn,No,No,No,Eau Claire Cooperative Health Center,45079012000,+33.9116689,-080.6752843,33.88082314,-80.70531197
CareSouth Carolina Latta Center,Yes,Service Delivery Site,Permanent,All Other Clinic Types,Dillon County,SC,H80CS00654,045230,BPS-H80-015579,[No Data],122 Latimer St,Latta,29565-1828,843-627-6261,www.caresouth-carolina.com,No,Community Health Centers,No,Service Delivery Sites,Region 4,Lindsey Graham,Tim Scott,South Carolina District 07,Tom Rice,No,No,Yes,CARE SOUTH CAROLINA INC,45033970600,+34.3374526,-079.4823899,34.33232409,-79.4261929
Little Mountain Pediatric and Family Practice,Yes,Service Delivery Site,Permanent,All Other Clinic Types,Newberry County,SC,H80CS00730,043270,BPS-H80-028162,[No Data],99 N Mill St,Little Mountain,29075-8788,803-945-1005,,No,Community Health Centers; Health Care for the Homeless; Migrant Health Centers,No,Service Delivery Sites,Region 4,Lindsey Graham,Tim Scott,South Carolina District 05,Ralph Norman,No,No,Yes,Eau Claire Cooperative Health Center,45071950602,+34.1483660,-081.4434453,34.19662046,-81.41510125
Bamberg Specialty Services,Yes,Service Delivery Site,Permanent,All Other Clinic Types,Bamberg County,SC,H80CS00092,0416080,BPS-H80-027897,[No Data],185 Mcgee St,Bamberg,29003-1154,803-956-6100,www.lowcountryhealthcaresystem.com,No,Community Health Centers,No,Service Delivery Sites,Region 4,Lindsey Graham,Tim Scott,South Carolina District 06,James E. Clyburn,No,No,Yes,"Low Country Health Care System, Inc.",45009960200,+33.2528574,-080.9598246,33.30744365,-81.03022923
"Family Health Centers, Inc. Optometry Mobile Unit",Yes,Service Delivery Site,Mobile Van,All Other Clinic Types,Orangeburg County,SC,H80CS00090,041180,BPS-H80-027847,[No Data],3310 Magnolia St,Orangeburg,29115-1466,803-531-6900,,No,Community Health Centers,No,Service Delivery Sites,Region 4,Lindsey Graham,Tim Scott,South Carolina District 06,James E. Clyburn,No,No,Yes,"FAMILY HEALTH CENTERS, INC.",45075011100,+33.5450483,-080.8457594,33.52886919,-80.83889586
Carolina Community Pharmacy at Carolina Village,No,Administrative,Permanent,Unknown,Greenwood County,SC,H80CS00785,042780,BPS-H80-011080,[No Data],420 Epting Ave,Greenwood,29646-4040,864-330-8230,www.carolinahealthcenters.org,Yes,Community Health Centers; Migrant Health Centers,No,Administrative Sites,Region 4,Lindsey Graham,Tim Scott,South Carolina District 03,Jeff Duncan,No,No,Yes,"CAROLINA HEALTH CENTERS, INC.",45047970800,+34.1118770,-082.1861034,34.17132295,-82.15753427
Affinity Health Center Main,Yes,Service Delivery Site,Permanent,All Other Clinic Types,York County,SC,H80CS28972,04E00154,BPS-H80-022053,[No Data],455 Lakeshore Pkwy,Rock Hill,29730-4205,803-909-6363,,No,Community Health Centers,No,Service Delivery Sites,Region 4,Lindsey Graham,Tim Scott,South Carolina District 05,Ralph Norman,No,No,No,Affinity Health Center,45091060200,+34.9282234,-081.0056196,34.93198079,-80.997385
CareSouth Carolina Inc. Corporate Office,No,Administrative,Permanent,Unknown,Darlington County,SC,H80CS00654,045230,BPS-H80-005094,[No Data],201 S 5th St,Hartsville,29550-4211,843-857-0111,www.caresouth-carolina.com,Yes,Community Health Centers,No,Administrative Sites,Region 4,Lindsey Graham,Tim Scott,South Carolina District 07,Tom Rice,No,No,Yes,CARE SOUTH CAROLINA INC,45031010700,+34.3541929,-080.0756425,34.37290601,-80.07252295
LRMC-Mobile Van #3,Yes,Service Delivery Site,Mobile Van,All Other Clinic Types,Horry County,SC,H80CS00700,047060,BPS-H80-018088,[No Data],4303 Live Oak Dr,Little River,29566-9138,843-663-8001,,No,Community Health Centers; Health Care for the Homeless; Migrant Health Centers,No,Service Delivery Sites,Region 4,Lindsey Graham,Tim Scott,South Carolina District 07,Tom Rice,No,No,No,"Little River Medical Center, Inc.",45051040104,+33.8868648,-078.6108585,33.88282526,-78.59913944
Carolina Community Pharmacy NW,No,Administrative,Permanent,All Other Clinic Types,Greenwood County,SC,H80CS00785,042780,BPS-H80-008972,[No Data],577 Bypass 72 NW,Greenwood,29649-1301,864-889-9300,www.carolinahealthcenters.org,Yes,Community Health Centers; Migrant Health Centers,No,Administrative Sites,Region 4,Lindsey Graham,Tim Scott,South Carolina District 03,Jeff Duncan,No,No,Yes,"CAROLINA HEALTH CENTERS, INC.",45047970302,+34.2103000,-082.2139248,34.20323546,-82.19780731
Rosa Clark Medical Clinic at Memorial Drive,Yes,Service Delivery Site,Permanent,All Other Clinic Types,Oconee County,SC,H80CS30713,04E01242,BPS-H80-019314,[No Data],301 Memorial Dr,Seneca,29672-9491,864-882-4664,,No,Community Health Centers,No,Service Delivery Sites,Region 4,Lindsey Graham,Tim Scott,South Carolina District 03,Jeff Duncan,No,No,Yes,Rosa Clark Medical Clinic Inc,45073030601,+34.7033834,-082.9775697,34.69402719,-82.98776539
Genesis Health Care Florence,Yes,Service Delivery Site,Permanent,All Other Clinic Types,Florence County,SC,H80CS28973,04E01160,BPS-H80-017257,[No Data],1523 Heritage Ln,Florence,29505-3197,843-673-9992,,No,Community Health Centers,No,Service Delivery Sites,Region 4,Lindsey Graham,Tim Scott,South Carolina District 07,Tom Rice,No,No,No,"GENESIS HEALTHCARE, INC",45041001400,+34.1570461,-079.7798661,34.166182,-79.77937896
Andrews Healthcare Center,Yes,Service Delivery Site,Permanent,All Other Clinic Types,Georgetown County,SC,H80CS00828,048430,BPS-H80-013962,[No Data],675 N Morgan Ave,Andrews,29510-2417,843-264-2680,stjamessanteefhc.com,No,Community Health Centers; Migrant Health Centers,No,Service Delivery Sites,Region 4,Lindsey Graham,Tim Scott,South Carolina District 07,Tom Rice,No,No,Yes,St. James Health and Wellness Inc.,45043920201,+33.4085413,-079.4854138,33.46058459,-79.55819286
Walterboro Family Care,Yes,Service Delivery Site,Permanent,All Other Clinic Types,Colleton County,SC,H80CS28973,04E01160,BPS-H80-018599,[No Data],457 Spruce St,Walterboro,29488-2766,843-781-7428,,No,Community Health Centers,No,Service Delivery Sites,Region 4,Lindsey Graham,Tim Scott,South Carolina District 06,James E. Clyburn,No,No,Yes,"GENESIS HEALTHCARE, INC",45029970402,+32.9671267,-080.6527418,32.91935005,-80.67224267
RIDGELAND HARDEEVILLE HIGH SCHOOL,Yes,Service Delivery Site,Seasonal,School,Jasper County,SC,H80CS00699,041190,BPS-H80-004860,[No Data],250 Jaguar Trl,Ridgeland,29936-5580,843-717-1510,www.bjhchs.org,No,Community Health Centers; Migrant Health Centers,No,Service Delivery Sites,Region 4,Lindsey Graham,Tim Scott,South Carolina District 06,James E. Clyburn,No,No,No,"BEAUFORT-JASPER-HAMPTON COMPREHENSIVE HEALTH SERVICES, INCORPORATED",45053950202,+32.5364880,-080.8861724,32.49932945,-80.98771303
Whale Branch Early College High School,Yes,Service Delivery Site,Seasonal,School,Beaufort County,SC,H80CS00699,041190,BPS-H80-010353,[No Data],69 Detour Rd,Seabrook,29940-3805,843-466-2700,www.bjhchs.org,No,Community Health Centers; Migrant Health Centers,No,Service Delivery Sites,Region 4,Lindsey Graham,Tim Scott,South Carolina District 06,James E. Clyburn,No,No,Yes,"BEAUFORT-JASPER-HAMPTON COMPREHENSIVE HEALTH SERVICES, INCORPORATED",45013000200,+32.5007617,-080.7468659,32.5145378,-80.75673958
Foothills Community Health Care-Easley,Yes,Service Delivery Site,Permanent,All Other Clinic Types,Pickens County,SC,H80CS24157,04E00503,BPS-H80-018873,[No Data],403 Hillcrest Dr,Easley,29640-1207,864-343-1220 x201,www.myfchc.org,No,Community Health Centers,No,Service Delivery Sites,Region 4,Lindsey Graham,Tim Scott,South Carolina District 03,Jeff Duncan,No,No,No,"Foothills Community Health Care, Inc.",45077010801,+34.8349715,-082.6269605,34.83803177,-82.61023935
CSC HARTSVILLE CENTER,Yes,Service Delivery Site,Permanent,All Other Clinic Types,Darlington County,SC,H80CS00654,045230,BPS-H80-001036,[No Data],1268 S 4th St,Hartsville,29550-0703,843-332-3422,www.caresouth-carolina.com,No,Community Health Centers,No,Service Delivery Sites,Region 4,Lindsey Graham,Tim Scott,South Carolina District 07,Tom Rice,No,No,Yes,CARE SOUTH CAROLINA INC,45031010700,+34.3541929,-080.0756425,34.35781196,-80.06000508
Ocab Head Start Center,Yes,Service Delivery Site,Permanent,School,Orangeburg County,SC,H80CS00090,041180,BPS-H80-029823,[No Data],1822 Joe S Jeffords Hwy,Orangeburg,29115-7470,803-531-6900,,No,Community Health Centers,No,Service Delivery Sites,Region 4,Lindsey Graham,Tim Scott,South Carolina District 06,James E. Clyburn,No,No,Yes,"FAMILY HEALTH CENTERS, INC.",45075010600,+33.4186687,-080.7840432,33.47467758,-80.84328957
"HopeHealth, Inc.",Yes,Service Delivery Site,Permanent,All Other Clinic Types,Florence County,SC,H80CS08240,0452150,BPS-H80-008173,[No Data],600 E Palmetto St,Florence,29506-2851,843-667-9414,www.hope-health.org,No,Community Health Centers,No,Service Delivery Sites,Region 4,Lindsey Graham,Tim Scott,South Carolina District 07,Tom Rice,No,No,No,"HopeHealth, Inc.",45041000700,+34.1875889,-079.7527189,34.19416708,-79.75894388
ST. JAMES-SANTEE FAMILY HLTH CTR,Yes,Service Delivery Site,Permanent,All Other Clinic Types,Georgetown County,SC,H80CS00828,048430,BPS-H80-004202,[No Data],8189 Choppee Rd,Georgetown,29440-6374,843-545-8723,www.stjamessanteefhc.com,No,Community Health Centers; Migrant Health Centers,No,Service Delivery Sites,Region 4,Lindsey Graham,Tim Scott,South Carolina District 07,Tom Rice,No,No,Yes,St. James Health and Wellness Inc.,45043920400,+33.5532527,-079.2329199,33.54830326,-79.33298654
Mobile Dental Unit,Yes,Service Delivery Site,Mobile Van,All Other Clinic Types,Greenville County,SC,H80CS00578,042610,BPS-H80-017248,[No Data],111A Berry Ave,Greer,29651-1307,864-801-2035,,No,Community Health Centers; Health Care for the Homeless,No,Service Delivery Sites,Region 4,Lindsey Graham,Tim Scott,South Carolina District 04,"William R. Timmons, IV",No,No,No,"New Horizon Family Health Services, Inc",45045002504,+34.9441768,-082.2341056,34.94627447,-82.2233295
Cooperative Health Mobile Unit,Yes,Service Delivery Site,Mobile Van,All Other Clinic Types,Richland County,SC,H80CS00730,043270,BPS-H80-028163,[No Data],4605 Monticello Rd,Columbia,29203-4156,803-754-0151,,No,Community Health Centers; Health Care for the Homeless; Migrant Health Centers,No,Service Delivery Sites,Region 4,Lindsey Graham,Tim Scott,South Carolina District 06,James E. Clyburn,No,No,No,Eau Claire Cooperative Health Center,45079000300,+34.0467069,-081.0624544,34.0455828,-81.04275867
Eau Claire Cooperative Health Center Administrative Offices,No,Administrative,Permanent,Unknown,Lexington County,SC,H80CS00730,043270,BPS-H80-024827,[No Data],169 Laurelhurst Ave,Columbia,29210-3825,803-733-5969,,Yes,Community Health Centers; Health Care for the Homeless; Migrant Health Centers,No,Administrative Sites,Region 4,Lindsey Graham,Tim Scott,South Carolina District 02,Joe Wilson,No,No,No,Eau Claire Cooperative Health Center,45063021106,+34.0583895,-081.1417975,34.05949202,-81.12953542
Plexus Health | Kershaw,Yes,Service Delivery Site,Permanent,All Other Clinic Types,Lancaster County,SC,H80CS26597,04E01063,BPS-H80-013095,[No Data],212 E Marion St,Kershaw,29067-1442,803-475-2083,www.plexushealth.com,No,Community Health Centers,No,Service Delivery Sites,Region 4,Lindsey Graham,Tim Scott,South Carolina District 05,Ralph Norman,No,No,Yes,Care Net of Lancaster,45057010200,+34.5820726,-080.5578749,34.5487344,-80.57992984
Plexus Health | Lancaster,Yes,Service Delivery Site,Permanent,All Other Clinic Types,Lancaster County,SC,H80CS26597,04E01063,BPS-H80-013108,[No Data],838 W Meeting St Ste H,Lancaster,29720-6261,803-285-2273,www.plexushealth.com,No,Community Health Centers,No,Service Delivery Sites,Region 4,Lindsey Graham,Tim Scott,South Carolina District 05,Ralph Norman,No,No,Yes,Care Net of Lancaster,45057010800,+34.7162854,-080.7786524,34.71666392,-80.78908277
BJHCHS Ronald McDonald Mobile Unit,Yes,Service Delivery Site,Mobile Van,All Other Clinic Types,Jasper County,SC,H80CS00699,041190,BPS-H80-030222,[No Data],719 Okatie Hwy,Okatie,29909-3963,843-987-7400,www.bjhchs.org,No,Community Health Centers; Migrant Health Centers,No,Service Delivery Sites,Region 4,Lindsey Graham,Tim Scott,South Carolina District 06,James E. Clyburn,No,No,No,"BEAUFORT-JASPER-HAMPTON COMPREHENSIVE HEALTH SERVICES, INCORPORATED",45053950201,+32.3984799,-080.9415727,32.31187011,-80.93488397
"Thaddeus J. Bell, MD Family Health Center",Yes,Service Delivery Site,Permanent,All Other Clinic Types,Berkeley County,SC,H80CS09088,041110,BPS-H80-022065,[No Data],130 Varnfield Dr Ste 100,Summerville,29483-7317,843-821-3444,www.fetterhealthcare.org,No,Community Health Centers; Health Care for the Homeless; Migrant Health Centers,No,Service Delivery Sites,Region 4,Lindsey Graham,Tim Scott,South Carolina District 01,Nancy Mace,No,No,No,"FETTER HEALTH CARE NETWORK, INC.",45015020710,+33.0923660,-080.1901804,33.03656146,-80.16497643
Tandem Health,Yes,Service Delivery Site,Permanent,All Other Clinic Types,Sumter County,SC,H80CS00868,0423590,BPS-H80-024753,[No Data],370 S Pike W Bldg,Sumter,29150-2664,803-774-4500,www.tandemhealthsc.org,No,Community Health Centers,No,Service Delivery Sites,Region 4,Lindsey Graham,Tim Scott,South Carolina District 06,James E. Clyburn,No,No,No,Tandem Health SC,45085000700,+33.9552524,-080.3123100,33.94377198,-80.32961235
"BEAUFORT-JASPER HAMPTON COMP HLTH SERVICES, INC.",No,Administrative,Permanent,All Other Clinic Types,Jasper County,SC,H80CS00699,041190,BPS-H80-002644,[No Data],721 Okatie Hwy,Okatie,29909-3963,843-987-7400,www.bjhchs.org,Yes,Community Health Centers; Migrant Health Centers,No,Administrative Sites,Region 4,Lindsey Graham,Tim Scott,South Carolina District 01,Nancy Mace,No,No,No,"BEAUFORT-JASPER-HAMPTON COMPREHENSIVE HEALTH SERVICES, INCORPORATED",45013002202,+32.3376045,-080.8200441,32.36088518,-80.87221326
"Rose D. Gibbs, MD Family Health Center",Yes,Service Delivery Site,Permanent,All Other Clinic Types,Berkeley County,SC,H80CS09088,041110,BPS-H80-022064,[No Data],106 W Main St,Moncks Corner,29461-2601,843-761-1995,www.fetterhealthcare.org,No,Community Health Centers; Health Care for the Homeless; Migrant Health Centers,No,Service Delivery Sites,Region 4,Lindsey Graham,Tim Scott,South Carolina District 01,Nancy Mace,No,No,No,"FETTER HEALTH CARE NETWORK, INC.",45015020504,+33.2060781,-080.0069274,33.19668833,-80.01443477
Mobile ROADS,Yes,Service Delivery Site,Mobile Van,All Other Clinic Types,Darlington County,SC,H80CS00654,045230,BPS-H80-030061,[No Data],1268 S 4th St,Hartsville,29550-0703,843-309-8102,,No,Community Health Centers,No,Service Delivery Sites,Region 4,Lindsey Graham,Tim Scott,South Carolina District 07,Tom Rice,No,No,Yes,CARE SOUTH CAROLINA INC,45031010700,+34.3541929,-080.0756425,34.35781196,-80.06000508
HopeHealth Irby Street,Yes,Service Delivery Site,Permanent,All Other Clinic Types,Florence County,SC,H80CS08240,0452150,BPS-H80-017703,[No Data],360 N Irby St,Florence,29501-2808,843-667-9414,,No,Community Health Centers,No,Service Delivery Sites,Region 4,Lindsey Graham,Tim Scott,South Carolina District 07,Tom Rice,No,No,No,"HopeHealth, Inc.",45041000900,+34.2077622,-079.7859632,34.20227175,-79.76852524
CareSouth Carolina Bishopville Pediatric Dental Office,Yes,Service Delivery Site,Permanent,All Other Clinic Types,Lee County,SC,H80CS00654,045230,BPS-H80-027715,[No Data],101 Harris St,Bishopville,29010-1601,843-857-0111,,No,Community Health Centers,No,Service Delivery Sites,Region 4,Lindsey Graham,Tim Scott,South Carolina District 05,Ralph Norman,No,No,Yes,CARE SOUTH CAROLINA INC,45061920302,+34.1505544,-080.2166106,34.21550149,-80.25214923
Clyburn Center for Primary Care Mobile Unit,Yes,Service Delivery Site,Mobile Van,All Other Clinic Types,Aiken County,SC,H80CS00653,045220,BPS-H80-018097,[No Data],1000 Clyburn Pl,Aiken,29801-4193,803-380-7000,www.mjwchc.org,No,Community Health Centers,No,Service Delivery Sites,Region 4,Lindsey Graham,Tim Scott,South Carolina District 02,Joe Wilson,No,No,No,"Rural Health Services, Inc.",45003021400,+33.5732059,-081.7228476,33.57281068,-81.71151887
CareSouth Carolina McColl Health and Wellness Center,Yes,Service Delivery Site,Permanent,All Other Clinic Types,Marlboro County,SC,H80CS00654,045230,BPS-H80-027716,[No Data],3080 Highway 15-401 E,Mc Coll,29570-6128,843-523-5751,www.caresouth-carolina.com,No,Community Health Centers,No,Service Delivery Sites,Region 4,Lindsey Graham,Tim Scott,South Carolina District 07,Tom Rice,No,No,Yes,CARE SOUTH CAROLINA INC,45069960400,+34.6853318,-079.5843029,34.65287964,-79.56949659
THE CHILDREN'S CENTER,Yes,Service Delivery Site,Permanent,All Other Clinic Types,Greenwood County,SC,H80CS00785,042780,BPS-H80-002822,[No Data],113 Liner Dr,Greenwood,29646-2311,864-941-8170,www.carolinahealthcenters.org,No,Community Health Centers; Migrant Health Centers,No,Service Delivery Sites,Region 4,Lindsey Graham,Tim Scott,South Carolina District 03,Jeff Duncan,No,No,Yes,"CAROLINA HEALTH CENTERS, INC.",45047970400,+34.1698568,-082.2054546,34.17107782,-82.1675074
HopeHealth Greeleyville,Yes,Service Delivery Site,Permanent,All Other Clinic Types,Williamsburg County,SC,H80CS08240,0452150,BPS-H80-016921,[No Data],86 N Main St,Greeleyville,29056-9374,843-667-9414,,No,Community Health Centers,No,Service Delivery Sites,Region 4,Lindsey Graham,Tim Scott,South Carolina District 06,James E. Clyburn,No,No,Yes,"HopeHealth, Inc.",45089970700,+33.6086383,-080.0059872,33.58092165,-79.98881124
