Name,address,city,state,zip,zip4,county,phone,intake_prompt,intake1,intake2,website,latitude,longitude,type_facility,sa,dt,mm,mmw,dm,bum,bmw,db,rpn,bu,nxn,vtrl,meth,hh,noop,pain,nmoa,moa,ubn,otpa,otp,cbt,dbt,tele,saca,trc,rebt,smon,smpd,smop,hi,res,op,rs,rl,rd,od,omb,odt,oit,ort,hid,hit,ct,gh,psyh,vamc,tbg,ih,stg,lccg,ddf,stag,stmh,stdh,hla,jc,carf,ncqa,coa,hfap,np,sf,md,mc,si,pi,mi,atr,fsa,ss,pa,ah,sp,co,gl,vet,adm,mf,cj,se,ad,pw,wn,mn,hv,trma,xa,dv,tay,nsc,adtx,bdtx,cdtx,mdtx,odtx,tgd,tid,ico,gco,fco,mco,twfa,bia,cmi,moti,ang,mxm,crv,relp,bc,chld,yad,adlt,fem,male,bmo,mo,du,duo,acc,acm,acu,add,baba,ccc,cmha,csaa,daut,dp,dsf,dvfp,eih,emp,haec,heoh,hivt,isc,itu,mhs,mpd,opc,sae,shb,shc,shg,smhd,ssa,ssd,stdt,ta,taec,tbs,cm,fpsy,hs,nrt,peer,stu,tcc,bsdm,nu,mu,bwn,bwon,ub,un,beri,pvtp,pvtn,vo,sumh,inpe,rpe,pc,naut,nmaut,acma,pmat,auinpe,aurpe,aupc,ulc,mhiv,mhcv,lfxd,clnd,copsu,daof,mst,noe,ofd,rc,piec,mdet,voc,hav,hbv,audo,f17,f19,f25,f28,f30,f31,f35,f36,f37,f4,f42,f43,f47,f66,f67,f70,f81,f92,n13,n18,n23,n24,n40
LRADAC Outpatient,1068 South Lake Drive ,Lexington,SC,29073,,Lexington,803-726-9400,,,,http://www.lradac.org/,33.9538874,-81.2345735,SA,1,1,,,,1,1,1,1,1,1,1,,,,,,1,,,,1,,1,1,1,,1,,,,,1,,,,1,1,,1,1,,,,,,,,,,,,1,,1,,,1,,,,,1,1,1,,1,,,1,,1,1,1,1,1,,,,1,1,1,1,1,1,1,1,,,1,,1,1,,,1,1,,1,1,1,1,1,1,1,1,1,,,1,,,,,1,1,,,1,,1,1,,,1,,,1,1,1,1,1,1,1,1,1,1,1,,1,,1,1,1,1,,1,1,1,1,1,1,1,1,,1,,1,1,1,,1,,1,1,1,1,,,1,,1,,1,1,,,1,1,,1,1,,,,,,,,,1,1,,1,1,1,,,,,,,,,,,,,,,,,,,,,,,,,,
LRC Substance Abuse and Behavioral Programs,1115 Belleview Avenue ,Columbia,SC,29201,,Richland,803-740-9298,,,803-667-4500,http://www.lrc-counseling.com/,33.9771056,-81.2355978,SA,1,,,,,,,,,,,,,,1,,,,,,,1,,1,1,1,1,1,,,,,1,,,,,,,1,1,,,,,,,,,,,,1,,1,,,,,1,,,1,1,1,1,1,1,,,,,1,,1,1,1,1,1,1,1,1,1,1,1,1,1,1,1,1,,,,,,,,,1,1,1,1,1,1,1,1,1,1,1,1,,1,,,1,1,,,1,,1,,,1,1,,1,1,1,1,,1,,1,,,,1,,1,,1,1,,,1,1,1,1,,,,,1,,,,1,1,,,,,,,,,,1,,,1,,,,,1,1,,,,1,,,,,,1,,,1,1,1,1,,,,,,,,,,,,,,,,,,,,,,,,,,,,
Columbia Metro Treatment Center Metro Treatment of South Carolina LP,560 Chris Drive ,West Columbia,SC,29169,,Lexington,803-791-9422,,,,http://www.methadonetreatment.com,33.9850073,-81.1061052,SA,1,1,1,1,1,1,1,1,,1,,,1,,,,,,,1,1,1,1,,1,,1,,1,,,,1,,,,1,1,,,,,,,,,,,,,,,1,,,,,1,,,,,1,,,,,,,,,,,,,,,,,,,,1,,,,,,,,,,,,,1,,,1,1,1,1,1,1,1,1,1,,,1,,,1,1,1,1,1,1,,,1,,1,1,1,,,1,1,1,,1,1,1,1,1,,1,,1,,1,1,,,1,,1,1,,1,1,1,1,,1,,1,,,,,1,1,1,,,,,1,,,,,,1,,,,,,,,,,,,,1,,1,1,,1,1,,,,,,,,,,,,,,,,,,,,,,,,,,,
Bright Side Counseling Center ,2277 Sunset Boulevard ,West Columbia,SC,29169,,Lexington,888-796-1117,,,,http://www.brightsidecenter.com,34.0029374,-81.2026938,SA,1,,,,,,,,,,,,,,,,,1,,,,1,1,1,1,1,1,1,,,,,1,,,,,,,,1,,,,,,,,,,,,,,,,,,,,,,1,1,1,1,1,1,,,,,,,,,,,,,,,,1,1,,,,,1,,,,,,,1,1,1,1,1,1,1,1,,1,1,,,1,,,,,1,1,,,,,,,,1,,,1,,,,,,,,,,,,,1,,,,,,,,,,,,,,,,,,,,1,,,,,,,,,1,,,1,,,1,,,1,,,,1,,,,,,,,,,,,,,,,,,,,,,,,,,,,,,,,,,,,,,,,
Three Rivers Behavioral Health ,2900 Sunset Boulevard ,West Columbia,SC,29169,,Lexington,803-796-9911,,,,http://www.threeriversbehavioral.org/main-campus/,34.00601265,-81.12068828,SA,1,1,,,,,1,1,1,1,1,,,,,,,,,,,1,1,1,1,1,1,1,,,1,,1,,,,,,1,1,1,1,1,,,1,,,,,,,,,1,1,1,,,,,,1,1,1,1,1,1,,,1,,,,,,,,,,,,,,,,,,,,,1,1,1,1,1,,,1,1,,,1,1,1,1,1,,,1,,1,,,1,1,,,,,1,1,,1,1,,1,1,1,1,1,,,,,,,,,1,1,,1,,,1,1,1,,,,,,1,,1,1,,1,1,,1,,,1,1,1,,1,,,1,,,,,,,1,,,,,,,,1,,,,,,,,1,,,,,,,,,,,,,,,,,,,,,,,,,,,
Pain Medicine Specialists ,109 Midlands Court ,West Columbia,SC,29169,,Lexington,803-791-9200,,,,http://www.opioidaddictionspecialists.net,34.0083436,-81.130962,SA,1,,,,,,,,,,,,,,,,,1,,1,,,,,,,,1,,,,,1,,,,,1,,,,,,,,,,,,,,,,,,,,,,,,,1,1,1,1,1,1,,,,,,,,,,,,,,,,,,,,,,,,,,,,,,,1,,1,1,,,,,,,,,,,1,1,1,1,,,,,,,,,,,,1,1,,,,,,,,,,,,,,1,,,,1,1,,,,,,,,,,,,,,,,,,,,,1,,,,,,1,1,,,,,,,,,,,,,,,1,,,,,,,,,,,,,,,,,,,,,,,,,,,,,,,
Lexington Treatment Specialists ,185 Lott Court ,West Columbia,SC,29169,,Lexington,803-719-4050,,,,http://www.lexingtontreatmentspecialists.com,34.0136444,-81.1343016,SA,1,,1,1,,1,1,,,1,,,1,,,,,1,,1,1,1,,,1,1,,,1,,,,1,,,,,1,,,,,,,,,,,,,,,,,1,,,1,,,,,1,1,,,,,,1,,,1,,,,,,,,,,1,1,1,,,,,,,,,,,,,,1,1,1,1,,,,1,,,,1,,,1,1,1,1,1,1,,,1,,,,1,,,1,1,1,,,,,1,1,1,,,,,1,1,,1,,,1,,1,1,1,1,1,,1,,,1,1,,,1,1,1,1,,,1,,,,,,1,1,,,,,,,,,,,,,1,,1,1,,,,,,,,,,,,,,,,,,,,,,,,,,,,,,
Crossroads Treatment Ctr of Columbia ,1421 Bluff Road ,Columbia,SC,29201,,Richland,803-733-5855,,,800-805-6989,http://crossroadstreatmentcenters.com,33.9665676,-81.0104618,SA,1,,1,1,,,,,,,,,1,,,,,,,1,1,,,,1,,,,1,,,,1,,,,,1,,,1,,,,,,,,,,,,1,,1,,,1,,,,,1,1,1,,1,,,1,,,,,,,,,,,,,,,,,,,,,,,,,,,,,1,,,,,1,1,1,,,,1,,,1,1,1,1,,1,,,,,,,1,,,1,1,1,,,,,,1,,,,,,1,1,,,,,1,1,,1,1,1,1,,,,,,,,,1,,,,,,1,,,,,,,1,,,,,,,,,,,,,1,,1,1,,,,,,,,,,,,,,,,,,,,,,,,,,,,,,
Prisma Health Behavioral Health Day Treatment CDIOP,720 Gracern Road Suite 120,Columbia,SC,29210,,Richland,803-296-8765 x4,,803-296-8765 x5,,http://www.palmettohealth.org/medical-services/behavioral-care/outpatient-programs,34.0165425,-81.085555,SA,1,,,,,,,,1,1,1,1,,,,1,,1,,,,1,1,,1,1,1,,1,,,,1,,,,,1,,1,,,,,1,,,,,,,,,,1,,1,,,,,,1,,1,1,1,1,,,,,,,,,,,,,,,,,,,,,,,1,,,,,,1,1,1,1,1,1,1,1,,1,1,1,,1,,,1,1,1,1,,,,,1,1,,1,1,,1,1,1,1,1,,,,,1,,,,1,1,,1,,,1,1,1,1,,,,,1,,1,1,,1,,,1,,1,1,1,1,,,1,,1,1,1,1,,,1,1,1,1,1,,,,,,,1,,,1,,,,,,,,,,,,,,,,,,,,,,,,,,,,,,
LRADAC Outpatient and Withdrawal Management,2711 Colonial Drive ,Columbia,SC,29203,,Richland,803-726-9300,,,,http://lradac.org/,34.0222118,-81.0327391,SA,1,1,,,,1,1,1,1,1,1,1,,,,,,1,,,,1,,1,1,1,,1,,,1,,1,,,,1,1,,1,1,1,,,,,,,,,,,1,,1,,,1,,,,,1,1,1,,1,,,1,,1,1,1,1,1,,,,1,1,1,1,1,1,1,1,,,1,,1,1,,,1,1,,1,1,1,1,1,1,1,1,1,,,1,,,,,1,1,,,1,,1,1,,,1,,,1,1,1,1,1,1,1,1,1,1,1,,1,,1,1,1,1,1,1,1,1,1,1,1,1,1,,1,1,1,1,1,,1,,1,1,1,1,,,1,,1,,1,1,,,1,1,,1,1,1,,,,1,,,,1,1,,1,1,1,1,,,,,,,,,,,,,,,,,,,,,,,,,
William Jennings Bryan Dorn Veterans Affairs Medical Center,6439 Garners Ferry Road ,Columbia,SC,29209,,Richland,803-776-4000 x7980,Intakes,803-776-4000 x7443,803-776-4000 x6397,http://www.columbiasc.va.gov/services/Mental_Health.asp,33.9768636,-80.9616678,SA,1,1,,,,1,1,1,1,1,1,1,,,,1,,,,,,1,1,1,1,1,,1,,,,,1,,,,1,1,,1,1,,,,1,,1,,,,,,,,,,1,,,,,,,,,1,1,1,,,,,,,,,,,,,,,,,,,,,,,1,1,1,,,1,,,1,1,1,1,1,1,1,1,1,1,1,1,,,,,1,1,,,,,1,1,,,1,,1,1,1,1,1,1,1,1,1,1,1,1,,1,1,1,1,1,1,1,1,1,1,1,1,1,1,1,,1,1,1,1,1,,1,,1,,1,1,,,,1,1,,,,,,,1,,,,1,1,1,,1,,,1,1,1,1,,1,1,1,1,,,,,,,,,,,,,,,,,,,,,,,,
Prisma Health Richland Springs,11 Medical Park ,Columbia,SC,29203,,Richland,803-434-4800,,,,http://www.prismahealth.org,34.0298821,-81.034154,SA,1,1,,,,1,1,1,1,1,1,,,,,,,1,,,,1,1,,1,,,1,,,1,,,,,,,,,,,1,1,,1,,,,,,,,,,,1,1,,,,,,1,1,1,1,1,1,,,,,1,,1,,,,,,,,,,,,,,,,1,1,1,,,1,,,,1,,,,1,,1,1,,,1,,,1,1,1,1,,,,,1,,,,,,1,1,1,1,,,,,,1,1,,1,1,1,,1,1,1,,1,1,1,1,,,1,1,,,1,,1,1,,1,,1,1,,1,,,1,,1,1,1,,,,,1,,,,1,1,1,,1,,,1,,,,,1,,1,1,,,,,,,,,,,,,,,,,,,,,,,,
Insights Educational and Treatment Services,1441 Saint Andrews Road ,Columbia,SC,29210,,Richland,803-750-8444,,,803-808-1221,http://www.insightsservices.com,34.0515907,-81.1015549,SA,1,,,,,,,,,,,,,,,,,1,,,,1,1,1,1,1,1,,1,,,,1,,,,,,,1,1,,,,,,,,,,,,1,,1,,,,,,,,1,,1,1,1,1,,,1,,,,,,,,,,,,,,,,,,,,,,,,,,1,1,1,1,1,1,1,1,1,1,1,1,,1,,1,,,1,1,,,,,1,,,1,,,,1,1,1,,,,,,,,,,,,,1,,,1,,1,1,,,,,1,,,,1,,,,,,,,,,,1,,,,1,,1,,,1,,1,,1,,,,,,,,,,1,,1,,,,,,,,,,,,,,,,,,,,,,,,,,,,
Columbia Teen Challenge ,3332 Leesburg Road Suite A,Columbia,SC,29209,,Richland,803-834-5236,,,,http://teenchallenge.cc/columbia-men/,33.9844098,-80.8948255,SA,1,,,,,,,,,,,,,1,1,,,,,,,1,,,1,1,,1,,,,1,,,1,,,,,,,,,,,,,,,,,,,,,,,,,,,,1,,,,,,,,,,,,,,1,,,,1,,,,1,,1,1,,1,,,,,,,,1,1,1,1,,1,,,1,1,,,1,,,1,1,,1,,,,,1,,,1,1,,,1,1,1,,,,1,,1,1,,,,,1,1,1,1,1,,1,1,,,1,,1,,1,,1,1,1,,,,,,,,,,1,,,,,,,1,,,,,,,,,,,1,,,,1,1,,,1,,,,,,,,,,,,,,,,,,,,,,,,,,
William S Hall Psychiatric Institute Adolescent Recovery Program,220 Faison Drive ,Columbia,SC,29203,,Richland,803-898-1662,,,,http://www.scdmh.org,34.0823923,-80.9960791,SA,1,,,,,,,,,,,,,,,,1,,,,,1,1,,1,1,1,1,,,1,,,,,,,,,,,,1,,,1,,,,1,,,,1,,,1,,1,,,,1,1,,1,1,1,,1,,,1,,1,,,,,,,1,,,,,,,,,,,,,,,,,1,1,1,,1,,1,1,1,1,,1,,1,,,1,1,,,,,1,,,,,,1,1,1,1,,,,,,1,1,,,1,1,,1,,,1,,,1,1,,,1,1,,,,,1,1,,,,,,,,,,,,1,,,,,1,,,,,,,,,,1,,,,,,,,,1,,,,,,,,,,,,,,,,,,,,,,,,,,
Morris Village ,610 Faison Drive ,Columbia,SC,29203,,Richland,803-935-7100,,803-935-7101,,http://www.state.sc.us/dmh/morrisvillage/about.html,34.08419783,-80.99126986,SA,1,1,,,,1,,1,,1,1,1,,,,,,,,,,1,,1,1,1,1,,1,,1,1,,1,,1,,,,,,1,1,,,,,,,1,,,,,1,,,1,,,,,1,1,1,1,1,1,,1,,,1,,,,,,,,,,,1,1,,,,,,1,1,1,1,1,1,,,1,1,1,,1,1,,1,1,,,1,,,1,1,1,1,,,,,1,,,,1,,1,1,1,1,1,,,,1,1,,,,1,1,1,1,1,1,1,1,1,1,,,,1,1,,,,1,1,,,1,,,1,1,1,,,,,1,,,,,,,1,,,,,1,1,,,,,,1,1,,,1,,,,,,,,,,,,,,,,,,,,,,,,,,,
William J McCord Adolescent Treatment Facility,910 Cook Road ,Orangeburg,SC,29118,,Orangeburg,803-534-2328,,803-534-2328 x151,,http://www.tccada.com,33.535231,-80.82061,SA,1,1,,,,1,1,1,1,1,1,1,,,,,,,,,,1,,1,1,1,,1,,,1,,1,,,,,,,,1,1,1,,,1,,,,,,,1,,1,1,1,,,,,,1,1,,,1,1,,1,1,,1,,,,,,,,,1,,,,,,,,,,1,1,1,1,1,,,1,1,1,,1,1,,1,1,,,1,,1,1,1,1,1,,,,,1,,,,1,,1,1,1,1,,,1,,1,1,1,1,,1,1,1,1,1,1,,1,1,1,1,1,1,1,1,,,1,1,1,1,,1,,1,1,1,1,,,1,,1,,,,,,,1,,,,,,,,,,,1,1,1,,,1,1,1,1,,,,,,,,,,,,,,,,,,,,,,,,
Tri County Commission on Alcohol and Drug Abuse,910 Cook Road ,Orangeburg,SC,29118,,Orangeburg,803-536-4900,Intakes,803-536-4900 x126,803-534-2328 x143,http://www.tccada.com,33.533726,-80.820246,SA,1,,,,,1,1,,1,1,1,1,,,,,,,,,,1,,1,1,1,,1,,,,,1,,,,,1,,1,1,,,,,,,,,,,,1,,1,,1,,,,,,1,1,,,1,1,,1,1,1,1,,,,,,,1,,,,1,,,,,,,,,,,,,1,,1,1,1,1,1,1,,1,1,,,1,,1,,,1,1,,,1,,1,1,,,1,,1,1,1,1,1,1,1,,1,1,1,1,,1,,1,1,1,1,,1,1,1,1,1,1,1,1,,,1,1,1,1,,1,,1,1,1,1,,,1,,1,,,,,,,1,,,,,,,,,,,1,1,1,,,,,1,1,,,,,,,,,,,,,,,,,,,,,,,,
Fairfield Behavioral Health Services ,178 U.S. Highway 321 Bypass North ,Winnsboro,SC,29180,,Fairfield,803-635-2335 x19,,803-635-2335 x10,,http://www.fairfieldbhs.org,34.367678,-81.1004727,SA,1,,,,,,,,,,,,,,,,,1,,,,1,,,1,1,1,,1,,,,1,,,,,1,,,1,,,,,,,,,,,,,,1,,,1,,,,,1,1,,,1,,,1,1,,1,,1,,,,,1,,1,,,,,,,,,,,,,,,1,,1,1,1,,,1,1,1,1,1,,1,,1,,,1,1,,,1,,1,,,,1,,,1,1,1,,,,1,1,,1,1,,,,1,1,,1,1,,1,1,,1,1,,1,,1,,,1,1,,,,,,,,,,1,,,,1,,,,1,,,1,,,,,,,,,,1,1,,,,,1,,,,,,,,,,,,,,,,,,,,,,,,,
Waypoint Recovery Center Residential Location,499 Wild Hearts Road ,Cameron,SC,29030,,Calhoun,854-444-5200,,,,http://www.waypointrecoverycenter.com,33.4791285,-80.6812494,SA,1,,,,,1,1,,1,1,1,1,,,,,,,,,,1,1,1,1,1,1,,1,,,1,,1,,,,,,,,,,,,,,,,,,,,,1,,1,,,,,,1,,,,1,,,,,,,,,,,,,,,,,,,,,,,,1,,,,,,,,1,1,1,1,1,1,,1,1,,,1,,,1,1,1,1,,,,,1,1,,,1,,,1,1,1,1,,,,1,1,,,,,1,1,1,,,1,1,1,,,,1,1,1,,1,1,,,1,,1,,1,1,1,1,,1,,,1,,,,,,,1,,,,,1,1,,1,,,,1,1,,,,,1,,,,,,,,,,,,,,,,,,,,,,,,,
Westview Behavioral Health Services ,204 Ramage Street ,Saluda,SC,29138,,Saluda,864-445-2968,,,864-445-3827,http://www.westviewbehavioral.org,34.0028529,-81.7774889,SA,1,,,,,,,,,,,,,,,,,1,,,,1,,,1,1,,1,,,,,1,,,,,1,,,1,,,,,,,,,,,,1,,1,,,1,,,,,1,1,1,1,1,1,,1,,1,,1,1,,,,,1,,1,,,1,1,1,1,1,,,,,,,,1,,1,1,1,,1,1,,,1,,,1,,1,,,1,1,,,1,,1,,,,1,,,1,1,1,,,,,1,1,,1,,1,,1,1,,,1,1,1,,,,,,1,,,,1,1,1,,,,,,,,,,1,,1,,1,,,,1,,,1,,,,,,,,,,1,1,,,,,,,,,,,,,,,,,,,,,,,,,,,,,,
Michael C Watson Treatment Facility ,2549 Main Highway ,Bamberg,SC,29003,,Bamberg,803-245-4360,,,,http://www.tccada.com,33.3030451,-81.0335257,SA,1,,,,,1,1,,1,1,1,1,,,,,,,,,,1,,1,1,1,,1,,,,,1,,,,,1,,,1,,,,,,,,,,,,1,,1,,1,,,,,,1,1,,,1,1,,1,1,1,1,,,,,,,,,,,,,,,,,,,,,,,,1,,1,1,1,1,,1,,1,1,,,1,,1,,,1,1,,,1,,1,1,,,,,1,1,1,1,1,,,,1,1,,1,,1,,1,1,,,,1,1,1,,1,1,,1,,,1,1,1,1,,1,,1,1,1,1,,,1,,1,,,,,,,1,,,,,,,,,,,,1,1,,,,,,,,,,,,,,,,,,,,,,,,,,,,,,
BHG Aiken Treatment Center ,410 University Parkway Suite 1560,Aiken,SC,29801,,Aiken,803-641-6911,,,,http://bhgrecovery.com/locations/#southcarolina,33.5727301,-81.764027,SA,1,,1,1,,1,1,,,1,,,1,,,,,,,1,1,1,,,1,,,1,,,,,1,,,,,1,,,1,,,,,,,,,,,,1,,,,1,,,,,,1,1,1,,1,,,1,,,,,,,,,,,,,,,,,,,,,,,,,,,,,1,1,1,1,,,,1,,,,1,,,,,1,1,1,1,,,1,,,,1,,,1,1,1,,,,1,1,1,1,,,1,,1,1,1,1,,,1,1,,1,1,1,1,,1,,,1,1,,,1,1,,1,,,1,,,,,,,1,,,,,,,,,,,,,1,,1,1,,,,,,,,,,,,,,,,,,,,,,,,,,,,,,
Aiken Center ,1105 Gregg Highway ,Aiken,SC,29801,,Aiken,803-649-1900,,,,http://www.aikencenter.org,33.56573183,-81.77415297,SA,1,,,,,,,,,,,,,,,,,1,,,,1,,1,1,1,1,,1,,,,1,,,,,,,1,1,,,,,,,,,,1,,1,,1,,,1,,,,,1,1,,1,1,,,1,1,1,1,1,,,,,,,,1,,1,,,,,,,,,,,,,1,,1,1,1,,,,,1,1,,,1,,1,,,1,1,,,1,,1,,,,1,,,1,1,1,,1,1,,1,1,1,1,,,,1,1,1,1,1,1,1,1,,1,1,1,1,,1,,1,1,1,,,,,,,,,,,,,,1,,,,1,,,1,,,,,,,,1,,1,1,1,,,,,,,,,,,,,,,,,,,,,,,,,,,,,
Westview Behavioral Health Services ,800 Main Street ,Newberry,SC,29108,,Newberry,803-276-5690,,,,http://www.westviewbehavioral.org,34.2714209,-81.6244652,SA,1,,,,,,,,,,,,,,,,,1,,,,1,,,1,1,,,,1,,,1,,,,,1,,,1,,,,,,,,,,,,1,,1,,,1,,,,,1,1,1,1,1,1,,1,,1,,1,1,,,,,1,,1,,,,,1,1,1,,,,,,,,1,,1,1,1,1,1,1,,1,1,1,,1,,1,,,1,1,,,1,,1,,,,1,,,1,1,1,,1,,,1,1,,1,,,,1,1,,,1,1,1,1,,,,,1,,1,,1,1,1,,,,,,,,,,1,,1,,1,,,,1,,,1,,,,,,,,,,1,1,,,,,,,,,,,,,,,,,,,,,,,,,,,,,,
Axis I Center of Barnwell ,1644 Jackson Street ,Barnwell,SC,29812,,Barnwell,803-541-1245,,,,http://www.axis1.org,33.24385,-81.36602,SA,1,,,,,1,1,,1,1,1,1,,,,,,1,,,,1,,1,1,1,1,1,,,,,1,,,,,1,,1,1,,,,,,,,,,,,1,,1,,,1,,,,,1,1,,1,1,,,1,,1,1,,1,1,1,1,1,1,1,1,1,1,1,1,1,1,1,1,,,,,,,1,,1,1,1,,1,1,1,1,1,,,1,,1,,,1,1,,,1,,1,,,1,1,,,1,1,1,,1,1,,1,1,1,1,,,,1,1,,,1,,1,1,,1,1,,1,,1,,1,1,1,,1,,1,,1,,,,1,,1,,1,,,,1,,,1,,,,,,,1,1,,1,1,1,,,,,,,,,,,,,,,,,,,,,,,,,,,,,
ALPHA Behavioral Health Center ,208 King Street ,Camden,SC,29020,,Kershaw,803-432-6902,,,,http://www.alphabehavioralhealthcenter.org,34.2407375,-80.598648,SA,1,,,,,1,1,,1,1,1,1,,,,,,1,,,,1,1,1,1,1,1,,1,,,,1,,,,,1,,,1,,,,,,,,,,,,1,,1,,,1,,,,,1,1,,1,1,,,1,,,,,1,,,,,1,,1,1,,,,1,1,1,,,,,,,,1,1,1,1,1,1,,1,,1,1,,,1,,1,,,1,1,,,1,,1,,,1,1,,1,1,1,1,,1,1,,1,,,1,,1,,1,1,,,,1,1,1,,1,,,1,,1,,1,1,1,,1,,1,1,1,1,1,,1,,,,1,,,,1,,,1,,,,,,,,1,,1,1,1,1,,,,,,,,,,,,,,,,,,,,,,,,,,,,
Cornerstone Edgefield,603 Augusta Road ,Edgefield,SC,29824,,Edgefield,803-637-9336,,,,http://www.cornerstonecares.org,33.7743,-81.917054,SA,1,,,,,,,,,,,,,,,,,1,,,,1,1,,1,1,,1,,,,,1,,,,,,,,1,,,,,,,,,,1,,1,,1,,,1,,,,,1,1,,1,1,,,1,,1,1,,,,,,,,,1,,,,,1,,,,,,,,,,1,,1,1,1,1,,1,1,1,,,,1,,,,,1,1,,,1,,1,,,,,,,1,1,1,,,,1,1,,,1,,,,1,1,,,1,,1,,,,1,1,1,,,,,1,1,,,,,,,,,,,,1,1,,1,,,1,,1,,1,,,,,,,1,,1,1,,1,,1,,,,,,,,,,,,,,,,,,,,,,,,,,
Sumter Treatment Specialists ,1031 Broad Street ,Sumter,SC,29150,,Sumter,803-848-0035,,,,http://sumtertreatmentspecialists.com,33.9477213,-80.3738248,SA,1,,1,1,,1,1,,,1,,,1,,,,,,,1,1,1,,1,1,,,1,,,,,1,,,,,1,,,1,,,,,,,,,,,,1,,,,,,,,,,1,1,,,,,,1,,,,,,,,,,,,,,,,,,,,,,,,,,,,,1,,,,,,,1,,,,1,,,1,1,1,1,1,1,,,,,,,,,,,,,,,,,,,,,,,,,1,,,,,1,,,,,,1,,,,,,,,,1,1,1,1,,,1,,,,,,,1,,,,,,,,,,,,,1,,1,,,,,,,,,,,,,,,,,,,,,,,,,,,,,,,
Sumter Behavioral Health Services ,441 North Main Street ,Sumter,SC,29150,,Sumter,803-775-5080,,,,http://www.sumterbhs.org,33.92819631,-80.34148664,SA,1,,,,,1,1,,1,1,1,1,,,,,,1,,,,1,,1,1,1,,,1,,,,1,,,,,1,,1,1,,,,,,,,,,,,1,,1,,,1,,,,,1,1,,1,1,1,,1,1,1,1,,,,,,,,,1,,1,,,1,,,,1,,,,,,,,1,1,1,1,1,1,1,1,1,1,,1,,1,,,1,1,,,,,1,1,,,1,,1,1,1,1,1,1,1,1,1,,,1,,1,,1,1,,,,1,1,1,,1,,1,1,,1,1,1,1,1,,1,,1,1,1,1,,,1,,,,1,1,,,1,1,,1,1,,,,,,,,,1,1,,,,,,,,,,,,,,,,,,,,,,,,,,,,,,
Sumter Behavioral Health Services ,115 North Harvin Street ,Sumter,SC,29150,,Sumter,803-775-6815,,,803-775-5080,http://www.sumterbhs.com,33.9223873,-80.3382067,SA,1,,,,,,,,,,1,1,,,,,,1,,,,1,,1,1,1,,,1,,,1,1,1,,,,,,,1,,,,,,,,,,,,1,,1,,,1,,,,,1,1,,1,1,,,1,,1,,,,,,,,1,,,,1,1,,,,,1,,,,,,,,,1,1,1,1,1,1,1,1,1,1,,1,,1,,,1,1,,,1,,1,,,1,,,,1,1,1,,1,1,,1,,,1,,1,,1,1,,1,,,1,1,,1,1,1,1,,,,1,1,,,1,,,,,1,,,1,,,1,,1,,,,1,,,,,,,,,,,,1,1,,,,,,,,,,,,,,,,,,,,,,,,,,,,,,
Clarendon Cty Commission on Alc Trt DBA Clarendon Behavioral Health Servs,14 North Church Street ,Manning,SC,29102,,Clarendon,803-435-2121,,,,http://www.clarendonbhs.com,33.6959659,-80.2084491,SA,1,,,,,,,,,,,,,,,,,1,,,,1,,,1,1,1,1,,,,,1,,,,,,,,1,,,,,,,,,,1,,1,,1,,,1,,,,,1,1,,1,1,,,1,1,1,1,,1,,,,,1,1,1,1,1,1,,1,1,1,1,,,,,,,1,,1,1,1,1,1,1,1,1,1,1,,1,,1,,,1,1,,,1,,1,,,1,1,,,1,1,1,,,1,,1,1,,1,1,,,1,1,,,,,1,1,,1,1,,1,,,,,1,1,,,,,,,,,,,,,,1,,,,1,,,1,,,,,,,,,,1,1,,,,,,,,,,,,,,,,,,,,,,,,,,,,,,
New Life Center Commission on Alc and Other Drug Abuse Services,570 Memorial Avenue P.O. Box 806,Allendale,SC,29810,,Allendale,803-584-4238,,,803-943-2800,http://www.newlifecenteradc.org,33.0115594,-81.3074161,SA,1,,,,,,,,,,,,,,,,,1,,,,1,,,1,1,1,1,,,,,1,,,,,,,,1,,,,,,,,,1,,,1,,1,,,1,,,,,1,1,,1,,,,1,1,1,,,1,1,1,,,1,1,1,1,1,1,1,,,,1,,,,,,,1,,1,1,1,,1,1,,1,,,,1,,1,,,1,1,,,1,,1,,,,,,,1,1,1,,,1,,1,,,1,,,,1,1,,,,,1,,,,,,1,,,,,1,1,,,,,,,,,,,,,,1,,,,1,,,1,1,,,,,,1,1,,1,1,,,,,,,,,,,,,,,,,,,,,,,,,,,,,,
Lee Center ,108 East Church Street ,Bishopville,SC,29010,,Lee,803-484-6025,,,,http://www.alphabehavioralhealthcenter.org,34.2173861,-80.2481409,SA,1,,,,,,,,,,,,,,,,,1,,,,1,1,1,1,1,1,,,1,,,1,,,,,1,,,1,,,,,,,,,,,,1,,1,,,1,,,,,1,1,,1,1,,,1,,,,,1,,,,,1,,1,,,,,1,1,1,,,,,,,,1,,1,1,1,1,,1,,1,1,,,1,,1,,,1,1,,,1,,1,,,1,1,,1,1,1,1,,1,1,,1,,,1,,1,,1,1,,,,1,1,1,,1,,,1,,1,,1,1,1,,,,,,,,,,1,,,,1,,,,1,,,1,,,,,,,,1,,1,1,1,1,,,,,,,,,,,,,,,,,,,,,,,,,,,,
Chester County Alcohol and Drug Abuse DBA Hazel Pittman Center,130 Hudson Street ,Chester,SC,29706,1524,Chester,803-377-8111,,,,http://www.hazelpittman.org,34.705853,-81.2108727,SA,1,,,,,,,,,,,,,,,,,1,,,,1,,1,1,1,1,1,,,,,1,,,,,,,1,1,,,,,,,,,,,,,,1,,,1,,,,,1,1,,1,1,1,,1,,,1,,,,,,,,,,,,,,,,,,,,,,,,1,,1,1,1,,1,1,,1,1,1,,1,,1,,,1,1,,,1,,1,,,,,,,1,1,1,,,,,,1,,,,,,1,1,,,1,1,1,,,,,1,1,,,,1,1,1,,,,,,,,,,1,,,,1,1,,,1,,,1,1,,,,,,,,,1,1,1,,,,,,,,,,,,,,,,,,,,,,,,,,,,,
Greenwood Treatment Specialists ,110 Court Avenue West ,Greenwood,SC,29646,2749,Greenwood,864-407-4160 x201,,,,http://www.greenwoodtreatment.com,34.1884936,-82.1611436,SA,1,1,1,1,1,1,1,1,,1,,,1,,,,,,,1,1,,,,1,1,,,1,,,,1,,,,1,1,1,1,1,,,,,,,,,,,,,,,,,1,,1,,,1,1,1,,,,,1,1,,1,,1,1,1,1,1,1,1,,1,1,1,1,1,1,1,,,,,,,1,,,1,,1,,,1,,1,1,,,1,,,1,1,1,1,1,1,,,,,,,,,1,1,1,1,,1,,1,1,1,1,1,,,,1,1,1,1,1,1,1,1,,1,1,1,1,,1,,1,1,1,,,1,1,1,1,,,1,,,,,,,1,,,,,,,,,,,,1,1,1,1,1,1,1,1,,,,,,,,,,,,,,,,,,,,,,,,,,,
Faith Home Inc Christian Alcohol/Drug Rehabilitation,144 Faith Home Road ,Greenwood,SC,29649,,Greenwood,864-223-0694,,,,http://www.faithhomegwd.net,34.2521468,-82.1327043,SA,1,,,,,,,,,,,,,,,,1,,,,,,,,1,,,,1,,,1,,,1,,,,,,,,,,,,,,,,,,1,,,,,,,,,1,,,,,,,,,,,,,,,,,,,,,,,,,,,,,,,,,,,,,1,1,1,1,1,,,,1,1,,1,,1,,,,1,,,,,,,,,1,,,1,1,1,,,,,,,,,,,,1,1,,,1,1,1,,,,,,,,1,,1,,,,,,,,,,,,1,,,,,,,1,,,,,,,,,,,,,,,1,,,,,,,,,,,,,,,,,,,,,,,,,,,,,,
Clear Skye Treatment Center ,1035 Medical Ridge Road ,Clinton,SC,29325,,Laurens,864-547-2089,,,,http://www.clearskyetreatmentcenters.com,34.4829412,-81.9387976,SA,1,,1,1,,1,1,,,1,,,1,,,,,,,1,1,1,,,1,,,,1,,,,1,,,,,1,,,,,,,,,,,,,,,,,1,,,1,,,,,1,1,,,,,,1,,,,,,,,,,,,,,,,,,,,,,,,,,,,,1,,,,,1,,1,,,,1,,,1,1,1,1,1,1,,,1,,,,1,,,1,1,1,,,,,1,,1,,,,,1,1,,1,,,1,,1,,1,1,1,,1,,1,,,,,1,1,1,1,,,1,,,,,,,1,,,,,,,,,,,,,1,,1,1,,1,,,,,,,,,,,,,,,,,,,,,,,,,,,,
Gate Way Counseling Center ,219 Human Services Road ,Clinton,SC,29325,,Laurens,864-833-6500,,,,http://www.gatewaycounseling.org,34.4855304,-81.9366449,SA,1,,,,,,,,,,,,,,,,,1,,1,,1,,1,1,1,,1,,,,,1,,,,,1,,,1,,,,,,,,,,1,,1,,1,,,1,,,,,1,1,,,1,,,1,,1,1,,,,,,,,,1,,1,,,1,,,,,,,,,,1,,1,1,1,1,1,1,,1,1,,,1,,1,,,1,1,,,1,,1,,,1,,,,1,1,1,,,,,,,1,1,,1,,1,1,,,,1,1,1,,1,,,1,,1,,1,1,1,,,,,,,,,,,,,,1,,,,1,,,1,,,,,,,,1,,1,1,1,,,,,,,,,,,,,,,,,,,,,,,,,,,,,
Cornerstone Greenwood,1612 Rivers Street ,Greenwood,SC,29649,,Greenwood,864-227-1001,,,864-227-1010,http://www.cornerstonecares.org,34.2055684,-82.199019,SA,1,,,,,,,,,,,,,,,,,1,,,,1,1,,1,1,1,1,,,,,1,,,,,,,1,1,,,,,,,,,,1,,1,,1,,,1,,,,,1,1,,1,1,,,1,,1,1,1,,,,,,1,,1,,,,,1,,,,,,,,,,1,,1,1,1,1,,1,1,1,1,1,,1,,,,,1,1,,,1,,1,,,,,,,1,1,1,,,,1,1,,,1,,,,1,1,,,1,,1,,,,1,1,1,,1,,,1,1,,,,,,,,,,,,1,1,,1,,,1,,1,,1,,,,,,,1,,1,1,,1,,1,,,,,,,,,,,,,,,,,,,,,,,,,,
Counseling Services of Lancaster ,114 South Main Street ,Lancaster,SC,29720,,Lancaster,803-285-6911,,,,http://www.counselingserviceslancaster.org,34.71986304,-80.77053863,SA,1,,,,,,,,,,,,,,,,,1,,,,1,,1,1,1,1,,1,,,,1,,,,,1,,1,1,,,,,,,,,,1,,1,,1,,,1,,,,,1,1,,1,1,,,1,,,1,,,,,,,,,1,,,,,,,,,,,,,,,1,,1,1,1,1,1,1,,1,,1,,1,,1,,,1,1,,,1,,1,,,,1,,,1,1,1,,,,,1,,,1,,,,1,1,,,,,1,1,,1,,,1,,1,,1,1,1,,,,,,,,,,,,,,1,1,,,1,,,1,1,,,,,,,1,,1,1,,,,,,,,,,,,,,,,,,,,,,,,,,,,,,
Cornerstone McCormick,504 North Mine Street ,Mc Cormick,SC,29835,,McCormick,864-852-3306,,,,http://www.cornerstonecares.org,33.9146799,-82.300683,SA,1,,,,,,,,,,,,,,,,,1,,,,1,1,,1,1,,1,,,,,1,,,,,,,,1,,,,,,,,,,1,,1,,1,,,1,,,,,1,1,,1,1,,,1,,1,1,,,,,,,1,,,,,,,1,,,,,,,,,,1,,1,1,1,1,,1,1,1,,,,1,,,,,1,1,,,1,,1,,,,,,,1,1,1,,,,1,1,,,1,,,,1,1,,,1,,1,,,,1,1,1,,,,,1,1,,,,,,,,,,,,1,1,,1,,,1,,1,,1,,,,,,,1,,1,1,,1,,1,,,,,,,,,,,,,,,,,,,,,,,,,,
New Life Center Commission on Alc and Other Drug Abuse Services,102 Ginn Altman Avenue Suite C,Hampton,SC,29924,,Hampton,803-943-2800,,,,http://newlifecenteradc.org,32.8576079,-81.1160145,SA,1,,,,,,,,,,,,,,,,,1,,,,1,,,1,1,1,1,,,,,1,,,,,,,,1,,,,,,,,,1,,,1,,1,,,1,,,,,1,1,,1,,,,1,1,1,,,1,1,1,,,1,1,1,1,1,1,1,,,,1,,,,,,,1,,1,1,1,,1,1,,1,,,,1,,1,,,1,1,,,1,,1,,,,,,,1,1,1,,,1,,1,,,1,,,,1,1,,,,,1,,,,1,,1,,,,,1,1,,,,,,,,,,,,,,1,,,,1,,,1,1,,,,,,1,1,,1,1,,,,,,,,,,,,,,,,,,,,,,,,,,,,,,
Colleton County Commission on Alcohol and Drug Abuse,1439 Thunderbolt Drive ,Walterboro,SC,29488,,Colleton,843-538-4343,,,,http://www.pillars4hope.org/,32.947748,-80.626861,SA,1,,,,,,,,,,,,,,,,,1,,,,1,1,1,1,1,,1,,,,,1,,,,,,,1,1,,,,,,,,,,1,,1,,1,,,1,,,,,1,1,,1,1,,,1,1,1,1,1,1,,,,,1,1,1,1,1,1,,1,1,1,1,,,,,,,1,,1,1,1,1,1,1,1,1,,1,,1,,1,,,1,1,,,1,,1,,,,1,1,,1,1,1,,1,,1,1,1,,1,,1,,1,1,1,,,1,1,1,,1,1,,1,,1,,1,1,1,,,,,,,,,,,,,,1,,,,1,,,1,1,,,,,,1,1,,1,1,1,1,,1,,,,,,,,,,,,,,,,,,,,,,,,,,
Starting Point of Darlington ,1451 Retail Row ,Hartsville,SC,29550,,Darlington,843-383-4848 x13,Intakes,843-383-4848 x10,843-917-8548,http://www.crossroadstreatmentcenters.com,34.3578492,-80.0619996,SA,1,1,1,,1,,,,,,,,1,,,,,,,1,1,1,,,1,,,,1,,,,1,,,,1,1,,,1,,,,,,,,,,,,1,,1,,1,1,1,,,,1,1,,,1,,,1,,,1,,,,,,,,1,,1,1,1,,,,,1,,,,,,1,,,1,,1,,,1,,1,,1,,1,,,1,1,1,1,,1,,,1,,,,1,,,1,1,1,,,,,,,,,,,,1,1,,,,,1,,,,1,1,1,,,,,,,,,1,,,,,,1,,,,,,,1,,,,,,,,,,,,1,,,1,1,,,,,,,,,,,,,,,,,,,,,,,,,,,,,,
Pee Dee Mental Health Darlington County,900 South Fourth Street ,Hartsville,SC,29550,,Darlington,843-332-4141,,,,http://www.peedeementalhealth.org/,34.3635086,-80.0646245,SA,1,,,,,,,,,,,,,,1,,,,,,,1,1,,1,1,,,1,,,,1,,,,,,,,1,,,,,,,,,1,,,,,,,,,,,,,1,1,1,,1,,,1,1,1,,,,,,,,,,,,,,,,,,,,,,,,,,,1,1,1,1,,,,1,1,,,,,,,,1,1,,,,,1,,,,,,,,1,1,,1,,1,,,,,,1,1,,1,,,,1,,1,,,,,1,,1,,1,,1,,,,,,,,,,,,1,,,,,,1,,,,1,,,,,,,,,,1,,,,,,,,,,,,,,,,,,,,,,,,,,,,,,
Cornerstone Abbeville,103 Whitehall Street ,Abbeville,SC,29620,,Abbeville,864-366-9661,,,,http://www.cornerstonecares.org,34.1750456,-82.3803321,SA,1,,,,,,,,,,,,,,,,,1,,,,1,1,,1,1,,1,,,,,1,,,,,,,,1,,,,,,,,,,1,,1,,1,,,1,,,,,1,1,,1,1,,,1,,1,1,,,,,,,,,,,,,,,,,,,,,,,,1,,1,1,1,1,,1,1,1,,,,1,,,,,1,1,,,1,,1,,,,,,,1,1,1,,,,1,1,,,1,,,,1,1,,,1,,1,,,,1,1,1,,,,,1,1,,,,,,,,,,,,1,1,,1,,,1,,1,,1,,,,,,,1,,1,1,,1,,1,,,,,,,,,,,,,,,,,,,,,,,,,,
Rock Hill Treatment Specialists ,1274 East Main Street ,Rock Hill,SC,29730,,York,803-526-7666,,,,http://rockhilltreatment.com,34.9155408,-81.0022794,SA,1,,1,1,,1,1,,,1,,,1,,,,,,,1,1,1,1,,1,,1,,1,,,,1,,,,,1,,,,,,,,,,,,,,,,,,,,1,,,,,1,1,,,,,,1,,1,1,1,,,,,,,,,1,1,1,,,,,,,,,,,,,,1,1,1,,,1,1,1,1,,,1,,,1,1,1,1,1,1,,,1,,,,1,,,1,1,1,,1,,1,1,1,1,,,,,1,1,,1,,1,1,1,1,1,1,1,1,,1,,,1,1,,,1,1,1,1,,,1,,,,,,,1,,,,,,,,,,,,,1,,1,1,,,,1,,,,,,,,,,,,,,,,,,,,,,,,,,
Keystone Substance Abuse Services ,199 South Herlong Avenue ,Rock Hill,SC,29732,,York,803-324-1800,,,803-324-0404,http://www.keystoneyork.org,34.9553788,-81.0483388,SA,1,1,,,,,,,,1,1,1,,,,,,,,,,1,,,1,1,,,1,,1,1,1,1,,,,1,1,1,1,1,,,,,,,,,,,1,,1,,,1,,,,,1,1,,,1,1,,1,,,1,,1,,,,,,,1,1,1,1,,,,,1,,1,1,1,1,1,1,,1,1,1,,1,1,1,1,1,1,,1,,1,,,1,1,,,1,,1,,1,,1,,,1,1,1,,,,1,1,,1,1,,1,1,1,1,,,1,1,1,,,1,,1,1,,1,1,1,1,,,1,,1,1,1,1,,,1,,,,,,,,,1,,,,,,,,,,,,,1,,,,,,,,,,,,,,,,,,,,,,,,,,,,,,
Williamsburg County Department on Alc Williamsburg County Behavioral Health,115 Short Street ,Kingstree,SC,29556,,Williamsburg,843-355-9113 x102,Intakes,843-355-9113,843-372-0299,http://www.williamsburgcounty.sc.gov/,33.6624917,-79.82996694,SA,1,,,,,,,,,,,,,,,,1,1,,,,1,1,1,1,1,1,1,,,,,1,,,,,,,1,1,,,,,,,,,,1,,1,,1,,,1,,,,,1,1,,,1,1,,1,,,1,,,,,,,,,1,1,1,,,,,,,,,,,,,1,,1,1,1,1,1,1,1,1,1,1,1,1,,1,,,1,1,,,1,,1,,,,,,,1,1,1,,,,,1,1,,1,,,,1,1,,,1,,1,1,,1,1,,1,,1,,1,1,1,,,,,,,,,,,,1,1,1,,1,,,,,,,,,,,,,1,,1,,,1,,,,,,,,,,,,,,,,,,,,,,,,,,,,
Ernest E Kennedy Center ,306 Airport Drive ,Moncks Corner,SC,29461,,Berkeley,843-761-8272,,,,http://www.ekcenter.org,33.184212,-80.030682,SA,1,,,,,,,,,,,,,,,,,1,,,,1,1,1,1,1,1,,1,,,,1,,,,,,,1,1,,,,,,,,,,,,1,,1,,,1,,,,,1,1,,1,1,,,1,1,,1,,1,,,,,1,1,,1,1,1,1,1,1,1,1,,,,,,,1,,1,1,1,1,1,1,1,1,1,1,1,1,,,1,1,1,1,,,1,,1,,,,1,,,1,1,1,,,1,,1,1,1,1,,,,1,1,,1,1,1,1,1,,1,1,,1,,,,1,1,,,,,,,,,,,1,,,,1,,,,1,,,1,,,,,,,1,1,,1,1,,,,,,,,,,,,,,,,,,,,,,,,,,,,,,
Dorchester County Commission on Alcohol and Drug Abuse,320 Midland Parkway Suite C,Summerville,SC,29485,,Dorchester,843-871-4790,,,843-871-4793,http://www.dadc.org,33.0261337,-80.1715946,SA,1,,,,,,,,,,,,,,,,,1,,,,1,,1,1,1,,,1,,,,1,,,,,1,,1,1,,,,,,,,,,1,,1,,1,,,1,,,,,1,1,,,1,1,,1,1,1,1,1,,,,,,1,,1,,1,1,,,,1,,,,,,,,1,,1,1,1,1,,1,,1,1,1,,1,,1,,1,1,1,,,1,,1,,,,1,,,1,1,1,,1,,,1,,,1,,1,,1,1,,,,,1,,,,,,1,,,,1,,,,,,,,,,,,,,1,,1,,,,1,,,,1,,,,,,,,,1,1,,,,,,,,,,,,,,,,,,,,,,,,,,,,,,
Chrysalis Center ,1430 South Cashua Drive ,Florence,SC,29501,,Florence,843-673-0660 x223,Intakes,843-673-0660 x213,843-673-0660 x210,http://www.circlepark.com,34.16683629,-79.82526777,SA,1,,,,,1,,,1,1,1,1,,,,1,,1,,,,1,1,1,1,1,1,,1,,1,1,,,1,,,,,,,,1,,,,,,,,1,,1,,1,,,1,,,,,1,1,,1,1,,,1,,,,,1,1,,,,,,,1,1,,1,1,1,,,1,,,,,,,,1,1,1,1,1,,1,1,1,1,,1,1,,1,1,1,,,,,,1,1,,,1,1,,1,1,1,,1,1,1,1,1,1,1,,1,1,1,1,1,1,1,1,1,1,1,1,1,1,1,,1,1,1,1,1,,1,,1,1,1,1,,,,,1,1,1,1,,,1,1,,1,,,1,1,,1,,,,1,1,1,,,1,1,,,,,,,,,,,,,,,,,,,,,,,,,
Sober Living Solutions LLC DBA The Owls Nest Recovery Center,2528 West Palmetto Street ,Florence,SC,29501,,Florence,843-669-6088,,,,http://www.owlsnestrecovery.com/,34.1799602,-79.821275,SA,1,,,,,,,,1,,1,1,,1,,,,,,,,,,1,1,1,,,1,,,1,1,1,1,,,1,1,1,1,,,,,,,,,,,,,,1,,,,,,,,1,1,1,1,1,1,,,,,,,,,,,,,,,,,,,,,,,,,,,,,1,,1,1,1,,1,1,1,1,1,,,1,,1,,,1,1,,,,,1,,,,1,,1,1,1,1,1,,,1,,1,1,1,,,1,1,1,1,1,1,1,1,1,1,1,1,,1,,1,,1,1,,,1,,,,,1,,1,,,,,,,,,,1,,,,,,,,1,,,,1,,1,,,1,1,,,,,,,,,,,,,,,,,,,,,,,,,
Palmetto Center ,1709 Stokes Road ,Florence,SC,29501,,Florence,843-662-9378,,,,http://www.scvrd.net,34.2133,-79.8206,SA,1,,,,,,,,,,,,,,,,1,,,,,1,,,1,,1,,1,,,1,,1,,,,,,,,,,,,,,,,1,,,,,1,,,,,,,1,,,,,,,,1,,1,1,,1,,1,,,,,,,1,1,,1,1,1,,,,,,,,,,1,1,1,,1,1,,1,1,,,1,,,1,1,1,1,,,,,,,,1,,,,,1,1,,1,,1,,,1,,,,,,1,,1,1,,,1,,1,1,,1,,,,,,,,,,,,,,,,,,,,,,,1,,,,,,,,,,,,,,,1,,1,,1,,,,,,,,,,,,,,,,,,,,,,,,,,
Starting Point of Florence PC ,1341 North Cashua Drive ,Florence,SC,29501,6939,Florence,843-673-9320,,,,http://www.crossroadstreatmentcenters.com,34.2194944,-79.7971621,SA,1,,1,,,,,,,,,,1,,,,,,,1,1,1,,,1,,,,1,,,,1,,,,,1,,,,,,,,,,,,,,,1,,1,,1,1,1,,,,1,1,1,,1,,,1,,,1,,,,,,,,,,1,,,,,,,,,,,,,,,,1,,,,,1,,1,,1,,1,,,1,1,1,1,,1,,,1,,,,1,,,1,1,1,,,,,1,,,,,,,1,1,1,1,,,1,,,1,1,1,1,,1,,,,,,,1,,,,,,1,,,,,,,1,,,,,,,,,,,,,1,,1,1,,,,,,,,,,,,,,,,,,,,,,,,,,,,,,
Postive Generation In Christ Inc ,608 Gregg Avenue Suite 102,Florence,SC,29501,,Florence,843-879-4763,,,,http://www.pgicinc.org/,34.1942499,-79.7777914,SA,1,,,,,,,,,,,,,,1,,,,,,,1,1,1,1,1,1,,1,,,,1,,,,,,1,1,1,,,,,,,,,,,,1,1,1,,,1,,,,,1,1,1,,1,,,,1,,,,,,,,,,,,,,,,,,,,,,,,,,,,1,1,,,1,1,1,1,1,1,1,1,,1,,,1,1,,,,,,,,,,,,1,1,1,,,,,,,,,,,,,1,,,1,1,1,1,,1,,,1,,,,1,,1,,,,,,,,,,1,,,,,,,1,,,,,,,,,,,,,,,1,,,,,,,,,,,,,,,,,,,,,,,,,,,,,,
Health 1st ,311 West Palmetto Street ,Florence,SC,29501,,Florence,843-662-2811,,,,http://www.health1stmedical.com,34.1938195,-79.7706085,SA,1,,,,,1,1,,1,1,1,,,,,,,,,,,,,1,,,,,1,,,,1,,,,,1,,,1,,,,,,,,,,,,,,,,,,,,,,1,,1,,1,,,,,,,,,,,,,,,,,,,,,,,,1,,,,,,,,,,,,,1,,,,,,,,,,,1,1,,,,,1,,,,1,,,1,1,,1,,,,,1,1,1,,,1,1,1,1,1,,1,1,,1,,,1,,,,,,1,1,,1,,1,1,1,1,,1,,,1,,,,,,,1,,,,,,,,1,,,1,1,1,,,,,1,1,,,,,,,,,,,,,,,,,,,,,,,,
Circle Park Behavioral Health Services Florence Cnty Commission on AODA,238 South Coit Street ,Florence,SC,29501,,Florence,843-665-9349,,,,http://www.circlepark.com,34.1945417,-79.7699953,SA,1,,,,,,,,,,,,,,,,,1,,,,1,,1,1,1,,,1,,,,1,,,,,,,1,1,,,,,,,,,,,,,,1,,,1,,,,,1,1,,1,1,,,1,,,1,,,,,,,,,1,,,,,1,,,,,,,,,,1,,1,1,1,1,,1,1,1,1,1,,1,,1,,,1,1,,,1,,1,,,1,1,,,1,1,1,,,,,1,,1,1,,1,,1,1,,,,1,1,,,,1,,1,,1,,1,1,,,,,,,,,,,1,,,1,1,,,,1,,1,1,,,,,,,,1,,1,1,,,,,,,,,,,,,,,,,,,,,,,,,,,,,,
Good Samaritan Colony Substance Abuse Center,19147 Highway 9 ,Ruby,SC,29741,,Chesterfield,843-634-6848,,,,http://thegoodsamaritancolony@gmail.com,34.7591035,-80.2050306,SA,1,,,,,,,,,,,,,,,,1,,,,,1,,,1,,,1,,,,1,,,1,,,,,,,,,,,,,,,,,,,,,,,,,,,1,,,,,,,,,,1,,,,,,,,,,,,,1,,,,,,,,,,,,,,1,1,1,1,1,,,,1,1,,1,,,1,1,,1,,,,,,,,,,,,1,,1,,,,1,,,,,,,,,1,,,1,,1,,,,,,,,,,1,1,,,,,,,,,,,1,,,,,,,1,,,,,,,,,,,,1,,,,,,,,,,,,,,,,,,,,,,,,,,,,,,,,,
Ace Recovery for Men ,1477 Ted Melton Road ,Chesterfield,SC,29709,,Chesterfield,843-623-3077,,,866-709-6988,http://www.acerecoveryformen.com/,34.6707691,-80.0708061,SA,1,,,,,,,,,,,,,1,,,1,,,,,1,,,1,1,,,1,,,1,,1,1,,,,,,,,,,,,,,,,,,1,,,,,,,,,,1,,,,,,,,,,,,,,,,,,,,,,,,,,,,,,,,,,,,1,1,,,1,1,,,1,,,1,,,1,1,,1,,,1,,1,,,1,,,,1,1,1,,,,,,,,,,1,,,1,,,1,1,1,1,,1,,,,,1,,1,,,,,,,,,,,,1,,,,,,,,1,,,,1,,,,,,,,,,1,,,,,,,,,,,,,,,,,,,,,,,,,,,,,,
Ernest E Kennedy Center ,96 Westeria Road ,Goose Creek,SC,29445,,Berkeley,843-797-7871,,843-577-9181,,http://www.ekcenter.org,32.9949197,-80.0357272,SA,1,,,,,,,,,,,,,,,,,1,,,,1,1,1,1,1,1,1,,,,,1,,,,,,,1,1,,,,,,,,,,,,1,,1,,,1,,,,,1,1,,1,1,,,1,1,1,1,,,1,,,,,,1,,,,,,,,,,,,,,,,,1,1,1,1,1,1,1,1,1,1,1,1,,1,1,1,1,1,,,1,,1,,,,1,,,1,1,1,,,1,,1,1,,1,,,,1,1,,1,1,1,1,1,,1,1,,1,,,,1,1,1,,,,,,,,,,1,,,,1,,,,1,,,1,,,,,,,,1,,1,1,,,,,,,,,,,,,,,,,,,,,,,,,,,,,,
Waypoint Recovery Center Outpatient Treatment,5401 Netherby Lane Suite 402,North Charleston,SC,29420,,Dorchester,854-444-5219,,,,http://waypointrecoverycenter.com/,32.9205384,-80.1196531,SA,1,,,,,,,,,,,,,,,,,1,,,,1,1,1,1,1,1,,1,,,,1,,,,,,,1,1,,,,,,,,,,,,,,1,,1,,,,,,1,,,,1,,,,,,,,,,,,,,,,,,,,,,,,,,,,,,,,1,1,1,1,1,1,,1,1,,,1,,,1,1,1,1,,,,,1,,,,1,,,1,1,1,,,,,,,,,,,,1,1,,,,1,1,,,,1,,1,,,,,,1,,,,,,,,,1,,,1,,,1,,,1,,,,1,,,,,,,,,,,,,,,1,,,,,,,,,,,,,,,,,,,,,,,,,
New Season York County Treatment Cente Metro Treatment of South Carolina LP,377 Rubin Center Drive Suite 101,Fort Mill,SC,29708,,York,803-547-7238,,,,http://www.methadonetreatment.com,35.0962505,-80.9405587,SA,1,,,,,,,,,1,,,1,,,,,,,1,1,1,1,,1,1,1,,1,,,,1,,,,,1,,,,,,,,,,,,,,,1,,1,,,1,,,,,1,1,,,,,,,,,,1,1,,,,1,1,1,,1,1,1,1,,,,,,,,,,,,,1,1,1,,1,1,1,1,1,1,1,1,,,1,1,1,1,1,1,,,1,,,,,,,1,1,1,,1,1,1,1,1,,,,,,1,1,,,1,,1,1,,,1,1,1,,1,,1,,,,,1,1,1,,,,1,,,,,,,1,,,,,,,,,,,,,,,,1,,1,,,,,,,,,,1,,,,,,,,,,,,,,,,,,
Mel Med LLC ,1451 East Main Street Suite 2-A,Spartanburg,SC,29307,,Spartanburg,864-586-3979,,,,http://www.mel-med.com,34.9623998,-81.9013604,SA,1,1,,,,1,1,1,1,1,1,1,,,,,,,,,,,,1,1,,1,1,,,,,1,,,,1,1,,,1,,,,,,,,,,,,,,,,,,,,,,1,,,,,,,,,,,,,,,,,1,,,1,,,,,,,,1,1,1,,,1,,,1,,,,1,1,,1,,,,1,,,,,1,1,,,,,1,1,,,,,,1,1,,1,,,,,,,,,,1,1,1,,,,,,,,,1,,1,,,1,1,1,1,,1,,1,1,1,1,1,1,,,1,,,,,,,1,,,,1,,1,1,1,,,,1,,,,1,,,,,,,,,,,,,,,,,,,,,,,,,,,
Forrester Center for Behavioral Health,187 West Broad Street Suite 300,Spartanburg,SC,29304,,Spartanburg,864-582-7588,,,,http://www.theforrestercenter.org,34.947727,-81.933884,SA,1,,,,,1,,,1,1,1,1,,,,,,,,,,1,,1,1,1,1,,1,,,,1,,,,,1,,1,1,,,,,,,,,,,,1,,1,,,1,,,,,1,1,,,1,,,1,1,1,1,1,1,,,,,1,,1,,1,1,,,,,1,,,,,,,1,,1,1,1,1,1,1,,1,1,1,,1,,1,,,1,1,,,1,,1,,,,1,,,1,1,1,,1,,,,,,,,,,1,1,,,,,1,1,,1,,,1,,1,,1,1,1,,1,,1,,1,1,,,1,,,,,,,,,1,,,,,,,,,,,,1,1,,,,,,,,,,,,,,,,,,,,,,,,,,,,,,
ALPHA Behavioral Health Center ,1218 East Boulevard ,Chesterfield,SC,29709,,Chesterfield,843-623-7062,,,,http://www.alphabehavioralhealthcenter.org,34.7306918,-80.0457335,SA,1,,,,,,,,,,,,,,,,,1,,,,1,1,1,1,1,1,,,1,,,1,,,,,1,,,1,,,,,,,,,,,,1,,1,,,1,,,,,1,1,,1,1,,,1,,,,,1,,,,,1,,1,,1,1,,,1,1,,,,,,,,1,,1,1,1,1,,1,,1,1,1,,1,,1,,,1,1,,,1,,1,,,1,1,,1,1,1,1,,1,1,,1,,,1,,1,,1,1,,,1,1,1,1,,1,,,1,,1,,1,1,1,,,,,,,,,,1,,,,1,,,,1,,,1,,,,,,,,1,,1,1,1,1,,,,,,,,,,,,,,,,,,,,,,,,,,,,
Clear Skye Treatment Center ,104 Willis Street ,Gaffney,SC,29341,,Cherokee,800-792-9030,,864-340-9000,,http://,35.0663525,-81.6621526,SA,1,,,,,1,1,,,1,,,,,,,,,,1,,1,,,1,,,,,1,,,1,,,,,1,,,,,,,,,,,,,,,,,1,,,,,,,,1,,,,,,,,,,,,,,,,,,,,,,,,,,,,,,,,,,,,1,,,,,,,1,,,,,,,1,1,1,1,,,,,,,,,,,,,1,,,,,,1,,,,,,,1,1,,,,,1,,,,1,,1,,,,,,,,,,1,,1,,,1,,,,,,,1,,,,,,,,,,,,,,,1,,,1,,,,,,,,,,,,,,,,,,,,,,,,,,,,
Cherokee County Commission on Alcohol and Drug Abuse,201 West Montgomery Street ,Gaffney,SC,29341,,Cherokee,864-487-2721,,,,http://www.cherokeerecovery.com,35.071333,-81.6535494,SA,1,,,,,,,,,,,,,,,,1,1,,,,1,1,1,1,1,1,1,,,,,1,,,,,,,1,1,,,,,,,,,,1,,1,,1,,,1,,,,,1,1,,1,1,1,,1,,,1,,1,,,,,1,1,1,1,1,1,1,1,,1,1,,,,,,,1,,1,1,1,1,,1,1,1,1,1,,1,,1,,,1,1,,,1,,1,,,,1,,,1,1,1,,1,,,1,1,,1,,,,1,1,,,,1,1,1,,,,,1,,,,1,1,1,,,,,,,,,,,,,,1,1,,1,1,,,1,1,,,,,,,,,1,1,1,,,,,,,,,,,,,,,,,,,,,,,,,,,,,
Palmetto Carolina Treatment Center ,325 Inglesby Parkway Unit F,Duncan,SC,29334,,Spartanburg,864-433-8443,,,,http://carolinatreatmentcenters.com,34.912394,-82.1136047,SA,1,,1,1,,1,1,,,1,,,1,,,,,,,1,1,1,,,1,1,1,,1,,,,1,,,,,1,,,,,,,,,,,,,,,1,1,1,,,1,,,,,1,1,1,,,,,1,,,,,,,,,,,,,,,,,,,,,,,,,,,,,1,1,1,1,1,1,1,1,1,1,,1,,,1,1,1,1,1,1,,,1,,,,1,,,1,1,1,,,,1,1,1,1,,,,,,1,,1,1,,1,1,1,,1,1,1,,1,,,,1,,,1,1,1,1,,,1,,,,,,,,1,,,,,,,,,,1,,,,1,1,,,,,,,,,,,,,,,,,,,,,,,,,,,,,,
BHG XXXVIII LLC BHG Spartanburg Treatment Center,239 Access Road ,Spartanburg,SC,29303,,Spartanburg,864-503-0207,,,,http://,34.9960107,-81.9832665,SA,1,,,,,1,1,,,1,,,,,,,,,,1,,1,,1,1,1,,,1,,,,1,,,,,1,,,,,,,,,,,,,,,,,1,,1,,,,,,1,1,1,1,,,,1,,,,,1,1,1,,1,1,1,,1,1,1,1,1,1,1,1,,,,,,,,,1,1,,,,1,,1,,,,1,,,1,1,1,1,,,,,1,,,,1,,,1,1,1,,,,,1,1,1,,,,,1,1,,1,,,1,,,,1,1,,,,,,,,,,,1,1,1,,,1,,,,,,,1,,,,,,,,,,,,1,1,,1,1,,1,,,,,,,,,,,,,,,,,,,,,,,,,,,,
New Life Center Commission on Alc and Other Drug Abuse Services,651 Grays Highway ,Ridgeland,SC,29936,,Jasper,843-726-5996,,,,http://newlifecenteradc.org,32.49202664,-80.9866941,SA,1,,,,,,,,,,,,,,,,,1,,,,1,,,1,1,1,1,,,,,1,,,,,,,,1,,,,,,,,,1,,,1,,1,,,1,,,,,1,1,,1,,,,1,1,1,,1,1,1,1,,,1,1,1,1,1,1,1,,,,1,,,,,,,1,,1,1,1,,1,1,,1,,,,1,,1,,,1,1,,,1,,1,,,,,,,1,1,1,,,1,,1,,,1,,,,1,1,,,,,1,,,,,,1,,,,,1,1,,,,,,,,,,,,,,1,,,,1,,,1,1,,,,,,1,1,,1,1,,,,,,,,,,,,,,,,,,,,,,,,,,,,,,
Crossroads Treatment Center Charleston,2470 Mall Drive Suites B- D,Charleston,SC,29406,,Charleston,843-207-4721,,,,http://Crosstreatmentcenters.com,32.8757802,-80.0137771,SA,1,,1,,,1,,,,1,,,1,,,,,,,1,1,1,,1,1,1,,,,1,,,1,,,,,1,,,,,,,,,,,,,,,1,,,,,1,,,,,1,1,1,,1,,,1,,,1,,,,,,,,,,,,,,,,,,,,,,,,,,1,,,,,,,1,,,,1,,,1,1,1,1,1,1,,,1,,,,1,,,1,1,1,,,,,1,,,,,,,,1,,,,1,1,,,,1,1,,,,,,,,,,1,1,1,1,,,1,,,,,,,1,,,,,,,,,,,,,1,,1,1,,,,,,,,,,,,,,,,,,,,,,,,,,,,,,
Carolina Center for Behavioral Health ,2700 East Phillips Road ,Greer,SC,29650,,Greenville,864-235-2335,,,,http://www.thecarolinacenter.com,34.86951,-82.227765,SA,1,1,,,,,,,,1,,,,,,1,,,,,,1,1,,1,1,1,,1,,1,,1,,,,,1,1,1,,1,1,,,1,,,,,,,,,1,1,1,,,,,,1,,1,1,1,1,,,,,1,,1,,,,,,1,,,1,1,,,,,,1,1,1,1,1,1,,,1,1,1,1,1,1,,1,1,1,,1,,1,,,1,1,,,,,1,,,,1,,1,1,1,1,,,,,1,1,1,,,1,1,1,1,1,1,1,1,1,1,1,,1,1,1,,1,1,,1,1,,,,1,1,,,,1,,,1,,,,,1,,,,,,,,,,1,,,,,,,,1,,,,,,,,,,,,,,,,,,,,,,,,,,,
Crossroads Treatment Center of Greenville PC,157 Brozzini Court Suite C,Greenville,SC,29615,,Greenville,864-288-7636,,,800-805-6989,http://www.crossroadstreatmentcenters.com,34.8517094,-82.2558313,SA,1,,1,1,,1,1,,,1,,,1,,,,,,,1,1,1,,1,1,,,,1,,,,1,,,,,1,,,1,,,,,,,,,,,,1,,1,,,1,,,,,1,1,1,,1,,,1,,1,,,,,,,,,,,,,,,,,,,,,,,,,,,1,,,,,,,1,,1,,1,,,1,1,1,1,1,1,,,1,,,,1,,,1,1,1,,,,,,,,,,,,1,1,,,,,1,,,,,1,1,,1,,,1,,,,1,1,1,1,,,1,,,,,,,1,,,,,,,,,,,,,1,,1,,,,,,,,,,,,,,,,,,,,,,,,,,,,,,,
HOPE for Families Recovery Center ,136 Milestone Way ,Greenville,SC,29615,,Greenville,864-906-2395,,,,http://www.hopeforfamiliesrecoverycenter.com,34.8640068,-82.2733872,SA,1,,,,,,,,,,,,,,,,,1,,,,1,,,1,,,,1,,,,1,,,,,,,,1,,,,,,,,,,,,,,1,,,,,,,,1,,,,,,,,,,,,1,,,,,,,1,,1,1,,,,,1,,,,,,,,,,1,1,1,,,,1,,,,1,,,,,1,1,,,,,1,,,,1,,,1,1,1,,,,,,,,1,,,,,1,,,,1,1,,,,,,,,,,1,,,,,,,,,,,1,,,1,,,1,,,1,,,,1,,,,,,,,,1,,,1,,,,,,,,,,,,,,,,,,,,,,,,,,,,
Alternatives Life Improvement Ctr Inc Charleston Office,2114 Cosgrove Avenue ,North Charleston,SC,29405,,Charleston,843-767-4477,,,,http://,32.8551514,-79.9774554,SA,1,,,,,,,,,,,,,,,,,1,,,,1,1,1,1,1,1,1,,,,,1,,,,,,,1,1,,,,,,,,,,,,,,1,,,,,,,,1,,,,1,,,,,,,,1,1,,,,1,1,,,1,1,,1,1,1,1,,,,,,,,,1,1,1,1,,1,1,1,1,1,,1,,,1,1,1,1,,,,,1,,,1,1,,1,1,1,1,,1,1,,1,,,1,,1,1,1,1,,,1,1,1,1,,,,,1,,,,,1,,,,,,,,,,1,,,,,,1,,,1,,,1,,,,,,,,,,,1,,,,,,,,,,,,,,,,,,,,,,,,,,,,,,
Center for Behavioral Health South Carolina Inc,2301 Cosgrove Avenue Suite F,North Charleston,SC,29405,,Charleston,843-529-0700,,,,http://centerforbehavioralhealth.com,32.847943,-79.979535,SA,1,1,1,1,1,1,1,1,,1,1,1,1,,,,,,,,1,1,1,1,1,,1,,1,,,,1,,,,1,1,,1,1,,,,,,,,,,,,1,1,1,,,1,,,,,1,1,1,,,,,,,,,,1,,,,,1,,,1,1,,,,,,,1,,,,,1,,,1,1,,,1,1,1,1,1,1,,1,,,1,1,1,1,,,,,1,1,,,1,,,1,1,1,,1,1,1,1,1,1,,,,,1,1,1,1,1,1,1,1,1,,1,1,1,,1,,,1,1,,1,1,1,1,,,,1,,,,,,,,,,1,,,,,,,,,,1,,1,1,,,1,,,,,,,,,,,,,,,,,,,,,,,,,,,
Phoenix Center Detoxification Unit,130 Industrial Drive Suite 130,Greenville,SC,29607,,Greenville,864-467-3770,,,,http://www.phoenixcenter.org,34.8373165,-82.3501461,SA,,1,,,,,,,,,,,,,,,,1,,,,1,,,1,1,,1,,,1,1,,,,1,,,,,,1,,,,,,,,1,,,1,,1,,,1,,,,,1,1,,1,1,,,1,1,1,1,,,,,,,,,,,,,,,,,,,1,1,,,1,,,1,1,,,1,,,1,,1,,1,,,1,1,1,1,,,,,,,,,1,,,1,1,1,,,,,1,1,1,1,,,,,1,,1,1,,,,,1,1,1,,,1,,1,,,,,,,,,,,,,,,1,,,,,1,,1,,,,,,,,,,,,1,,,1,,,,,,,,,,,,,,,,,,,,,,,,,,,
Greenville Metro Treatment Center Metro Treatment of South Carolina LP,602 Airport Road Suite C,Greenville,SC,29607,,Greenville,864-234-7952 x15505,Intakes,864-234-7952,877-284-7074,http://www.newseason.com/,34.8441429,-82.3444683,SA,1,,1,1,,1,1,,,1,,,1,,,,,,,1,1,,,,1,,,,1,,,,1,,,,,1,,,,,,,,,,,,,,,1,,1,,,1,,,,,1,1,,,,,,,,,,,,,,,,,,,,,,,,,,,,,,,,,,,1,1,,,,1,,1,,,,1,,,1,1,1,1,1,1,,,1,,,,1,,,1,1,1,,,,1,1,1,,,,,,1,1,,,,,1,1,,,1,1,1,,1,,1,,,,,1,1,1,,,,1,,,,,,,1,,,,,,,,,,,,,1,,1,1,1,,,,,,,,,,,,,,,,,,,,,,,,,,,,,
Palmetto Lowcountry Behavioral Hlth ,2777 Speissegger Drive ,North Charleston,SC,29405,,Charleston,843-747-5830,,,877-947-3223,http://www.palmettobehavioralhealth.com,32.839278,-79.974371,SA,1,1,,,,,,,,1,1,,,,,,,1,,,,1,,,1,1,,1,,,1,,1,,,,,,1,1,,1,1,,,1,,,,,,,,,1,1,1,,,,,,1,1,1,1,1,1,,,,,1,,,,1,1,1,,1,,,1,1,,,,,1,1,1,1,1,1,1,,,1,1,,,1,1,1,1,1,1,,1,,1,,,1,1,,,,,1,1,,,1,,1,1,1,1,1,,,,,,1,,,1,1,1,1,1,1,1,1,1,1,1,,,1,1,,,1,,1,1,,1,,1,1,1,1,,1,,,1,,,1,,,1,1,,,1,,,,,1,,,,,1,,,1,,,,,,,,,,,,,,,,,,,,,,,,,,,
Phoenix Center Adult Outpatient Services,1400 Cleveland Street ,Greenville,SC,29607,,Greenville,864-467-3790,,,864-467-3794,http://www.phoenixcenter.org,34.8222,-82.374385,SA,1,,,,,1,1,,,1,1,1,,,,,,,,,,1,,1,1,1,1,,1,,,,1,,,,,1,,1,1,,,,,,,,,1,,,1,,,,,1,,,,,1,1,,1,1,,,1,1,1,1,1,,,,,,1,,,,1,1,,,,,,,,,,,,1,,1,1,1,,1,1,,1,,1,,1,,1,,,1,1,,,1,,,,,,1,,,1,1,1,,,1,,1,1,1,1,,,,1,1,1,1,1,,1,,,1,1,1,,,1,,,,,,1,,1,1,1,1,,,,,,,,,,,1,1,1,,,,,,,,,1,,,1,,,,,,,,,,,,,,,,,,,,,,,,,,,,,,
Pavillon Greenville Outpatient Services,1011 East Washington Street ,Greenville,SC,29601,,Greenville,864-241-6688,,,828-694-2300,http://www.pavillon.org,34.868169,-82.348753,SA,1,,,,,,,,1,,1,1,,,,,,,,,,1,1,1,1,1,1,,1,,,,1,,,,,1,,1,1,,,,,,,,,,,,1,,1,,,1,,,,,1,,,,1,,,,,,,,1,,,,,,,,,1,1,,,,,1,1,,,,,,,,1,1,1,1,1,1,,1,1,,,1,,,1,1,1,1,,,,,1,1,,1,1,,1,1,1,1,1,,,,,,,1,,1,1,1,1,,,1,1,1,1,,,,,1,,1,1,1,1,1,,1,,,,,1,,,1,,1,,,,,,1,1,,,1,,,,1,1,,,,1,1,1,,,,,,,,,,,,,,,,,,,,,,,,,,,,,
Solutions Recovery Center ,520 Lowndes Hill Road ,Greenville,SC,29607,,Greenville,888-819-4214,,,864-567-7010,http://www.solutionsrecoverycenter.com,34.8530507,-82.3687284,SA,1,,,,,,,,,,,,,1,,,,1,,,,1,,,1,1,,,1,,,,1,,,,,,1,1,1,,,,,,,,,,,,1,,1,,,1,1,,,,1,,,,1,,,,1,,,1,1,,1,1,1,1,1,,,1,1,1,1,1,1,1,,,,,,,1,1,1,1,1,1,1,1,1,1,1,,,1,,,1,1,1,1,,,,,1,,,1,1,,,1,1,1,,1,,1,1,1,,1,,1,,1,1,,,1,1,1,1,,1,,,1,,1,,1,1,1,,,,,,,,,,1,,,,1,,,,1,,,1,,,,,,,1,,,1,1,1,1,,1,,,,,,,1,,,,,,,1,,,,1,,,,,1,,,
Phoenix Center Serenity Place/Womens Residential,6 Dunean Street ,Greenville,SC,29602,,Greenville,864-467-3881,,,,http://www.phoenixcenter.org,34.828785,-82.424372,SA,1,,,,,,,,,,,,,,,,,1,,,,1,,,1,1,1,,1,,,1,,1,1,,,,,,,,,,,,,,,1,,,1,,1,,,1,,,,,1,1,,,1,,,1,1,1,1,,,,,,,,,,,1,,,,,,,,,,,,,1,,1,1,1,1,1,,1,1,1,,,1,1,,1,1,1,,,,,,1,,,,1,1,,1,1,1,,,,1,1,1,1,1,,1,,,1,1,1,1,1,1,1,1,1,1,1,1,,1,,1,1,1,,,,,,,,,,,,,1,,,,,1,,1,,,,,,,,,,,,1,,,,,,,,,,,,,,,,,,,,,,,,,,,,,,
Addcare Counseling Inc ,413 Vardry Street Suite 7,Greenville,SC,29601,3331,Greenville,864-467-1319,,864-467-1319 x1,,http://www.addcarecounseling.com,34.8412398,-82.4108609,SA,1,,,,,,,,,,,,,,,,,1,,,,1,1,,1,1,1,,1,,,,1,,,,,,,1,1,,,,,,,,,,,,,,1,,,,,,,,1,,,,,,,,,,,,1,,,,,1,,,,,,,1,,1,,,,,,,,,,1,1,1,1,,1,1,1,1,1,,1,,1,,,1,1,,,,,1,,,1,,,,1,1,1,,1,,,,,,1,,1,,,1,,,,1,1,1,,,,,1,,1,,,,,,,,,,,,,1,,,1,,,1,,,1,,,,1,,,,,,,,,,,,,,,,,,,,,,,,,,,,,,,,,,,,,,,,
Southwest Carolina Trt Ctr LLC ,341 West Beltline Boulevard ,Anderson,SC,29625,,Anderson,864-222-9798,,,864-222-8419,http://carolinatreatmentcenters.com,34.547415,-82.6763168,SA,1,,1,1,,1,1,,,1,,,1,,,,,,,1,1,1,1,1,1,1,1,,1,,,,1,,,,,1,,,1,,,,,,,,,,,,1,,1,,,1,,,,,1,1,1,,,,,1,,,,,,,,,,,,,1,1,1,,,,,,,,,,,,,,1,1,1,,1,1,1,1,1,,,1,,,1,1,1,1,1,1,,,,,,,1,,,1,1,1,,,,,1,1,,,,,,1,1,,,1,,1,,1,,1,1,1,,,,,,,,,1,1,1,1,,,1,,,,,,,1,,,,,,,,,,,1,,1,,1,1,,,,,,,,,,,,,,,,,,,,,,,,,,,,,,
Anderson/Oconee Behavioral Health Services,226 McGee Road ,Anderson,SC,29625,,Anderson,864-260-4168,,,,http://www.aobhs.org,34.5346246,-82.6869459,SA,1,,,,,,,,1,,1,1,,,,,,,,,,1,1,1,1,1,1,1,,,,,1,,,,,1,,1,1,,,,,,,,,1,,,1,,1,,,1,,,,,1,1,,1,1,,,1,,,,1,1,,,,,1,,1,1,1,1,,1,,,1,,,,,,,1,,1,1,1,1,1,1,1,1,1,1,,1,,,,,1,1,,,1,,1,,,1,1,1,,1,1,1,,1,1,,1,1,1,1,,,,1,1,,,1,1,1,1,,1,,1,1,,,,1,1,,,1,,,,,1,,,,,,,,,,,,1,,,,,,,,,,,,1,1,,,,,,,,,,,,,,,,,,,,,,,,,,,,,,
Miracle Hill Overcomers Center,1916 North Pleasantburg Drive ,Greenville,SC,29609,4036,Greenville,864-631-0088,,,,http://www.miraclehill.org/,34.8866171,-82.3697259,SA,1,,,,,,,,,,,,,1,,,1,,,,,1,,,1,,,1,,,,1,,,1,,,,,,,,,,,,,,,,,,,,,,,,,,,1,,,,,,,,,,1,,,,,,,,,,,,,1,,,,,,,,,,,,1,1,1,,,1,1,1,1,1,1,,,1,,,1,1,,1,,,,,1,,,1,1,,,,1,1,,,,1,,,,,,1,,1,1,,,1,1,1,,,1,,,1,,,,1,1,,,,,,,,,,,1,,,,,,,1,,,,,,,,,,,,,,,1,,,,1,,,,,,,,,,,,,,,,,,,,,,,,,,
Beaufort County Alcohol and Drug Abuse Department,1905 Duke Street Suite 270,Beaufort,SC,29902,,Beaufort,843-255-6000,,,,http://www.bcgov.net,32.4373625,-80.6833621,SA,1,,,,,,,,,,,,,,,,,1,,,,1,,1,1,1,,1,,,,,1,,,,,,,1,1,,,,,,,,,,1,,1,,1,,,1,,,,,1,1,,,1,,,1,,,1,1,,,,,,1,,1,,,,,,,,1,,,,,,,1,,1,1,1,,1,1,,1,,,,1,,,,,1,1,,,1,,1,,,,1,,,1,1,1,,,,,1,,,1,,,,1,1,,,,1,1,,,,,,1,,,,1,1,1,,,,,,,,,,,,,,1,,,,1,,,1,,,,,,,,,,1,1,,,,,,,,,,,,,,,,,,,,,,,,,,,,,,
Miracle Hill Renewal Center,19 Graves Drive ,Greenville,SC,29609,,Greenville,864-242-2166 x7433,,864-242-2166,,http://www.miraclehill.org/,34.8816064,-82.3881971,SA,1,,,,,,,,,,,,,,1,,,,,,,1,,,1,1,,1,,,,1,,,1,,,,,,,,,,,,,,,,,,,,,,,1,,,,1,,,,,,,,,,1,,,,,,,,,,,,1,,,,,,,,,,,,,,,1,,1,,1,1,,,,,,1,,,1,1,1,,,,,,,,,,1,,,1,1,1,,1,,1,,,,1,,,,1,1,,,,1,1,1,,1,,,1,,,,1,1,,,,,,,,,,,1,,,,,,,1,,,,,,,,,,,,1,,,1,,,,,,,,,,,,,,,,,,,,,,,,,,,,,,
Ralph H Johnson VA Medical Center Substance Trt and Recovery (STAR),109 Bee Street ,Charleston,SC,29401,,Charleston,843-789-7311,,,,http://www.charleston.va.gov,32.7841197,-79.9540689,SA,1,1,,,,1,,,1,1,1,1,,,,1,,,,,,1,1,1,1,1,,,1,,1,,1,,,,1,1,,1,1,1,,,1,,1,,,,,,,,,,1,,,,,,,1,,,1,1,,1,,,,,,,1,,,,,,,1,,,,,,,1,1,1,1,1,1,1,1,1,1,1,1,1,1,1,1,1,,,1,,,1,1,1,1,,,,,1,1,1,1,1,,1,1,1,1,1,1,1,1,1,1,1,1,,1,1,1,1,1,1,1,1,1,1,1,1,1,1,1,,1,1,1,1,1,,1,,1,1,1,1,1,,,1,1,,,,,,,1,,,,1,1,1,1,1,,,,1,1,1,,1,1,1,1,,,,,,,,,,,,,,,,,,,,,,,,
Charleston Center of Charleston Cnty ,5 Charleston Center Drive ,Charleston,SC,29401,,Charleston,843-958-3300,,843-722-0100,,http://www.charlestoncounty.org,32.7820813,-79.9527373,SA,1,1,1,1,1,1,1,1,1,1,1,1,1,,,,,,,,1,1,,1,1,1,1,,1,,1,1,1,1,,1,1,1,,1,1,1,1,,,,,,,,1,,1,,1,,,1,,,,,1,1,,1,1,,,1,,,1,1,1,,,,,1,,1,1,1,,1,1,,,,,1,1,,,1,1,,1,1,1,1,1,1,,1,1,1,,1,1,,,,1,1,,,1,,1,,,,1,1,1,1,1,1,1,1,1,,1,1,1,1,,1,1,1,1,,1,1,1,1,1,,1,1,1,1,,1,1,1,1,1,,1,1,1,1,1,,1,,,,1,,,,,,,1,,,,,,,,,,,,1,1,,,1,,1,,,,,,,,,,,,,,,,,,,,,,,,,
Lighthouse Care and Counseling ,6257 White Horse Road ,Greenville,SC,29611,,Greenville,864-283-0745,,,,http://lighthousecareandcounseling.com,34.859856,-82.462242,SA,1,,,,,1,1,,,1,,,,,,,,,,,,1,,,1,,,,1,,,,1,,,,,1,,,1,,,,,,,,,,,,1,,,,,,,,,,1,,,,1,,,,,,,,,,,,,1,,,,1,1,,,,,,1,,,,,,,,1,,1,1,,1,,,,,,1,,,1,1,1,1,,,,,1,1,,,,,,1,1,1,,,,,,1,,,,,,1,1,1,1,,,1,,,,,1,1,,1,,,1,1,,,,1,1,1,,1,1,,,,,,,,,,1,,,,,,,,1,,,,1,1,1,1,,,,,,,,,,,,,,,,,,,,,,,,,,,,
Smith Family MD ,990 Lake Hunter Circle Suite 101-B,Mount Pleasant,SC,29464,,Charleston,843-972-8136,,,,http://smithfamilymd.com,32.8152841,-79.8635678,SA,1,1,,,,1,1,1,1,1,1,1,,,,,,1,,,,1,1,1,1,,,1,,,,,1,,,,1,1,,,1,,,,,,,,,,,,,,,,,,,,,,1,1,1,1,1,1,,,,,,,,,,,,,,,,,,,,,,,1,1,1,1,1,1,,,1,,,,1,1,,,,,,1,,,,,1,1,,,,,1,,1,,1,,1,1,1,,,,,,,1,1,,1,,1,,1,1,1,,1,1,,1,,,1,,,,1,,1,1,,1,,1,1,1,1,1,1,,,1,,,1,,,,1,,,,1,,,,1,,,1,,,,,1,,,,,,,,,,,,,,,,,,,,,,,,,,,
Mount Pleasant Hospital Park West Family Practice,"3510 Highway 17 North Medical Office Building, Suite 320",Mount Pleasant,SC,29466,,Charleston,843-971-3361,,,,http://,32.8781097,-79.7681281,SA,1,1,,,,1,1,1,1,1,1,1,,,,,,1,,,,1,1,1,1,,,1,,,,,1,,,,1,1,,,1,,,,,,,,,,,,,,,,,,,,,,1,1,1,1,1,1,,,,,,,,,,,,,,,,,,,,,,,1,1,1,1,1,1,,,1,,,,1,1,,,,,,1,,,,,1,1,,,,,1,,1,,1,,1,1,1,,,,,,,1,1,,1,,1,,1,1,1,,1,1,,1,,,1,,,,1,,1,1,,1,,1,1,1,1,1,1,,,1,,,1,,,,1,,,,1,,,,1,,,1,,,,,1,,,,,,,,,,,,,,,,,,,,,,,,,,,
Recovery Concepts LLC ,124A Boardwalk Drive ,Ridgeland,SC,29936,,Jasper,843-645-2770,,,843-288-1914,http://www.recoveryconceptsllc.com,32.3351477,-80.9379271,SA,1,1,1,1,1,1,1,1,,1,,,1,,,,,,,1,1,1,1,,1,1,1,,1,,,,1,,,,1,1,,,1,,,,,,,,,,,,1,1,1,,,1,,,,,1,1,,,,,,1,,,,,1,1,1,1,1,1,1,,1,1,1,1,1,1,1,1,,,,,,1,,,1,1,1,1,,1,1,1,1,,,1,,,1,1,1,1,1,1,,,1,,,,1,,,1,1,1,,1,1,,1,1,1,1,,,,1,1,1,1,,1,1,1,,,1,1,1,,1,,,,,,,1,,1,1,,,1,,,1,,,,1,,,,,,,,,,,,,1,,1,1,1,,,,,,,,,,,,,,,,,,,,,,,,,,,,,
Lantana Recovery ,1470 Ben Sawyer Boulevard Suite 6,Mount Pleasant,SC,29464,,Charleston,843-352-9982,,,,http://www.lantanarecovery.com/,32.790148,-79.8519068,SA,1,,,,,1,1,,1,1,1,1,,1,,1,,1,,,,1,1,1,1,1,,,1,,,,1,,,,,1,,1,1,,,,,,,,,,,,,,1,,1,,,,,,1,,,,1,1,,,,,,,,,,,,,,,,,,,,,,,1,,,,,,,,1,1,1,,,1,1,1,,,,1,,1,,,1,1,,,,,1,1,,,1,,1,1,1,1,1,,,,,,,,,1,1,1,1,,,1,1,1,1,,,,,1,,,1,1,1,1,,1,,1,,1,1,1,1,,,,,1,1,,,,1,,,,,,,,,,1,,1,1,,,,,,,,,,,,,,,,,,,,,,,,,,,,,,
Phoenix Center White Horse Academy,975 Foot Hills Road ,Greenville,SC,29617,,Greenville,864-371-1280,,,864-371-1265,http://www.phoenixcenter.org,34.943012,-82.44411,SA,1,,,,,,,,,,,,,,,,1,,,,,1,1,,1,1,1,1,,,,1,1,,1,,,,,1,1,,,,,,,,,1,,,1,,,,,1,,,,,1,1,,1,1,,,1,1,1,1,,,,,,,,,1,,,,,,,,,,,,,,,,,1,1,1,,1,1,,1,1,1,,1,,1,1,1,1,1,,,,,,,,,,,1,1,1,1,,,1,1,1,1,1,1,,1,,,1,,,1,1,1,1,1,1,1,1,1,,1,,1,1,,,,,,,,,,,,,,,,,1,,,,,,,,,,,,,,,,1,,,,,,,,,,,,,,,,,,,,,,,,,,,,,,
Recovery Concepts of Carolina Upstate ,1653 East Main Street ,Easley,SC,29640,,Pickens,864-306-8533 x209,,864-306-8533,,http://www.recoveryconcepts.us,34.8293693,-82.5735751,SA,1,,1,1,,1,1,,,1,,,1,,,,,,,1,1,1,1,,1,1,1,,1,,,,1,,,,,1,,,1,,,,,,,,,,,,1,,1,,,1,,,,,1,1,,,,,,1,,,,,1,,,,,,,,1,,,,,,,,,,,,,,,,1,1,1,1,1,1,1,1,1,,,1,,,1,1,1,1,1,1,,,1,,,,1,,,1,1,1,,1,1,1,1,1,1,1,,1,1,1,1,1,1,1,,1,1,1,1,1,1,1,,1,,1,,,,,1,1,1,1,,,1,,,1,,,,1,,,,,,,,,,,,,1,,1,1,,,,,,,,,,,,,,,,,,,,,,,,,,,,,,
Home With a Heart ,220 James Mattison Road ,Liberty,SC,29657,,Pickens,864-843-3058,,,877-843-3058,http://homewithaheart.com,34.7219846,-82.6854673,SA,1,,,,,,,,,,,,,,,,1,,,,,,,,,,,1,,,,1,,,1,,,,,,,,,,,,,,,,,,,,1,,,,,,,1,,,,,,,,,,1,,,,,1,,,,1,,,,1,,1,,,1,,,,,,,,,1,1,1,1,1,,,,1,,,1,,,1,1,,1,,,,,1,,,,1,,,1,1,1,,,,1,,,,,,,,1,1,,,1,,1,,,,,,,,,,,,,,,,,,,,,,1,,,,,,,1,1,,,,1,,,,,,,,,,1,,,,,,,,,,,,,,,,,,,,,,,,,,,,,,
Hardeeville Healthcare ,16 Main Street ,Hardeeville,SC,29927,,Jasper,843-784-3232,,,,https://hardeevillehealthcare.business.site/,32.2864334,-81.0803623,SA,1,,,,,1,1,,,1,,,,,,1,,,,,,,,,,,,,,1,,,1,,,,,1,,,1,,,,,,,,,,,,,,,,,,,,,,1,,,,,,,,,,,,,,,,,,,,,,,,,,,,1,,,,,,,,,,,,,,,,,,,,,,,,1,1,,,,,,,,,,,,1,1,,,,,,,,1,,,,,,,1,1,,1,1,,1,,,1,,,,,,1,,,,,1,1,1,,,1,,,1,,,,1,,,,,,,,1,1,,,,,1,,,,,,,,,,,,,,,,,,,,,,,,,,,,,,,,
Trinity Behavioral Care ,424 Guyton Court ,Mullins,SC,29574,,Marion,843-423-8292,,,843-423-8294,http://www.trinitybehavioralcare.org/,34.1787604,-79.3409955,SA,1,,,,,1,1,,1,1,1,1,,,,,,1,,,,1,,1,1,1,1,1,,,,,1,,,,,1,,1,1,,,,,,,,,,1,,1,,1,,,1,,,,,1,1,,1,1,1,,1,,1,1,,1,,,,,1,,1,1,1,1,1,1,1,1,,1,,,,,,1,,1,1,1,1,1,1,1,1,1,1,,1,,1,,,1,1,,,1,,1,,,1,1,,,1,1,1,,1,1,,1,1,1,1,,1,,1,1,1,1,1,1,1,1,1,1,1,1,1,,1,1,1,1,1,,1,,1,1,1,1,,,,,,,1,1,,,1,1,,1,,,,,,,1,,,1,1,1,1,,,1,1,,,,,,,,,,,,,,,,,,,,,,,,
Trinity Behavioral Care ,204 Martin Luther King Jr Boulevard ,Dillon,SC,29536,,Dillon,843-774-6591,,,843-774-9587,http://www.trinitybehavioralcare.org/,34.4196208,-79.3734761,SA,1,,,,,1,1,,,1,1,1,,,,,,1,,,,1,,1,1,1,1,1,,,,,1,,,,,1,,1,1,,,,,,,,,,1,,1,,1,,,1,,,,,1,1,,1,1,1,,1,,1,1,,1,,,,,1,,1,1,1,1,1,1,1,1,,,,,,,,1,,1,1,1,1,1,1,1,1,1,1,,1,,1,,,1,1,,,1,,1,,,1,1,,1,1,1,1,,1,1,,1,1,1,1,,1,,1,1,,,1,1,1,1,,1,1,1,1,,1,1,1,1,1,,1,,1,1,1,,,,,,,,1,1,,,1,1,,1,1,,,,,,1,,,1,1,1,,,,,,,,,,,,,,,,,,,,,,,,,,,,,
Beaufort County Alcohol and Drug Abuse Department,"Beaufort County Govt Center Bluffton 4819 Bluffton Parkway, Suite 303",Bluffton,SC,29910,,Beaufort,843-255-6020,,,,http://www.bcgov.net,32.2497945,-80.8533037,SA,1,,,,,,,,,,,,,,,,,1,,,,1,,1,1,1,,1,,,,,1,,,,,1,1,1,1,,,,,,,,,,1,,1,,1,,,1,,,,,1,1,,1,1,,,1,,,1,1,,,,,,1,,1,,,,,,,,1,,,,,,,1,,1,1,1,,1,1,,1,,,,1,,,,,1,1,,,1,,1,,,,1,,,1,1,1,,,,,1,,,1,,,,1,1,,,,1,1,,,,,,1,,,,1,1,1,,,,,,,,,,,,,,1,,,,1,,,1,,,,,,,,,,1,1,,,,,,,,,,,,,,,,,,,,,,,,,,,,,,
Georgetown County Alcohol and Drug Abuse Commission,1423 Winyah Street ,Georgetown,SC,29440,,Georgetown,843-546-6081,Intakes,843-546-6081 x19,843-546-6081 x10,http://gcadac.net,33.3703275,-79.2924809,SA,1,,,,,,,,,,,,,,,,,1,,,,1,,1,1,1,1,1,,,,,1,,,,,,,1,1,,,,,,,,,,1,,1,,1,,,1,,,,,1,1,,1,1,,,1,,,1,,,,,,,,,1,,,,,,,,,,,,,,,1,,1,1,1,1,,1,,1,,1,,1,,1,,,1,1,,,1,,1,,,,1,,,1,1,1,,1,1,,1,1,1,1,,,,1,1,,,,1,1,1,,,,,1,,1,,,1,1,,,,,,,,,,,,,,1,,,,1,,,1,,,,,,,,1,,1,1,,,,,,,,,,,,,,,,,,,,,,,,,,,,,,
Behavioral Health Services of Pickens County,309 East Main Street ,Pickens,SC,29671,,Pickens,864-898-5800,,,,http://www.bhspickens.com,34.8843046,-82.7064279,SA,1,,,,,,1,,1,1,1,1,,,,,,,,,,1,1,1,1,1,1,1,,,,,1,,,,,1,,1,1,,,,,,,,,,,,1,,1,,,1,,,,,1,1,,1,1,1,,1,1,1,1,,1,,,,,1,,1,,1,1,,1,1,1,1,,,,,,,1,1,1,1,1,1,1,1,1,1,1,1,,1,,1,,,1,1,,,1,,1,,,1,1,1,,1,1,1,,1,1,1,1,1,1,1,1,1,,1,1,1,1,1,1,1,1,1,1,1,1,1,,1,,1,1,1,,1,,1,1,1,1,1,,1,,,,,,,,,1,,,,,,,,,,,,1,1,,,,,,,,,,,,,,,,,,,,,,,,,,,,,,
BriteLife Recovery ,2200 Main Street ,Hilton Head Island,SC,29926,,Beaufort,843-869-8040,,888-224-7424,,http://briteliferecovery.com,32.215034,-80.725228,SA,1,1,,,,1,1,1,1,1,1,1,,,,1,,,,,,1,1,1,1,1,1,,1,,,1,,1,1,1,,,,,,,,,,,,,,,,,1,,,,,,,,,,1,,,1,1,1,,,,,,,1,1,1,1,1,1,1,,1,1,1,1,1,1,1,1,1,1,1,1,1,1,1,,1,1,1,1,1,1,1,1,1,1,,1,,,1,1,1,1,,,,,1,1,1,1,1,,,1,1,1,1,1,1,1,1,1,1,1,,1,1,1,1,1,1,1,1,1,1,1,1,1,1,1,,1,,1,1,1,1,1,,1,1,1,1,1,1,,,,,,,,,,1,,,,1,1,1,1,1,1,1,,1,1,1,1,1,,,,,,,,,,,,,,,,,,,,,,,,,,,
Anderson/Oconee Behavioral Health Services,691 South Oak Street ,Seneca,SC,29678,,Oconee,864-882-7563,,,,http://www.aobhs.org,34.67524142,-82.95518147,SA,1,,,,,,,,1,,1,1,,,,,,,,,,1,1,1,1,1,1,1,,,,,1,,,,,,,1,1,,,,,,,,,1,,,1,,1,,,1,,,,,1,1,,1,1,1,,1,,,1,1,1,,,,,,,,,,,,1,,,,,,,,,,1,,1,1,,,1,1,1,1,1,1,,1,,,,,1,1,,,1,,1,,,1,1,,,1,1,1,,1,,,1,,1,1,,,,1,1,,,1,1,1,1,,,,1,1,,,,1,1,,,1,,,,,1,,,,,,,,,,,,1,,,,,,,,,,,,1,1,,,,,,,,,,,,,,,,,,,,,,,,,,,,,,
Crossroads Treatment Centers of Seneca ,209 Oconee Square Drive ,Seneca,SC,29678,,Oconee,864-888-2337,,,800-805-6989,http://www.crossroadstreatmentcenters.com,34.69089845,-82.98110962,SA,1,,1,1,,1,1,,,1,,1,1,,,,,,,1,1,1,,,1,,,,,1,,,1,,,,,1,,,,,,,,,,,,,,,1,,,,,1,,,,,1,1,1,,1,,,1,,1,,,,,,,,,,,1,,,,,,,,,,,,,,,,1,,,,,,,1,,1,,1,,,1,1,1,1,1,1,,,1,,,,1,,,,1,1,,,,,1,,,,,,,,1,,,,,1,,,,,1,1,,,,,,,,1,1,1,1,1,,,1,,,,,,,1,,,,,,,,,,,,,1,,1,,,,,,,,,,,,,,,,,,,,,,,,,,,,,,,
Shoreline Behavioral Health Services Womens Recovery Center,901 Bell Street ,Conway,SC,29526,,Horry,843-488-1300,,,843-365-8884,http://www.shorelinebhs.com,33.8385211,-79.0593561,SA,1,,,,,,,,,,,,,,,,,1,,,,1,1,,1,1,,,1,,,1,,1,1,,,,,,,,,,,,,,,,1,,1,,1,,,1,,,,,1,1,,1,,,,1,,,,,,,,,,,,,1,1,,,1,1,,,,,,,,,,,1,1,1,1,1,,,1,1,,,1,,,1,1,1,,,,,,,,,1,1,,,,1,1,,1,1,,1,1,1,1,,1,,,1,1,1,1,1,1,1,,,1,,1,,1,,1,1,1,,,,,,,,,,,,,,1,,,,1,,,1,,,,,,,,,,1,1,,,,,,,,,,,,,,,,,,,,,,,,,,,,,,
Shoreline Behavioral Health Services ,2404 Wise Road ,Conway,SC,29526,,Horry,843-365-8884 x240,,843-365-8884 x210,,http://www.shorelinebhs.org,33.8991934,-79.0468763,SA,1,,,,,,,,,,,,,,,,,1,,,,1,,1,1,1,,,1,,,,1,,,,,1,,1,1,,,,,,,,,,,,,,1,,,1,,,,,1,1,,1,1,,,1,,1,1,1,1,,,,,1,,1,,1,1,,1,1,1,1,,,,,,,1,,1,1,1,1,,1,,1,1,,,1,,1,,,1,1,,,1,,1,,,1,1,,1,1,1,1,,1,1,1,1,1,1,1,,1,,1,1,1,1,1,1,1,1,1,1,1,1,1,,1,,1,1,1,,,,,,,,,,1,,,,1,,,,1,,,1,,,,,,,,1,,1,1,1,,,1,1,1,,,,,,,,,,,,,,,,,,,,,,,,
Lighthouse Behavioral Health Hospital ,152 Waccamaw Medical Park Drive ,Conway,SC,29526,,Horry,843-347-8871,,,,http://www.lighthousebehavioral.com,33.7877719,-78.998025,SA,1,1,,,,,1,,,1,1,1,,,,1,,,,,,1,,,1,1,,1,,,1,,,,,,,,,,,1,1,,,1,,,,,,,1,1,,,1,,,,,,1,1,1,1,1,,,,,,1,,,,,,,,,,,,,,,,,,,1,1,1,1,1,,,1,1,1,,1,1,1,1,1,1,,1,,1,,,1,1,,,,,,1,,1,1,,1,1,1,1,,,1,,,,1,,,1,1,,1,1,1,1,1,1,1,1,,,1,1,,,1,,1,1,,1,,1,1,1,1,,1,,,1,,,,,,1,,1,,1,1,,,,1,,,1,1,,,,1,,1,1,,,,,,,,,,,,,,,,,,,,,,,,
South Strand Internists ,1945 Glenns Bay Road ,Myrtle Beach,SC,29575,,Horry,843-650-4006,,,,http://southstrandinternists.com,33.6183374,-78.9931995,SA,1,1,,,,1,1,1,1,1,1,1,,,,,,1,,,,,,,1,,,,1,,,,1,,,,1,1,,,1,,,,,,,,,,,,,,,,,,,,,,1,,1,,1,,,,,,,,,,,,,,,,,,,,,,,,1,1,1,1,1,1,1,1,,,,,,1,,,,,,1,,,,,1,1,,,,,1,1,,1,,,,1,1,1,1,,,1,,,1,,,,1,,1,1,1,,1,1,1,1,,,1,1,,1,1,,1,1,1,1,,1,1,1,1,1,1,,,1,,,1,,,,1,,,,1,1,,,1,,,1,1,1,,1,1,,,,,,,,,,,,,,,,,,,,,,,,,,,
Center of HOPE of Myrtle Beach LLC ,104 George Bishop Parkway ,Myrtle Beach,SC,29579,,Horry,843-903-6212,,843-903-6212 x221,,http://www.crossroadstreatmentcenters.com,33.7195497,-78.9316087,SA,1,,1,1,,1,1,,,1,,,1,,,,,1,,1,1,1,1,,1,1,,1,,,,,1,,,,,1,,,,,,,,,,,,,,,1,,,,,1,,,,,1,1,1,1,1,1,,,,,,,1,1,1,1,1,1,1,,1,1,1,1,1,1,1,,,,,,,,,,1,1,,,,,1,1,1,1,,1,,,1,1,1,1,1,1,,,1,,,,1,,,1,1,1,,,,,1,,,,,,,,,,,1,,1,1,,,,1,1,,,,,,,,,1,1,1,1,,,1,,,,1,1,1,1,,,,,,,,,,,,,1,,1,1,,,,,,,,,,,,,,,,,,,,,,,,,,,,,,
Coastal Recovery Center ,1113 44th Avenue North Suite 100,Myrtle Beach,SC,29577,,Horry,843-449-6261,,,,http://www.coastalrecoverycenter.com,33.7280648,-78.863787,SA,1,1,,,,,,,,,,,,,,,1,,,,,,,,1,1,,,1,,,,1,,,,1,,,1,1,,,,,,,,,,,,1,,1,,,,,,,,1,,1,,1,1,,,,,,,,,,,,,,,,,,,,,,,,1,1,1,1,1,1,1,1,1,1,1,1,1,,1,1,,,1,,,1,1,1,1,,,,,1,,,1,1,,1,1,1,1,,,,,,,,1,,1,,,1,,,,,1,1,,,,,1,,,,1,,,,,,,,,,,,1,,1,,,,,1,,,,,,,,,,,,,,,1,,,1,,,,,,,,,,,,,,,,,,,,,,,,,,,