name1,name2,street1,street2,city,state,zip,zip4,county,phone,intake_prompt,intake1,intake2,website,latitude,longitude,type_facility,mh,psy,rtcc,rtca,ores,ph,omh,cmhc,msmh,ipt,cft,gt,cbt,dbt,bmt,idd,tt,at,ect,tele,smon,smpd,smop,hi,res,phdt,op,vamc,sma,osg,lmg,tbg,ih,sf,md,mc,si,pi,mi,smha,swfs,scjj,sef,osf,clf,csbg,cmhg,vaf,cit,wi,ss,pa,ah,sp,co,gl,vet,adm,mf,cj,se,hv,trma,sed,smi,alz,ptsd,tbi,tay,ped,act,icm,cm,cdm,peer,coot,dec,es,fpsy,hs,imr,ipc,lad,nrt,nsc,prs,stu,sps,semp,sh,tpc,tcc,vrs,chld,yad,adlt,snr,itu,pvtp,pvtn,fqhc,vo,sumh,ccbhc,chlor,drope,fluph,halop,loxap,perph,pimoz,proch,thiot,thior,trifl,aripi,asena,brexp,carip,cloza,ilope,luras,olanz,olanzf,palip,queti,rispe,zipra,crt,emdr,kit,tms,peon,peoff,fg,pcf,dv,pefp,hivt,shb,shc,stdt,tbs,aot,ptm,msnh,f17,f19,f25,f28,f30,f31,f35,f36,f37,f4,f42,f43,f47,f66,f67,f70,f81,f92,n13,n18,n23,n24,n40
Lexington County CMHC,Gaston/Swansea Clinic,500 Charlie Rast Road,,Swansea,SC,29160,,Lexington,803-755-2261,Intake,803-996-1500,,http://lexingtonmhc.org,33.7639976,-81.0926684,MH,1,,,,,,,1,,1,1,1,1,1,1,,1,,,,1,,,,,,1,,1,,,,,1,1,1,1,1,1,,,,,,,,1,,1,1,,,1,,1,1,,,,1,,,1,,1,,1,,,,,,1,,,1,,,1,,1,,,,,,,1,,,,,,,1,1,1,,,,,,1,,1,,1,1,1,1,1,1,1,1,1,1,1,1,1,1,1,1,1,,1,1,1,1,,,,,1,1,,,1,1,,,,,,,,,,,,,,,,,,,,,,,,,,,,,,,
Three Rivers Residential Trt Services,,200 Ermine Road,,West Columbia,SC,29170,,Lexington,803-791-9918,Intake,,877-791-9918,http://www.threeriversmidlands.org,33.970426,-81.136899,MH,1,,1,,,,,,,1,1,1,1,1,,1,1,1,,1,1,,,,1,1,,,,,,,,1,1,,,1,1,,,1,,,1,,,,1,,,,,,,,,,,1,,,1,,,,,,,,,,1,,,1,,1,1,,,,,,,1,,,,,,,,1,,,,,1,,,,1,,,,,1,,,,,,,,1,,,,1,1,1,1,1,1,1,1,1,,1,,,1,,,,,,,1,,,,,,,,,,,,,,,,,,,,,,,,,,,,,
Lexington Cnty Comm Mental Health Ctr,Adult Clinic/Emergency Services,301 Palmetto Park Boulevard,,Lexington,SC,29072,,Lexington,803-359-3545,Intake,803-996-1500,,http://lexingtonmhc.org,34.000969,-81.2057503,MH,1,,,,,,,1,,1,1,1,1,1,1,,1,,,1,1,,,,,,1,,1,,,,,1,1,1,1,1,1,,,,,,,,1,,1,1,,,1,,1,1,,,,1,,,1,,1,,1,,,,1,,1,,,1,,,1,,1,,,,,,,1,,,,,,,1,1,1,,,,,,1,,1,,1,1,1,1,1,1,1,1,1,1,1,1,1,1,1,1,1,,1,1,1,1,,,,,1,1,,,1,1,,,,,,,,,,,,,,,,,,,,,,,,,,,,,,,
Lexington Cnty Comm Mental Health Ctr,Child/Adol and Family Services,305 Palmetto Park Boulevard,,Lexington,SC,29072,,Lexington,803-359-7206,Intake,803-996-1500,,http://lexingtonmhc.org,34.0024688,-81.2069986,MH,1,,,,,,,1,,1,1,1,1,1,1,,1,,,1,1,,,,,,1,,1,,,,,1,1,1,1,1,1,1,1,1,1,1,,,1,,1,1,,,1,,1,1,,,,1,,,1,1,,,1,,1,,,1,1,,,1,,,1,,1,,,,,,,1,,,,,,1,1,,,,,,,,1,,1,,1,1,1,1,1,1,1,1,1,1,1,1,1,1,1,1,1,,1,1,1,1,,,,,1,1,,,,1,,,,,,,,,,,,,,,,,,,,,,,,,,,,,,,
Prisma Health Baptist Columbia,Behavioral Care Services,1301 Taylor Street,,Columbia,SC,29220,,Richland,803-296-5010,,,,http://www.prismahealth.org,34.00747,-81.034085,MH,1,1,,,,,,,,1,,1,1,1,1,1,,1,1,1,1,,,1,,1,1,,,,,,,1,1,1,1,1,1,1,1,1,,,1,1,1,1,,,,,1,,1,,,,,,,,,,1,,,,,,1,,1,,,1,1,1,1,,,,,1,1,,1,1,,,,1,,1,1,1,1,,,1,,,1,,1,,1,1,,,,1,,,,1,,,,1,,1,1,,1,1,1,1,,,,,1,,,,,1,1,1,1,1,1,,,,,,,,,,,,,,,,,,,,,,,,,,
University of South Carolina,Psychology Services Center,1331 Elmwood Avenue,Suite 140,Columbia,SC,29201,,Richland,803-777-7302,,,,http://www.psych.sc.edu/psc,34.0148021,-81.036257,MH,1,,,,,,1,,,1,1,1,1,,1,,1,,,,,1,,,,,1,,,1,,,,1,,,,,,,,,,,,,,,,,1,,,,,,,,,,,,,,,,,,,,,,,,,,,,1,,,,,,,,,,,,,,,1,1,1,1,,,,,,,,,,,,,,,,,,,,,,,,,,,,,,,,,,,,,,,,,,,,,,,,,,,,,,,,,,,,,,,,,,,,,,,,
Columbia Area Mental Health Center,Adult Clinic Services,2000 Hampton Street,Suite 3116,Columbia,SC,29204,,Richland,803-898-0123,Intake,803-898-8888,,http://www.scdmh.org,34.0092406,-81.0224976,MH,1,,,,,,,1,,1,1,1,1,,,1,,,,,,1,,,,,1,,1,,,,,1,1,1,1,1,1,1,,1,,1,1,1,1,1,,1,,,,,,,,,,,1,,,,1,,,,,,,1,1,,,1,1,,1,1,,1,,,,,,,,1,,,,,1,1,1,,,,1,,,,,,1,1,,,,,1,,1,1,1,1,1,1,1,1,1,,1,1,1,1,,,,,1,,,,,,,,,,,,,,,,,,,,,,,,,,,,,,,,,,,,
Columbia Area Mental Health Center,Mental Health Court,2715 Colonial Drive,Suite 200-A,Columbia,SC,29203,,Richland,803-898-1555,Intake,803-898-8888,,http://www.state.sc.us/dmh/camhc,34.021781,-81.032365,MH,1,,,,,,,1,,1,1,1,1,1,,,,,,,1,,,,,,1,,1,,,,,1,1,1,1,1,1,1,1,,1,1,1,,1,1,1,,,,1,,1,,,,,1,1,,,,1,,,,,,1,1,1,,,1,,,1,,,,,,,1,,,1,,,,1,,1,1,1,,,,,,1,,,,1,1,,,,,,,,1,,,1,1,1,1,1,1,1,1,1,1,,,,,1,,,,,,,,,,,,,,,,,,,,,,,,,,,,,,,,,,,,
Columbia Area Mental Health Center,Behavioral Therapy Program,2715 Colonial Drive,Suite 200-A,Columbia,SC,29203,,Richland,803-898-4800,Intake,803-898-8888,,http://www.colamhc.org/,34.0236535,-81.0338695,MH,1,,,,,,,1,,1,1,1,1,1,1,1,1,,,,1,,,,,,1,,1,,,,,1,1,1,1,1,1,1,,,,,1,1,1,1,1,1,,,1,1,1,,,,,1,1,,1,,1,,1,,1,1,,1,1,,1,1,1,,1,,,,,,,1,,1,,1,,,,,1,1,1,,,,,,1,,1,,1,1,1,1,1,1,1,1,1,1,1,1,1,1,1,1,1,,1,1,1,1,,1,,,1,1,,,,,,,,,,,,,,,,,,,,,,,,,,,,,,,,,,,
Columbia Area Mental Health Center,Child and Adolescent,2715 Colonial Drive,Suite 100-A,Columbia,SC,29203,,Richland,803-898-4800,Intake,803-898-4777,,http://www.scdmh.org,34.0236535,-81.0338695,MH,1,,,,,,,1,,1,1,1,1,1,1,,1,,,1,1,,,,,,1,,1,,,,,1,1,1,,1,1,1,1,,1,1,1,,1,,1,1,1,,1,,1,1,,,1,1,,,1,1,,,1,,,,,,,,,1,,,1,,,,,,,1,,,,,,,,1,1,,,,,,,,1,,,,1,,,,,,,,,1,,1,,1,1,1,1,1,1,1,1,1,,,,,1,1,,,,,,,,,,,,,,,,,,,,,,,,,,,,,,,,,,,
Columbia Area Mental Health Center,Adult Intensive Services,2715 Colonial Drive,,Columbia,SC,29203,,Richland,803-898-4850,Intake,803-898-8888,,http://www.scdmh.org,34.023921,-81.03422,MH,1,,,,,,,1,,1,1,1,1,1,1,1,1,,,1,,1,,,,,1,,1,,,,,1,1,1,1,1,1,1,1,1,,,1,,1,1,1,1,,,1,1,1,,,,,1,1,,1,,1,,1,,1,,,1,1,,1,1,,,1,,,,,,,1,,1,,,,,,,1,1,1,,,,,,1,,1,,1,1,1,1,1,1,1,1,1,1,1,1,1,1,1,1,1,,1,1,1,1,,1,,,1,1,,,,,,,,,,,,,,,,,,,,,,,,,,,,,,,,,,,
William Jennings Bryan Dorn VAMC,Mental Health,6439 Garners Ferry Road,Suite 116,Columbia,SC,29209,,Richland,803-776-4000 x6823,,,,http://www.columbiasc.va.gov/,33.9753554,-80.959607,MH,1,,,,,,,,,1,1,1,1,1,1,1,1,1,,1,1,,,1,,,1,1,,,,,,1,,,,1,,,,,,,,,,1,1,1,,,,,1,1,1,,,,1,,1,,1,,1,1,,,,1,1,,1,1,1,1,1,1,,1,,1,1,1,1,1,1,1,1,1,1,,1,1,1,,,,,1,1,,,,1,1,,,,,,,,1,,,,1,,1,1,,1,1,1,1,,1,,,1,,,,1,1,,,,,,,,,,,,,,,,,,,,,,,,,,,,,,,
Columbia Area Mental Health Center,Lower Richland Office,1850 Pineview Drive,,Columbia,SC,29209,,Richland,803-783-0303,Intake,803-898-8888,,http://scdmh.org/,33.9504443,-80.9293883,MH,1,,,,,,1,,,1,1,1,1,,,1,1,1,,1,1,,,,,,1,,,1,,,,1,1,1,1,1,1,1,,,,1,1,,,1,1,1,,,,,1,,,,,,1,,,,1,,,,,,,1,1,1,1,1,,,1,,1,1,,,,1,,1,1,,,,,,1,1,1,,,,1,,1,,1,,1,1,,1,,,1,,,1,1,1,1,1,1,1,1,,1,1,1,1,,,,,1,1,,1,,,,,,,,1,,,,,,,,,,,,,,,,,,,,,,,,,
Bryan Psychiatric Hospital Hall Inst,Child and Adolescent Services,220 Faison Drive,,Columbia,SC,29203,,Richland,803-898-1662,,,,http://www.scdmh.org,34.0823923,-80.9960791,MH,1,1,,,,,,,,1,1,1,1,1,1,1,1,1,,,1,,,1,,,,,1,,,,,1,1,,1,1,1,1,1,1,1,,,,,,,,,,1,,1,,,,,,,,,1,,,,,,,,,1,,,,,1,,,,,,1,,,1,1,,,,1,,1,,,,,,,,,1,,,,,,,,,,,,,,,,,,,,,,,,,,,,,,1,,,,,,,,,1,,,,,,,,,,,,,,,,,,,,,,,,,,,
G Werber Bryan Psychiatric Hospital,,220 Faison Drive,,Columbia,SC,29203,3210,Richland,803-935-7143,Intake,,803-898-1593,http://scdmh.org/,34.0853196,-80.9829534,MH,1,1,,,,,,,,,,1,1,,1,1,1,1,,,1,,,1,,,,,1,,,,,1,1,1,,1,,1,,,,1,,,,,,,,1,1,1,1,,,,,1,1,,,1,1,1,1,1,1,,,,1,,1,,1,,,,,1,,,1,,1,1,,,,1,,,,,,,,,,,,,1,1,1,1,1,1,,,,,,,,,,,,,,,,,,,,,,,,,,,,,,,,,,,,,,,,1,,,,1,,,,,,,,,1,,,,,,
Columbia Area Mental Health Center,Insights Young Adult Program,90 Brighton Hill Road,,Columbia,SC,29223,,Richland,803-898-0200,Intake,803-898-8888,,http://www.state.sc.us/dmh/,34.081948,-80.962477,MH,1,,,,,,,1,,1,1,1,1,1,1,1,,1,,1,1,,,,,,1,,,1,,,,1,1,1,1,1,1,1,,,,,,,,,1,1,1,,1,,,,,,,,,,1,,,,1,,1,,1,1,1,,1,1,,,1,,1,,,,,1,,1,1,,,,1,,1,1,,,,,,,1,,1,,1,1,,1,,1,,,,1,1,1,1,1,1,1,1,,1,1,1,1,,,,,1,1,,,1,1,,,,,,,,,,,,,,,,,,,,,,,,,,,,,,,
Lexington Cnty Comm Mental Health Ctr,Batesburg/Leesville Clinic,119-A Malibu Drive,,Batesburg,SC,29006,,Lexington,803-532-8414,Intake,803-996-1500,,http://lexingtonmhc.org,33.9129546,-81.5299335,MH,1,,,,,,,1,,1,1,1,1,1,1,,1,,,1,1,,,,,,1,,1,,,,,1,1,1,1,1,1,,,,,,,,1,,1,,,,1,,1,1,,,,1,,,1,,1,,1,,,,,,1,,,1,,,1,,1,,,,,,,1,,,,,,,1,1,1,,,,,,1,,1,,1,1,1,1,1,1,1,1,1,1,1,1,1,1,1,1,1,,1,1,1,1,,,,,1,1,,,,1,,,,,,,,,,,,,,,,,,,,,,,,,,,,,,,
Orangeburg Area Mental Health Center,Calhoun County Clinic,112 Guess Lane,,Saint Matthews,SC,29135,,Calhoun,803-874-2301,Intake,,803-655-5388,http://scdmh.org/,33.6756666,-80.7638325,MH,1,,,,,,,1,,1,1,1,1,,1,,1,,,1,,1,,,,,1,,1,,,,,1,1,1,1,1,1,1,1,1,,,1,1,1,1,1,1,,,1,,1,1,,,,1,1,,1,1,1,,1,,1,1,,,1,,,1,,,1,,,,,,,,,1,,,,,,1,1,1,1,,,,,,1,,1,,1,1,1,1,1,1,1,1,1,1,1,1,1,1,1,1,1,,1,1,1,1,,,,,1,1,,,,,,,,,,,,,,,,,,,,,,,,,,,,,,,,,,,
Orangeburg Area Mental Health Center,,2319 Saint Matthews Road,,Orangeburg,SC,29118,,Orangeburg,803-536-1571,Intake,,888-468-8101,http://www.scdmh.org,33.5301367,-80.8501904,MH,1,,,,,,,1,,1,1,1,1,1,1,,1,,,1,,1,,,,,1,,1,,,,,1,1,1,1,1,1,1,1,1,,1,1,1,1,1,1,1,,,1,,1,,,,1,1,1,,1,1,1,,1,,1,,1,,1,,1,1,,,1,1,,,,,,1,,1,,1,,,1,1,1,1,1,1,,,,,1,,1,,1,1,1,1,1,1,1,1,1,1,1,1,1,1,1,1,1,,1,1,1,1,,1,,,1,1,,,,1,,,,,,,,,,,,,,,,,,,,,,,,,,,,,,,
William Jennings Bryan Dorn VAMC,Orangeburg County Clinic,1767 Village Park Drive,,Orangeburg,SC,29118,2475,Orangeburg,803-533-1335,,,,http://www.columbiasc.va.gov/,33.5232386,-80.8578006,MH,1,,,,,,,,,1,,1,1,,1,,1,,,1,1,,,,,,1,1,,,,,,1,,,,1,,,,,,,,,,1,1,,,,,,,1,1,,,,,,1,,,,1,,,,,,1,,,,,,1,,,1,,,,,,1,,,,,,,1,1,1,,,,,1,,,,,1,1,,,,,,,,1,,,,1,,1,1,,1,1,1,1,,,,,,,,,,,,,,,,,,,,,,,,,,,,,,,,,,,,,,,,,
Bamberg County Clinic,,5573 Carolina Highway,,Denmark,SC,29042,,Bamberg,803-793-4274,,,,http://www.scdmh.org,33.323491,-81.142446,MH,1,,,,,,,1,,1,1,1,1,,1,,1,,,1,,1,,,,,1,,1,,,,,1,1,1,1,1,1,1,1,1,,1,1,1,1,1,1,1,,,1,,1,,,,,1,1,,1,1,1,,1,,1,,,,1,,,1,,,1,1,,,,,,,,1,,1,,,,1,1,1,1,,,,,,1,,1,,1,1,1,1,1,1,1,1,1,1,1,1,1,1,1,1,1,,1,1,1,1,,1,,,1,1,,,,1,,,,,,,,,,,,,,,,,,,,,,,,,,,,,,,
Fairfield County Clinic,Adult and Child/Adol/Family Servs,1073 U.S. Highway 321 ByPass South,,Winnsboro,SC,29180,,Fairfield,803-737-3039,Intake,803-635-4689,,http://www.scdmh.org,34.3534791,-81.0927587,MH,1,,,,,,,1,,1,,,1,,1,,1,,,1,1,,,,,,1,,1,,,,,1,1,1,1,1,1,1,,,,,1,,,1,1,1,,,1,,1,,,,,1,1,,1,1,1,1,1,,1,,,,1,,,1,,,1,1,,,,,,1,,1,1,1,,,1,1,1,1,1,,,,1,,1,,,,1,1,,,,,,,,1,,,,1,,,1,,,1,1,1,,,,,1,1,,,,1,,,,,,1,,,,,,,,,,,,,,,,,,,,,,,,,
Charlie Norwood VAMC,Aiken CBOC,951 Milbrook Avenue,,Aiken,SC,29803,,Aiken,706-733-0188,Intake,803-643-9016,,http://,33.5208428,-81.7200217,MH,1,,,,,,,,,1,1,1,1,,,,1,,,1,1,,,,,,1,1,,,,,,,1,1,,1,1,,,,,,,,,1,1,1,,,1,,,,1,,1,,,,1,,1,,1,,,,,1,,1,,,1,1,1,1,,,,1,1,1,1,1,1,1,,1,1,,1,1,1,,,,,1,,,,,,,,,,,,,,1,,,,1,,1,1,1,1,1,1,1,,,,,1,,,,,,1,1,1,1,1,,,,,,,,,,,,,,,,,,,,,,,,,,
Aiken/Barnwell Mental Health Center,,1135 Gregg Street,,Aiken,SC,29801,6341,Aiken,803-641-7700,,,,http://www.state.sc.us/dmh/ab/,33.5648102,-81.77353,MH,1,,,,,,,1,,1,1,1,1,1,1,1,1,,,1,1,,,,,,1,,1,,,,,1,1,1,1,1,1,,1,1,1,1,,1,1,1,1,1,,,1,,1,1,,,,1,1,,1,1,1,,1,,1,,,,1,,1,1,,,,1,,,,,,1,,1,,,,,,1,1,1,1,,,,,,1,,1,,1,1,1,1,1,1,1,1,1,1,1,,1,1,1,1,1,,1,1,1,1,,1,,,1,1,,,,1,,,,,,,,,,,,,,,,,,,,,,,,,,,,,,,
Beckman Center for Mental Health,Newberry Clinic,2043 Medical Park Drive,,Newberry,SC,29108,,Newberry,803-276-8000,,,,http://www.beckmancenter.com,34.291536,-81.6084469,MH,1,,,,,,,1,,1,1,1,1,1,,1,1,,,1,,1,,,,,1,,1,,,,,1,1,1,1,1,1,1,1,,,,,1,1,1,1,1,,,1,,1,,,,,1,,,1,1,1,,1,,1,,1,,1,,,1,,,1,1,,,,,,1,,1,1,1,,,,1,1,1,1,,,,,,1,,1,,1,1,1,1,1,1,1,1,1,1,1,1,1,1,1,1,1,,1,1,1,1,,,,,1,1,,,,1,,,,,,,,,,,,,,,,,,,,,,,,,,,,,,,
Aiken/Barnwell Mental Health Center,The Polly Best Center,916 Reynolds Road,,Barnwell,SC,29812,6358,Barnwell,803-259-7170,Intake,,803-641-7700,http://www.state.sc.us/dmh/ab/index.html,33.256606,-81.3592551,MH,1,,,,,,,1,,1,1,1,1,,,1,1,,,1,1,,,,,,1,,1,,,,,1,1,1,1,1,1,1,1,1,,,,,1,1,1,1,,,1,,1,,,,,1,,,1,1,1,,1,,1,,1,1,1,,1,1,1,1,1,1,,,,1,1,1,1,1,,1,,1,,1,1,1,1,,,,,,1,,1,,1,1,1,1,1,1,1,1,1,1,1,,1,1,1,1,1,,1,1,1,1,,,,,1,1,,,,1,,,,,,,,,,,,,,,,,,,,,,,,,,,,,,,
Santee/Wateree Mental Health Center,Kershaw County Mental Health Clinic,2611 Liberty Hill Road,,Camden,SC,29020,,Kershaw,803-432-5323,,,,http://www.scdmh.net,34.27694,-80.612137,MH,1,,,,,,,1,,1,1,1,1,1,,,1,,,1,,1,,,,,1,,1,,,,,1,1,1,1,1,1,1,1,1,,,1,,1,1,1,1,,,1,1,1,,,,,1,1,,1,1,1,,1,,1,,,,1,,1,1,,,1,1,,,,,,1,,1,,1,,,,1,1,1,1,,,,,,1,,1,,1,1,1,1,1,1,1,1,1,1,1,1,1,1,1,1,1,,1,1,1,1,,1,,,1,1,,,,,,,,,,,,,,,,,,,,,,,,,,,,,,,,,,,
Beckman Center for Mental Health,Edgefield Clinic,200 Ridge Medical Plaza,,Edgefield,SC,29824,,Edgefield,803-637-5788,,,,http://www.beckmancenter.com,33.7789656,-81.9296959,MH,1,,,,,,,1,,1,1,1,1,1,,1,1,,,1,,1,,,,,1,,1,,,,,1,1,1,1,1,1,,1,,,,,1,1,1,1,1,,,1,,1,,,,,1,,,1,1,1,,1,,1,,1,,1,,,1,,,1,1,,,,,,1,,1,,1,,,,1,1,1,1,,,,,,1,,1,,1,1,1,1,1,1,1,1,1,1,1,1,1,1,1,1,1,,1,1,1,1,,,,,1,1,,,,1,,,,,,,,,,,,,,,,,,,,,,,,,,,,,,,
Santee/Wateree Mental Health Center,Individual Placement and Support (IPS),1175 North Guignard Drive,,Sumter,SC,29150,,Sumter,803-775-9364,,,,http://,33.9497555,-80.3810446,MH,1,,,,,,,1,,1,1,1,1,1,1,,1,,,1,1,,,,,,1,,1,,,,,1,1,1,,1,1,,1,1,,1,,1,1,1,1,,,,1,,1,1,,,,,,,1,1,1,,1,,1,,1,,1,,1,1,,1,1,,,,,,,1,,,1,,,,1,1,1,1,1,,,,,,1,,1,,1,1,1,1,1,1,1,1,1,1,1,1,1,1,1,1,1,,1,1,1,1,,,,,1,1,,1,1,1,,,,,,,,,,,,,,,,,,,,,,,,,,,,,,,
Santee/Wateree Mental Health Center,Sumter Clinic,801 North Pike West,,Sumter,SC,29153,,Sumter,803-934-4371,Intakes,803-775-7898,803-775-9364,http://www.scdmh.net,33.955297,-80.367379,MH,1,,,,,,,1,,1,1,1,1,1,,,1,,,1,,1,,,,,1,,1,,,,,1,1,1,1,1,1,1,1,1,,,,1,1,1,1,1,,,1,,1,,,,,1,1,,1,1,1,,1,,1,,,,1,,1,1,,,1,,,,,,,1,,1,1,,,,,1,1,1,1,,,,,,1,,1,,1,1,1,1,1,1,1,1,1,1,1,1,1,1,1,1,1,,1,1,1,1,,1,,,1,1,,,,,,,,,,,,,,,,,,,,,,,,,,,,,,,,,,,
William Jennings Bryan Dorn VAMC,Sumter County Clinic,407 North Salem Avenue,,Sumter,SC,29150,,Sumter,803-938-9901,,,,http://,33.9293956,-80.3504216,MH,1,,,,,,,,,1,,1,1,,1,,1,,,1,1,,,,,,1,1,,,,,,1,,,,1,,,,,,,,,,1,1,,,,,,,1,1,,,,,,1,,,,1,,,,,,1,,,,,,1,,,1,,,,,,1,,,,,,,1,1,1,,,,,1,,,,,1,1,,,,,,,,1,,,,1,,1,1,,1,1,1,1,,,,,,,,,,,,,,,,,,,,,,,,,,,,,,,,,,,,,,,,,
Aiken/Barnwell Mental Health Center,Hartzog Center,431 West Martintown Road,,North Augusta,SC,29841,,Aiken,803-278-0880,Intake,,803-641-7700,http://www.scdmh.org,33.5092227,-81.9721891,MH,1,,,,,,,1,,1,1,1,1,1,,1,1,,,1,1,,,,,,1,,1,,,,,1,1,1,1,1,1,1,1,,,,,1,1,1,1,1,,,1,,1,,,,,1,,,1,1,1,,1,,1,,1,,1,,1,1,,1,1,1,,,,,,1,1,1,,,,1,,1,1,1,1,,,,,,1,,1,,1,1,1,1,1,1,1,1,1,1,1,,1,1,1,1,1,,1,1,1,1,,,,,1,1,,,,1,,,,,,,,,,,,,,,,,,,,,,,,,,,,,,,
Santee/Wateree Mental Health Center,Clarendon County Clinic,215 Commerce Street,,Manning,SC,29102,2638,Clarendon,803-435-2124,Intake,,803-435-2112,http://www.scdmh.net_wateree/SWInternet/main1.asp,33.69651,-80.225491,MH,1,,,,,,,1,,1,1,1,1,1,1,1,1,,,1,,1,,,,,1,,1,,,,,1,1,1,1,1,1,1,1,1,,,1,,1,1,1,1,,,1,,1,,,,,1,1,,1,1,1,,1,,1,,,,1,,1,1,,,1,,,,,,,1,,1,,1,,,,1,1,1,1,,,,,,1,,1,,1,1,1,1,1,1,1,1,1,1,1,1,1,1,1,1,1,,1,1,1,1,,1,,,1,1,,,,,,,,,,,,,,,,,,,,,,,,,,,,,,,,,,,
Orangeburg County Mental Health,Holly Hill Mental Health Clinic,1375 Gilway Extension,,Holly Hill,SC,29059,,Orangeburg,803-496-3410 x125,Intakes,803-496-3410 x121,803-496-3410 x122,http://scdmh.org,33.3253459,-80.4202423,MH,1,,,,,,,1,,1,1,1,1,,,,1,,,1,,1,,,,,1,,1,,,,,1,1,1,1,1,1,1,1,1,,,,,1,1,1,1,,,1,,1,,,,,1,1,,1,1,1,,1,,1,,,,1,,,1,,,1,,,,,,,,,1,,,,,,1,1,1,1,,,,,,1,,1,,1,1,1,1,1,1,1,1,1,1,1,1,1,1,1,1,1,,1,1,1,1,,,,,1,1,,,,,,,,,,,,,,,,,,,,,,,,,,,,,,,,,,,
Coastal Empire Community MH Ctr,Allendale County Mental Health Clinic,603 Barnwell Highway,,Allendale,SC,29810,,Allendale,803-584-4636,,,,http://scdmh.org,33.029826,-81.314131,MH,1,,,,,,,1,,1,1,1,1,,,,1,,,1,1,,,,,,1,,1,,,,,1,1,1,1,1,1,1,1,1,,,,,1,1,1,1,,,1,,1,,,,,1,1,,1,1,1,,1,,1,,,,1,,,1,,,1,,,,,,,,,1,,,,,,1,1,1,1,,,,,,1,,1,,1,1,1,1,1,1,1,1,1,1,1,1,1,1,1,1,1,,1,1,1,1,,1,,,1,1,,,,1,,,,,,,,,,,,,,,,,,,,,,,,,,,,,,,
Santee/Wateree Mental Health Center,Lee County Clinic,817 Brown Street,,Bishopville,SC,29010,,Lee,803-484-9414,,,,http://www.scdmh.net,34.228375,-80.257515,MH,1,,,,,,,1,,1,1,1,1,,1,,1,1,,1,,1,,,,,1,,1,,,,,1,1,1,1,1,1,,1,1,,1,,,1,1,1,1,,,1,,1,1,,,,1,1,1,1,1,1,,1,1,1,,,,1,1,1,1,,,1,,,,,,,1,,1,,,,,,1,1,1,1,,,,,,1,,,,1,1,,,,,,,,1,,,,,,1,1,,1,1,1,1,,,,,1,1,,,1,1,,,,,,1,,,,,,,,,,,,,,,,,,,,,,,,,
Catawba Community Mental Health Center,Chester Clinic,524 Doctors Court,,Chester,SC,29706,,Chester,803-581-8311,,,,http://www.scdmh.net,34.6887701,-81.1915863,MH,1,,,,,,,1,,1,1,1,1,,,,1,,,1,,1,,,,,1,,1,,,,,1,1,1,1,1,1,1,1,1,1,,,,1,1,1,1,,,1,,1,1,,,,1,1,,1,1,1,,1,,1,,1,,1,,1,1,,,1,1,,1,,,,1,,1,,1,,,,1,1,1,1,,,,,,1,,1,,1,1,1,1,1,1,1,1,1,1,1,1,1,1,1,1,1,,1,1,1,1,,1,,,1,1,,,,,,,,,,,,,,,,,,,,,,,,,,,,,,,,,,,
Beckman Center for Mental Health,Greenwood Offices,1547 Parkway,,Greenwood,SC,29646,,Greenwood,864-223-8331,,,,http://www.beckmancenter.com,34.1688048,-82.1547476,MH,1,,,,,,,1,,1,1,1,1,1,,1,1,,,1,,1,,,,,1,,1,,,,,1,1,1,1,1,1,1,1,,,,,1,1,1,1,1,,,1,,1,,,,,1,,,1,1,1,,1,,1,,1,,1,,1,1,1,,1,1,,1,,,,1,,1,1,1,,,,1,1,1,1,,,,,,1,,1,,1,1,1,1,1,1,1,1,1,1,1,1,1,1,1,1,1,,1,1,1,1,,,,,1,1,,,,1,,,,,,,,,,,,,,,,,,,,,,,,,,,,,,,
Beckman Center for Mental Health,Laurens Clinic,442 Professional Park Road,,Clinton,SC,29325,,Laurens,864-938-0912,,,,http://www.beckmancenter.com,34.4819399,-81.9352671,MH,1,,,,,,,1,,1,1,1,1,1,,1,1,,,1,,1,,,,,1,,1,,,,,1,1,1,1,1,1,1,1,,,,,1,1,1,1,1,,,1,,1,,,,,1,,,1,1,1,,1,,1,,1,,1,,,1,,,1,1,,,,,,1,,1,1,1,,,,1,1,1,1,,,,,,1,,1,,1,1,1,1,1,1,1,1,1,1,1,1,1,1,1,1,1,,1,1,1,1,,,,,1,1,,,,1,,,,,,,,,,,,,,,,,,,,,,,,,,,,,,,
Catawba Community Mental Health Center,Lancaster Clinic,1906 Highway 521 Bypass South,,Lancaster,SC,29720,,Lancaster,803-285-7456,,,,http://www.scdmh.net,34.7022833,-80.7457958,MH,1,,,,,,,1,,1,1,1,1,1,,,1,,,1,,1,,,,,1,,1,,,,,1,1,1,1,1,1,1,1,1,1,,,,1,1,1,1,,,1,,1,1,,,,1,1,,1,1,1,,1,,1,,1,,1,,1,1,,,1,1,,,,,,1,1,1,,1,,1,,1,1,1,1,,,,,,1,,1,,1,1,1,1,1,1,1,1,1,1,1,1,1,1,1,1,1,,1,1,1,1,,1,,,1,1,,,,,,,,,,,,,,,,,,,,,,,,,,,,,,,,,,,
Beckman Center for Mental Health,McCormick Clinic,202 Highway 28 North,,McCormick,SC,29835,,McCormick,864-465-2412,,,,http://www.beckmancenter.com,33.9106194,-82.2941398,MH,1,,,,,,,1,,1,1,1,1,1,,1,1,,,1,,1,,,,,1,,1,,,,,1,1,1,1,1,1,1,1,,,,,1,1,1,1,1,,,1,,1,,,,,1,,,1,1,1,,1,,1,,1,,1,,,1,,,1,1,1,,,,,1,,1,1,1,,,,1,1,1,1,,,,,,1,,1,,1,1,1,1,1,1,1,1,1,1,1,1,1,1,1,1,1,,1,1,1,1,,,,,1,1,,,,1,,,,,,,,,,,,,,,,,,,,,,,,,,,,,,,
Spartanburg Area Mental Health Center,Union Mental Mental Health Center,130 Medical Sciences Drive,,Union,SC,29379,,Union,864-427-1224,,,,http://www.SCDMH.org,34.7156363,-81.6435349,MH,1,,,,,,,1,,1,1,1,1,1,,1,1,,,1,1,,,,,,1,,1,,,,,1,1,1,1,1,1,1,1,1,,,,,1,1,1,1,,,1,,1,,,,,1,,,1,1,1,,1,,1,,1,,1,,1,1,,1,1,1,,,,1,1,1,1,1,1,1,,1,,1,1,1,1,,,,,,1,,1,,1,1,1,1,1,1,1,1,1,,1,,1,1,1,1,1,,1,1,1,1,,,,,1,1,,,,1,,,,,,,,,,,,,,,,,,,,,,,,,,,,,,,
Coastal Empire Community MH Ctr,Hampton County Mental Health Clinic,65 Forest Drive,,Varnville,SC,29944,,Hampton,803-943-2828,,,,http://www.cecmhc.org,32.854723,-81.090566,MH,1,,,,,,,1,,1,1,1,1,,,,1,,,1,1,,,,,,1,,1,,,,,1,1,1,1,1,1,1,1,1,,,,,1,1,1,1,,,1,,1,,,,,1,1,,1,1,1,,1,,1,,,,1,,,1,,,1,,,,,,,1,,1,,,,,,1,1,1,1,,,,,,1,,1,,1,1,1,1,1,1,1,1,1,1,1,1,1,1,1,1,1,,1,1,1,1,,1,,,1,1,,,,1,,,,,,,,,,,,,,,,,,,,,,,,,,,,,,,
Colleton Medical Center,,501 Robertson Boulevard,,Walterboro,SC,29488,,Colleton,843-782-2380,Intake,,843-782-2811,http://www.colletonmedical.com/,32.923153,-80.66984,MH,1,1,,,,,,,,1,,1,1,1,,,1,1,,1,1,,,1,,,,,,,,,,1,1,1,1,1,1,1,,,,1,,,,1,,,,,1,,,,,,,,,,,,1,,,,,,,,,,,1,1,,1,,,,,1,1,,1,1,,,,1,,,1,1,,,1,,,,,,1,,1,1,,,,,,,,1,,1,1,,,1,,1,,1,1,1,,,,,1,,,,,,,,,,,,,,,,,,,,,,,,,,,,,,,,,,,,
Coastal Empire Community MH Ctr,Colleton County Area Office,507 Forest Circle,,Walterboro,SC,29488,,Colleton,843-549-1551,,,,http://www.cecmhc.org,32.9150564,-80.6791371,MH,1,,,,,,,1,,1,1,1,1,,,,1,,,1,1,,,,,,1,,,1,,,,1,1,1,1,1,,1,1,,,,1,1,1,,1,1,1,,1,,,,,,,,,,,1,1,,,,,,1,,1,,1,1,,,1,,,,,,,1,,1,1,,,,,1,1,1,1,,,,,,1,,,,1,1,1,,,,,,,1,,1,1,1,1,1,1,1,1,1,1,1,,,,,1,1,,,,,,,,,,,,,,,,,,,,,,,,,,,,,,,,,,,
Pee Dee Mental Health Center,Hartsville Clinic,900 South 4th Street,,Hartsville,SC,29550,,Darlington,843-332-4141,,,,http://www.peedeementalhealth.org,34.3635086,-80.0646245,MH,1,,,,,,,1,,1,1,1,1,1,1,,1,,,1,1,,,,,,1,,1,,,,,1,1,1,1,1,1,1,1,1,1,,1,1,1,1,1,1,,,1,,1,,,,,1,,,1,1,1,,1,,1,,1,,1,,1,1,1,,1,1,,1,,,,1,,1,1,1,,1,,1,1,1,1,,,,1,,1,,1,,1,1,1,1,1,1,1,1,1,1,1,1,1,1,1,1,1,,1,1,1,1,,,,,1,1,,,,1,,,,,,,,,,,,,,,,,,,,,,,,,,,,,,,
Rebound Behavioral Health,,134 East Rebound Road,,Lancaster,SC,29720,,Lancaster,803-313-3700,,,,http://www.reboundbehavioralhealth.com,34.8630169,-80.8029127,MH,1,1,,,,,,,,1,,,1,,,1,,1,,,,,,1,,1,,,,,,,,1,1,1,1,1,1,1,,,,,,,,1,,1,,,,,,,,,,,,,,,,,,,,,,,1,,,1,,,,,,,,,,1,1,,,,,,,,1,1,1,1,1,,,,1,,1,,1,1,1,1,,1,1,,,1,,,,1,,1,1,,,1,1,1,,1,,,1,,,1,,,,,,,,,,,,,,,,,,,,,,,,,,,,,,,,,
Beckman Center for Mental Health,Abbeville Clinic,101 Commercial Drive,,Abbeville,SC,29620,5593,Abbeville,864-459-9671,,,,http://www.beckmancenter.com,34.1781719,-82.3790147,MH,1,,,,,,,1,,1,1,1,1,1,,1,1,,,1,,1,,,,,1,,1,,,,,1,1,1,1,1,1,1,1,,,,,1,1,1,1,1,,,1,,1,,,,,1,,,1,1,1,,1,,1,,1,,1,,,1,,,1,1,,,,,,1,,1,1,1,,,,1,1,1,1,,,,,,1,,1,,1,1,1,1,1,1,1,1,1,1,1,1,1,1,1,1,1,,1,1,1,1,,,,,1,1,,,,1,,,,,,,,,,,,,,,,,,,,,,,,,,,,,,,
Catawba Community Mental Health Center,Catawba Family Center,448 Lake Shore Parkway,Suite 110,Rock Hill,SC,29732,,York,803-329-3177,,,,http://www.scdmh.net,34.9327896,-80.9992743,MH,1,,,,,,,1,,1,1,1,1,1,1,1,1,,,1,,1,,,,,1,,1,,,,,1,1,1,1,1,1,1,1,1,,,1,1,1,1,1,1,,,1,,1,,,,,1,1,,1,1,,,1,,1,,,,1,,,1,1,,1,,,,,,,,,1,,,,,,1,1,1,,,,,,,1,,1,,1,1,1,1,1,1,1,1,1,1,1,1,1,1,1,1,1,,1,1,1,1,,,,,1,1,,,,,,,,,,,,,,,,,,,,,,,,,,,,,,,,,,,
New Hope Carolinas Inc,,101 Sedgewood Drive,,Rock Hill,SC,29732,,York,803-328-9300,Intakes,800-776-6482,800-520-2810,http://www.newhopetreatment.com,34.950516,-81.040136,MH,1,,1,,,,,,,1,,1,1,1,1,,1,1,,1,1,,,,1,,,,,,,,,1,1,,1,1,1,1,1,1,1,1,1,,,,,,,,,,,1,,,1,1,,,1,1,,,1,,,,,,1,,,,,1,1,,,,,,,,1,,,,,1,,1,,,,1,1,,,,1,,,,,,,,,,,,,1,,,,,,,1,1,1,1,1,1,,,,,,,,,,,1,1,,,1,,,,,,,,,,,,,,,,,,,,,,,,,,
Catawba Community Mental Health Center,York Adult Services,205 Piedmont Boulevard,,Rock Hill,SC,29732,,York,803-327-2012,Intake,,800-252-2168,http://www.scdmh.net,34.954053,-81.0503655,MH,1,,,,,,,1,,1,1,1,1,1,,,1,,,1,,1,,,,,1,,1,,,,,1,1,1,1,1,1,1,1,1,1,,,,1,1,1,1,,,1,,1,1,,,,1,1,,1,,1,,1,,1,,1,,1,,1,1,,,1,,,,,,,1,,1,1,,,,,,1,1,1,,,,,,1,,1,,1,1,1,1,1,1,1,1,1,1,1,1,1,1,1,1,1,,1,1,1,1,,1,,,1,1,,,,,,,,,,,,,,,,,,,,,,,,,,,,,,,,,,,
Piedmont Medical Center,Center for Psychiatry,222 South Herlong Avenue,,Rock Hill,SC,29732,1158,York,803-329-1234,Intake,803-323-6224,,http://www.piedmontmedicalcenter.com,34.956853,-81.05266,MH,1,1,,,,,,,,1,1,1,1,,,1,,1,,,1,,,1,,,,,,,,,,1,1,1,1,1,1,1,,,,1,,,,1,,1,,,1,,,,,,,,,,,,,,,,,,,,1,,,,1,1,1,,1,,,1,1,,1,1,,,,1,,,1,1,,1,1,,,,1,,1,,1,1,,,,1,,,,1,,,,1,,1,1,,1,1,1,1,,,,,1,,,,,,1,1,1,1,1,,,,,,,,,,,,,,,,,,,,,,,,,,
Waccamaw Center for Mental Health,Williamsburg Clinic,501 Nelson Boulevard,,Kingstree,SC,29556,4026,Williamsburg,843-354-5453,Intake,,800-354-5456,http://www.waccamawmentalhealth.org/,33.660651,-79.820402,MH,1,,,,,,,1,,1,1,1,1,1,1,,1,,,1,1,,,,,,1,,1,,,,,1,1,1,1,1,1,1,1,1,1,,1,,1,1,1,1,,,1,,1,,,,,1,1,,1,1,1,,1,,1,1,1,,1,,1,1,,,1,1,,1,,,,1,,1,1,1,,,,1,1,1,1,,,,1,,1,,1,,1,1,1,1,1,1,1,1,1,1,1,1,1,1,1,1,1,,1,1,1,1,,,,,1,1,,,,1,,,,,,,,,,,,,,,,,,,,,,,,,,,,,,,
Willowglen Academy,Psych Residential Treatment Fac,1370 Williamsburg County Highway North,,Kingstree,SC,29556,,Williamsburg,843-201-4888,Intake,803-473-4656,,http://www.phoenixcaresystems.com,33.716016,-79.810205,MH,1,,1,,,,,,,1,1,1,1,1,1,,1,1,,,1,,,,1,,,,,,,,,1,1,,1,1,,1,1,,,,,,,,,,,,1,,,,,,,,,,1,1,,,1,1,,,,1,1,,,,1,1,1,,,,,,,,,,,,,,,1,,,,,1,,,,,,1,,,,,,,,,,,1,,,,1,,1,1,,,1,1,1,,,,,1,,,,,1,,,,,,,,,,,,,,,,,,,,,,,,,,,,,,,
Pee Dee Mental Health Center,Lake City Clinic,675 North Matthews Road,,Lake City,SC,29560,7027,Florence,843-394-7600,Intake,,843-661-4882,http://www.scdmh.net,33.8892453,-79.7643012,MH,1,,,,,,,1,,1,1,1,1,1,1,,1,,,1,,,1,,,,1,,1,,,,,1,1,1,1,1,1,1,1,1,1,,1,1,1,1,1,1,,,1,1,,,,,,1,,,1,,,,1,,,,1,,1,,1,1,,,1,,,,,,,1,,1,1,,,,,1,1,1,1,1,,,1,,1,,1,,1,1,1,1,1,1,1,1,1,1,1,1,1,1,1,1,1,,1,1,1,1,,,,,1,1,,,,1,,,,,,,,,,,,,,,,,,,,,,,,,,,,,,,
Berkeley Community Mental Health Ctr,,403 Stony Landing Road,P.O. Box 1030,Moncks Corner,SC,29461,,Berkeley,843-761-8282 x370,Intakes,843-761-8282 x300,888-202-1381 x300,http://www.berkeleymentalhealth.org,33.1970381,-79.9915257,MH,1,,,,,,,1,,1,1,1,1,1,1,1,1,1,,1,,1,,,,,1,,1,,,,,1,1,1,1,1,,,1,,,,,,,,1,1,,,1,1,1,,,,,1,1,,1,1,1,,1,,1,,,1,1,1,1,1,1,1,1,1,1,1,1,1,1,1,,1,1,1,1,1,1,1,1,1,1,,,,,,1,,1,,1,1,1,1,1,1,1,1,1,1,1,1,1,1,1,1,1,1,1,1,1,1,,1,,,1,1,1,,1,1,,,,,,,,,,,,,,,,,,,,,,,,,,,,,,,
William Jennings Bryan Dorn VAMC,Florence Clinic,6439 Garners Ferry Road,,Columbia,SC,29209,1638,Richland,843-292-8383 x6823,,,,http://www.columbiasc.va.gov/,34.2208479,-79.800825,MH,1,,,,,,,,,1,,1,1,,1,,1,,,1,1,,,,,,1,1,,,,,,1,,,,1,,,,,,,,,,1,1,,,,,,,1,1,,,,,,1,,,,1,,,,,1,1,,,,,,1,,,1,,,,,,1,,,,,,,1,1,1,,,,,1,,,,,1,1,,,,,,,,1,,,,1,,1,1,,1,1,1,1,,,,,,,,,,,,,,,,,,,,,,,,,,,,,,,,,,,,,,,,,
McLeod Behavioral Health Services,,701 Cashua Ferry Road,,Darlington,SC,29532,,Darlington,843-395-4200,Intake,843-395-4234,,http://www.mcleodhealth.org/,34.3133249,-79.8399159,MH,1,1,,,,,,,,1,1,1,1,,,1,,1,,,1,,,1,,,,,,,,,,1,1,1,1,1,1,1,,,,,,,,,,,,,1,,1,,,,,,,,1,,,,1,,,,,,1,,,,,1,1,,,,,1,1,,1,,,,,1,,,1,1,1,,,1,,,1,,1,,1,1,,,,,,,,1,,1,1,,,1,1,,1,1,1,1,,,,,,,,,,,1,1,1,1,1,,,,,,,,,,,,,,,,,,,,,,,,,,
Palmetto Summerville Behavioral Health,,225 Midland Parkway,,Summerville,SC,29485,,Dorchester,843-851-5015 x2201,Intake,843-851-5015,,http://www.palmettosummerville.com,32.9656108,-80.1609559,MH,1,,1,,,,,,,1,1,1,1,1,1,1,1,1,,1,1,,,,1,1,,,,,,,,1,1,,1,1,1,1,1,1,1,1,,,,,,,,,1,,,,,,1,,,,1,1,,,,,,,,,1,,,1,,1,1,,,,,,,1,,,,,,,,1,,,,,1,,,,,,,,,,,,,,,,,,,,,,,,,,,,,,,,,,,,,,,,,,,,,,,,,,,,,,,,,,,,,,,,,,,,,,
Charleston/Dorchester CDMHC,Dorchester County Mental Health,106 Springview Lane,,Summerville,SC,29485,,Dorchester,843-873-5063,Intake,843-832-3086,,http://www.charlestondorchestermhc.org/,32.959879,-80.1618489,MH,1,,,,,,,1,,1,1,1,1,1,1,1,1,,,1,1,,,,,,1,,1,,,,,1,1,1,1,1,,1,1,,,,1,,1,,1,1,,,1,1,1,1,,,,1,1,1,1,1,1,,1,,1,,1,,1,,1,1,,1,1,,1,,,,,1,,1,,,,,1,1,1,1,1,,,,,,1,,1,,1,1,1,1,1,1,1,1,1,1,1,1,1,1,1,1,1,,,1,1,1,,1,,,1,1,,,1,1,,,,,,,,,,,,,,,,,,,,,,,,,,,,,,,
Pee Dee Mental Health Center,Executive Offices,125 East Cheves Street,,Florence,SC,29506,2526,Florence,843-317-4089,Intake,843-317-4073,,http://www.peedeementalhealth.org,34.195306,-79.764989,MH,1,,,,,,,1,,1,1,1,1,1,1,,1,,,1,,1,,,,,1,,1,,,,,1,1,1,1,1,1,1,1,1,1,,1,1,1,1,1,1,,,1,,1,,,,,1,1,,1,1,1,,,,1,,1,,1,,1,1,,,1,1,,,,,,1,,1,1,1,,1,,1,1,1,1,,,,,,1,,1,,1,1,1,1,1,1,1,1,1,1,1,1,1,1,1,1,1,,1,1,1,1,,,,,1,1,,,,1,,,,,,,,,,,,,,,,,,,,,,,,,,,,,,,
Pee Dee Mental Health Center,Florence County Clinic,125 East Cheves Street,,Florence,SC,29506,,Florence,843-317-4073,,,,http://www.peedeementalhealth.org,34.1965837,-79.7651334,MH,1,,,,,,,1,,1,1,1,1,1,,,1,,,1,,1,,,,,1,,1,,,,,1,1,1,1,1,1,1,1,1,1,,,,1,1,1,1,,,1,,1,1,,,,1,1,,1,1,1,,1,,1,,1,,1,,1,1,,,,,,,,,,,,1,,,,,,1,1,1,1,,,,,,1,,1,,1,1,1,1,1,1,1,1,1,1,1,1,1,1,1,1,1,,1,1,1,1,,,,,1,1,,,,1,,,,,,,,,,,,,,,,,,,,,,,,,,,,,,,
Precision Beh and Medical Group LLC,,181 East Evans Street,Suite 314,Florence,SC,29506,,Florence,843-407-5959,,,,http://,34.1975711,-79.7646078,MH,1,,,,,,1,,,1,1,1,1,,,,,,,1,,1,,,,,1,,,,,,,1,1,,,1,,,1,,,,,,,,1,,1,1,,,1,1,1,1,1,,1,,1,1,1,,1,,1,,,,1,,,,,,1,,,,,,,,,,,,,,,1,1,1,1,,1,,,,,,,,,,,,,,,,,,,,,,,,,,,,,,,,,,,1,,,,,,,,,,,,,,,,,,,,,,,,,,,,,,,,,,,
Trident Medical Center,Lowcountry Transitions,9330 Medical Plaza Drive,,Charleston,SC,29406,9195,Charleston,843-843-3010,Intake,854-900-5000,,http://tridenthealthsystem.com/service/behavioral-health,32.9765421,-80.0736317,MH,1,1,,,,,,,,,,1,1,,,1,,1,1,1,1,,,1,,1,,,,,,,,1,1,1,1,1,1,1,,,,1,,,,1,1,1,,,1,,1,1,1,1,1,,1,1,1,,1,,1,,,,,,,1,,,,,,,,,,1,,,1,,,,,1,,,1,1,1,,1,,,,1,,1,,1,1,1,,,,,1,,1,,,1,1,,1,1,1,,1,1,1,,,,,1,,,,1,1,,,,,,,,,,,,,,,,,,,,,,,,,,,,,,,
Greater Greenville Mental Health,Simpsonville Clinic,20 Powderhorn Road,,Simpsonville,SC,29681,,Greenville,864-963-3421,,,,http://www.greenvillementalhealth.org/,34.7220931,-82.2494172,MH,1,,,,,,,1,,1,1,1,1,1,1,,1,,,1,,1,,,,,1,,1,,,,,1,1,1,1,1,1,1,1,1,,,,1,1,1,1,1,,,1,1,1,,,,,1,1,,1,1,1,,1,,1,,1,,1,,,1,,,1,1,,,,,,1,,1,,1,,,,1,1,1,1,,,,,,1,,1,,1,1,1,1,1,1,1,1,1,1,1,1,1,1,1,1,1,,1,1,1,1,,1,,,1,1,,,,,,,,,,,,,,,,,,,,,,,,,,,,,,,,,,,
Tri County Mental Health Center,Chesterfield Clinic,207 Perry Wiley Way,,Chesterfield,SC,29709,,Chesterfield,843-623-2229,,,,http://tricountycmhc.org/,34.7288105,-80.0545637,MH,1,,,,,,,1,,1,1,1,1,,,,1,,,1,,1,,,,,1,,1,,,,,1,1,1,1,1,1,1,1,1,1,,,,1,1,1,1,,,1,,1,1,,,,1,1,,1,1,1,,1,,,,1,,1,,,1,,,1,,,,,,,,,1,,,,,,1,1,1,1,,,,,,1,,1,,1,1,1,1,1,1,1,1,1,1,1,1,1,1,1,1,1,,1,1,1,1,,1,,,1,1,,,,,,,,,,,,,,,,,,,,,,,,,,,,,,,,,,,
Spartanburg Medical Center,Mary Black,1700 Skylyn Drive,,Spartanburg,SC,29307,,Spartanburg,864-573-3725,,,,http://www.spartanburgregional.com,34.9783003,-81.8951782,MH,1,1,,,,,,,,1,1,1,1,,,1,,1,,,1,,,1,,,,,,,,,,1,1,1,1,1,1,1,,,,,,,,1,,1,,,1,,1,,,,,,1,,,,,1,,,,,,,1,,,,,1,1,,1,,,1,,,1,1,,,,1,,,,1,1,,,1,,,1,,,,1,1,,,,,,,,1,1,,1,1,,1,1,,1,1,1,1,,,,,1,,,,,,1,1,1,1,1,,,,,,,,,,,,,,,,,,,,,,,,,,
Spartanburg Area Mental Health Center,Spartanburg Mental Health Clinic,250 Dewey Avenue,,Spartanburg,SC,29303,,Spartanburg,864-585-0366,,,,http://www.SCDMH.org,34.9626889,-81.9422878,MH,1,,,,,,,1,,1,1,1,1,,,1,1,,,1,,1,,,,,1,,1,,,,,1,1,1,1,1,1,1,1,1,,,,,1,1,1,1,,,1,,1,,,,,1,,,1,1,1,,1,,1,,1,,1,,1,1,,1,1,,,,,,,1,,1,,1,,,,1,1,1,1,,,,,,1,,1,,1,1,1,1,1,1,1,1,1,1,1,,1,1,1,1,1,,1,1,1,1,,,,,1,1,,,,1,,,,,,,,,,,,,,,,,,,,,,,,,,,,,,,
Spartanburg Area Mental Health Center,Cherokee Mental Health Clinic,125 East Robinson Street,,Gaffney,SC,29340,,Cherokee,864-487-2710,,,,http://www.SCDMH.org,35.076934,-81.647113,MH,1,,,,,,,1,,1,1,1,1,,,1,1,,,1,1,,,,,,1,,1,,,,,1,1,1,1,1,1,1,1,,,,,,1,1,1,1,,,1,,1,,,,,1,,,1,1,,,1,,1,,1,,1,,1,1,,1,1,1,,,,,,1,,1,,1,,,,1,1,1,1,,,,,,1,,1,,1,1,1,1,1,1,1,1,1,1,1,,1,1,1,1,1,,1,1,1,1,,,,,1,1,,,,1,,,,,,,,,,,,,,,,,,,,,,,,,,,,,,,
Coastal Empire Community MH Ctr,Jasper County Mental Health Clinic,1510 Grays Highway,,Ridgeland,SC,29936,,Jasper,843-726-8030,,,,http://www.cecmhc.org,32.4960362,-80.9843662,MH,1,,,,,,,1,,1,1,1,1,,,,1,,,1,1,,,,,,1,,1,,,,,1,1,1,1,1,1,1,1,1,,,,,1,1,1,1,,,1,,1,,,,,1,1,,1,1,1,,1,,1,,,,1,,,1,,,1,,,,,,,,,1,,,,,,1,1,1,1,,,,,,1,,1,,1,1,1,1,1,1,1,1,1,1,1,1,1,1,1,1,1,,1,1,1,1,,1,,,1,1,,,,1,,,,,,,,,,,,,,,,,,,,,,,,,,,,,,,
Carolina Center for Behavioral Health,,2700 East Phillips Road,,Greer,SC,29650,4815,Greenville,864-235-2335,Intake,,800-866-4673,http://www.thecarolinacenter.com,34.8650705,-82.2291509,MH,1,1,,,,,,,,1,1,1,1,1,,1,1,1,1,1,,1,,1,,1,1,,,,,,,1,1,1,1,1,1,1,1,,,1,1,,,1,1,,,,1,,,,,,,,1,,,,,,,,,,,,,,,,1,,1,,1,,,1,,1,1,,,,,1,,1,1,1,1,,1,,,,1,,1,,1,1,1,1,,,,,,1,,,,1,,1,1,,,1,1,1,,,,1,1,,,,,,,,,,,,,,,,,,,,,,,,,,,,,,,,,,,,
Charleston/Dorchester MH Center,Charleston Clinic,2100 Charlie Hall Boulevard,,Charleston,SC,29414,,Charleston,843-414-2351,Intake,843-414-2350,,http://charlestondorchestermhc.org,32.814377,-80.046196,MH,1,,,,,,,1,,1,1,1,1,1,1,,1,,,1,,1,,,,,1,,1,,,,,1,1,1,,1,1,1,1,1,1,1,1,1,1,1,1,1,,,1,1,1,1,,,,1,,,1,1,1,,1,,1,,1,1,1,,1,1,1,,1,1,,1,,,,1,,1,,1,,,1,1,1,1,1,,,,,,1,,1,,1,1,1,1,1,1,1,1,1,1,1,1,1,1,1,1,1,,1,1,1,1,,1,,,1,1,,,,1,,,,,,,,,,,,,,,,,,,,,,,1,,,,,,,,
First Responder Support Team,First Responder Support Team,2090 Executive Hall Road,Suite 150,Charleston,SC,29407,,Charleston,843-212-8980,,,,http://www.charlestondorchestermhc.org/,32.8068124,-80.0360757,MH,1,,,,,,,1,,1,1,,1,1,,,1,,,1,1,,,,,,1,,1,,,,,1,1,1,1,1,,,,,,1,1,,1,,1,1,1,,1,,1,,,,,,,,1,,1,,1,,,,,,,,,1,,,1,,,,,,,,,1,,,,,,1,1,1,1,,,,,,1,,,,,,,,,,,,,,,1,1,1,1,1,,1,,1,,,,1,,,1,1,,,,,,,,,,,,,,,,,,,,,,,,,,,,,,,,,,,
William Jennings Bryan Dorn VAMC,Anderson County Clinic,3030 SC Highway 81,,Anderson,SC,29621,,Anderson,864-224-5450,,,,http://www.columbiasc.va.gov/,34.5724668,-82.6226687,MH,1,,,,,,,,,1,,1,1,,1,,1,,,1,1,,,,,,1,1,,,,,,1,,,,1,,,,,,,,,,1,1,,,,,,,1,1,,,,,,1,,,,1,,,,,,1,,,,,,1,,,1,,,,,,1,,,,,,,1,1,1,,,,,1,,,,,1,1,,,,,,,,1,,,,1,,1,1,,1,1,1,1,,,,,,,,,,,,,,,,,,,,,,,,,,,,,,,,,,,,,,,,,
Greater Greenville Mental Health,Greer Clinic,220 Executive Drive,,Greer,SC,29651,,Greenville,864-879-2111,,,,http://www.greenvillementalhealth.com/default.html,34.9522671,-82.2355083,MH,1,,,,,,,1,,1,1,1,1,1,,,1,,,1,,1,,,,,1,,1,,,,,1,1,1,1,1,1,1,1,1,,,,,1,1,1,1,,,1,,1,,,,,1,1,,1,1,1,,1,,1,,1,,1,,,1,,,1,,,,,,,1,,1,1,,,,1,1,1,1,1,,,,,,1,,1,,1,1,1,1,1,1,1,1,1,1,1,1,1,1,1,1,1,,1,1,1,1,,1,,,1,1,,,,,,,,,,,,,,,,,,,,,,,,,,,,,,,,,,,
William Jennings Bryan Dorn VAMC,Greenville Clinic,41 Park Creek Drive,,Greenville,SC,29605,,Greenville,864-299-1600,,,,http://www.columbiasc.va.gov/,34.8149371,-82.4161956,MH,1,,,,,,,,,1,,1,1,,1,1,1,,,1,1,,,,,,1,1,,,,,,1,,,,1,,,,,,,,,,1,1,,,,,,1,1,1,,,,,,1,,,,1,,,,,1,1,,,,,,1,1,,1,,,,,,1,,1,,,,,1,1,1,,,,,1,1,,,,1,1,,,,,,,,1,,,,1,,1,1,,1,1,1,1,,,,,,,,,,,,,,,,,,,,,,,,,,,,,,,,,,,,,,,,,
Marshall I Pickens Hospital,Greenville Memorial Medical Campus,701 Grove Road,,Greenville,SC,29605,,Greenville,864-455-8988,Intake,,888-852-8520,http://www.ghspsych.org,34.8192557,-82.411677,MH,1,1,,,,,,,,1,1,1,1,,,,,1,1,,1,,,1,,1,1,,,,,,,1,1,1,,1,1,,,,,,,,,1,,1,,,1,1,1,,,,,,1,,1,1,1,,1,,1,,,,1,,,1,,1,,,,,,1,,,1,1,,,,1,,1,1,1,1,,,1,,,1,,1,1,1,1,1,1,1,1,1,1,1,1,1,,,1,1,1,1,1,1,1,1,1,,,,1,,,,,1,1,,,,,,,,,,,,,,,,,,,,,,,,,,,,,,,
Anderson/Oconee/Pickens MH Center,Anderson Adult Clinic,200 McGee Road,,Anderson,SC,29625,,Anderson,864-260-2220,,,,http://www.aopmentalhealth.org/,34.530977,-82.684651,MH,1,,,,,,,1,,1,1,1,1,1,1,1,1,,,1,,1,,,,,1,,1,,,,,1,1,1,1,1,1,,1,1,1,1,,1,1,1,1,1,,,1,,1,1,,,,1,1,,1,1,1,,1,,1,,1,,1,,1,1,,1,1,1,,,,,,1,,1,1,1,,,1,1,1,1,1,,,,,,1,,1,,1,1,1,1,1,1,1,1,1,1,1,,1,1,1,1,1,,1,1,1,1,,1,,,1,1,,,,1,,,,,,,,,,,,,,,,,,,,,,,,,,,,,,,
Greater Greenville Mental Health,Greenville Clinic,124 Mallard Street,,Greenville,SC,29601,,Greenville,864-241-1040,,,,http://www.greenvillementalhealth.org/,34.8397763,-82.4147551,MH,1,,,,,,,1,,1,1,1,1,1,,,1,,,1,,1,,,,,1,,1,,,,,1,1,1,1,1,1,1,1,1,,,,,1,1,1,1,,,1,,1,,,,,1,1,,1,1,1,,1,,1,,1,,1,,,1,,,1,,,,,,,1,,1,1,,,,1,1,1,1,1,,,,,,1,,1,,1,1,1,1,1,1,1,1,1,1,1,1,1,1,1,1,1,,1,1,1,1,,1,,,1,1,,,,,,,,,,,,,,,,,,,,,,,,,,,,,,,,,,,
Tri County Community Mental Health Ctr,Marlboro County Clinic,1035 Cheraw Street,,Bennettsville,SC,29512,,Marlboro,843-454-0841,Intake,843-454-0442,,http://www.tricountycmhc.org/,34.6344271,-79.6992158,MH,1,,,,,,,1,,,1,1,1,,,,1,,,1,,1,,,,,1,,1,,,,,1,1,1,1,1,1,1,1,1,1,,,,1,1,1,1,,,1,,1,1,,,,1,1,,1,1,,,1,,1,,1,,1,,,1,,,1,,,,,,,,,1,,,,,,1,1,1,1,,,,,,1,,1,,1,1,1,1,1,1,1,1,1,1,1,1,1,1,1,1,1,,1,1,1,1,,1,,,1,1,,,,,,,,,,,,,,,,,,,,,,,,,,,,,,,,,,,
Children and Adolescent Services,William E Pascoe Clinic,515 Camson Road,Suite A,Anderson,SC,29625,,Anderson,864-716-2316,,,,http://www.aopmentalhealth.org,34.54829,-82.693065,MH,1,,,,,,,1,,1,1,1,1,,,,1,,,1,,,1,,,,1,,1,,,,,1,1,1,1,1,1,1,1,,,1,,,1,1,,1,,,1,,1,,,,,,,,,1,,,,,,,,,1,,1,1,,1,1,,,,,,,1,1,1,,,,,,1,,,,,,,,,1,,1,,1,1,1,1,1,1,1,1,1,1,1,,1,1,1,1,1,,1,1,1,1,,,,,1,,,,,1,,,,,,,,,,,,,,,,,,,,,,,,,,,,,,,
Ralph H Johnson VAMC,Mental Health Service Line,109 Bee Street,,Charleston,SC,29401,5703,Charleston,843-789-7316,Intake,843-789-7311,,http://www.charleston.va.gov/,32.7841197,-79.9540689,MH,1,,,,,,,,,1,1,1,1,1,1,1,1,1,1,1,1,,,1,,1,1,1,,,,,,,,,,1,,,,,,,,,,1,1,1,,,1,,1,1,1,,,,1,,1,,1,1,1,1,,1,1,1,1,,1,1,1,,1,1,1,1,1,1,1,1,1,1,1,1,,1,1,,1,1,1,,,,,1,1,,1,,1,1,,1,,,,,,1,,,,1,,1,1,,1,1,1,1,,1,,1,1,1,1,,1,1,1,1,1,1,1,,,,,,,,,,,,,,,,,,,,,,,,,,
Medical University of South Carolina,Institute of Psychiatry,67 President Street,,Charleston,SC,29425,5712,Charleston,843-792-9888,Intake,843-792-0500,,http://muschealth.org/medical-services/psychiatry,32.786329,-79.950084,MH,1,1,,,,,,,,1,,1,1,1,1,1,,1,1,1,1,,,1,,,1,,,1,,,,1,1,1,1,1,1,1,1,1,,1,1,,1,1,,,,,1,,1,,,,,,1,,,1,1,,,,,,,,,1,,,,,1,,1,1,,1,1,1,1,1,,,,1,,,,,,,,,,,1,,,,,,,,,,,,,,,,,,,,,,,,,,,,,1,,,,,,,,,,,,,,,,,,,,,,,,,,,,,,,,,,,,,
Charleston Dorchester Mental Health,Tri County Crisis Stabilization Center,5 Charleston Center Drive,Suite 246,Charleston,SC,29401,1162,Charleston,843-953-2390,,,,http://,32.7827262,-79.9523457,MH,1,,,1,,,,,,1,,1,1,1,,1,1,,,1,1,,,,1,,,,1,,,,,1,1,1,,1,,1,1,1,1,1,1,,,,,,,1,1,,1,,,,,,,,1,,1,,1,,,,,,,,,,,,1,,,1,,,,,,1,,,,,,,1,1,1,,,,,,1,,,,1,1,,,,,,,,1,,,,,,1,1,,,1,1,1,,,,,1,,,,,1,,,,,,,,,,,,,,,,,,,,,,,,,,,,,,,
Beaufort Memorial Hospital,Mental Health Services,955 Ribaut Road,,Beaufort,SC,29902,,Beaufort,843-522-5200 x5269,Intake,843-522-5269,,http://www.bmhsc.org,32.4170217,-80.6875651,MH,1,1,,,,,,,,1,,1,1,,1,,,1,1,,1,,,1,,,,,,,,,,1,1,1,1,1,1,1,,,,,1,,,,,1,,,,,1,,,,,,,,,,1,,,,,,,,1,,,1,1,,1,,,,,1,1,,1,1,,,,,,,1,1,1,,,1,,,1,,1,,1,1,,1,,,,,,1,,,1,1,,1,1,,1,1,1,1,,,,,1,,,,,1,,,,,,,,,,,,,,,,,,,,,,,,,,,,,,,
Coastal Empire Community MH Center,Beaufort Mental Health Clinic,1050 Ribaut Road,,Beaufort,SC,29902,,Beaufort,843-524-8899,,,,http://www.cecmhc.org,32.4122705,-80.6879551,MH,1,,,,,,,1,,1,1,1,1,1,,,1,,,1,1,,,,,,1,,1,,,,,1,1,1,1,1,1,1,1,1,,1,1,1,1,1,1,1,,,1,,1,,,,,1,1,,1,1,1,,1,,1,,1,,1,,1,1,,,1,1,,,,,,1,,1,1,1,,,,1,1,1,1,,,,1,,1,,1,,1,1,1,1,1,1,1,1,1,1,1,1,1,1,1,1,1,,1,1,1,1,,1,,,1,1,,,,1,,,,,,,,,,,,,,,,,,,,,,,,,,,,,,,
Windwood Farm Home for Children,,4857 Windwood Farm Road,,Awendaw,SC,29429,,Charleston,843-884-5342 x12226,Intakes,843-884-5342 x12222,843-991-0791,http://www.windwoodfarm.org,32.936696,-79.725809,MH,1,,1,,,,,,,1,1,1,1,,1,,1,1,,1,1,,,,1,,1,,,,,,,1,1,,,,,,1,1,1,,,,,,,,,,,,,,,,,,,,1,1,,,1,,,,,,1,,,1,,1,,,,,,,,1,1,,,,,,,1,,,,,,1,,,,,,,,,,,,,,,,1,,,,,,,1,,,1,1,1,,1,,,,,1,1,,,1,,,,1,,,,,,,,,,,,,,,,,,,,,,,,,,
Pee Dee Mental Health Center,Marion County Clinic,1100 South Main Street,,Marion,SC,29571,,Marion,843-431-1100,,,,http://www.peedeementalhealth.org,34.164618,-79.397404,MH,1,,,,,,,1,,1,1,1,1,,1,,1,,,1,1,,,,,,1,,1,,,,,1,1,1,1,1,1,1,1,1,,,,,1,1,1,1,,,1,1,1,,,,,1,1,,1,,1,,1,,1,,1,,1,,,1,,,1,,,,,,,1,1,1,,,,1,,1,1,1,1,,,,1,,1,,1,,1,1,1,1,1,1,1,1,1,1,1,1,1,1,1,1,1,,1,1,1,1,,,,,1,1,,,,,,,,,,,,,,,,,,,,,,,,,,,,,,,,,,,
SpringBrook Behavioral Health System,,1 Havenwood Lane,,Travelers Rest,SC,29690,,Greenville,864-834-8013,,,,http://www.springbrookautismbehavioral.com,34.9640587,-82.4547541,MH,1,1,,,,,,,,1,1,1,1,1,1,1,1,1,,,,1,,1,1,,,,,,,,,1,1,1,1,1,1,1,,,1,1,1,,,1,1,,,,1,,1,,1,,,,1,,1,1,1,,1,,1,,,,1,,,,1,1,1,,,,,1,1,,1,1,,,,1,,1,1,1,1,,1,,,,1,,,,,,,,,,,,,,,,,,,,,,,,,,,,,,,,,,,1,,,,,,,,,,,,,,,,,,,,,,,,,,,,,,,
Anderson/Oconee/Pickens Comm MH Ctr,Pickens Clinic,337 West Main Street,,Easley,SC,29640,2927,Pickens,864-878-6830,,,,http://www.aopmentalhealth.org/,34.8288818,-82.6075037,MH,1,,,,,,,1,,1,1,1,1,1,1,1,1,,,1,,1,,,,,1,,1,,,,,1,1,1,1,1,1,,1,1,1,1,,1,1,1,1,1,,,1,,1,1,,,,1,1,,1,1,1,,1,,1,,1,1,1,,1,1,,1,1,1,,,,,,1,,1,1,1,,,,1,1,1,1,,,,,,1,,1,,1,1,1,1,1,1,1,1,1,1,1,,1,1,1,1,1,,1,1,1,1,,1,,,1,1,,,,1,,,,,,,,,,,,,,,,,,,,,,,,,,,,,,,
Tri County Mental Health Center,Dillon Clinic,1324 Commerce Drive,,Dillon,SC,29536,,Dillon,843-774-3351,Intake,843-454-0442,,http://tricountycmhc.org/,34.4391417,-79.3666674,MH,1,,,,,,,1,,1,1,1,1,,,,1,,,1,,1,,,,,1,,1,,,,,1,1,1,1,1,1,1,1,1,1,,,,1,1,1,1,,,1,,1,1,,,,1,1,,1,1,1,,1,,1,,1,,1,,,1,,,1,,,,,,,,,1,,,,,,1,1,1,1,,,,,,1,,1,,1,1,1,1,1,1,1,1,1,1,1,1,1,1,1,1,1,,1,1,1,1,,1,,,1,1,,,,,,,,,,,,,,,,,,,,,,,,,,,,,,,,,,,
Waccamaw Center for Mental Health,Georgetown County Clinic,525 Lafayette Circle,,Georgetown,SC,29440,,Georgetown,843-546-6107,,,,http://waccamawmentalhealth.org,33.3845318,-79.2996794,MH,1,,,,,,,1,,1,1,1,1,1,,,1,,,1,1,,,,,,1,,1,,,,,1,1,1,1,1,1,1,1,1,1,,,,1,1,1,1,,,1,,1,,,,,1,1,,1,1,1,,1,,,,1,,1,,1,1,1,,1,1,,1,,1,1,1,1,1,1,1,,1,,1,1,1,1,,,,,,1,,1,,1,1,1,1,1,1,1,1,1,1,1,1,1,1,1,1,1,,1,1,1,1,,,,,1,1,,,,1,,,,,,,,,,,,,,,,,,,,,,,,,,,,,,,
Greater Greenville Mental Health,Foothills Family Resources,5 Main Street,,Slater,SC,29683,,Greenville,864-836-1100,,,,http://www.scdmh.net,35.0270734,-82.4941209,MH,1,,,,,,,1,,1,1,1,1,1,,,1,,,1,,1,,,,,1,,1,,,,,1,1,1,1,1,1,1,1,1,,,,,1,1,1,1,,,1,,1,,,,,1,1,,1,1,1,,1,,1,,1,,1,,,1,,,1,,,,,,,1,,1,1,,,,1,1,1,1,1,,,,,,1,,1,,1,1,1,1,1,1,1,1,1,1,1,1,1,1,1,1,1,,1,1,1,1,,1,,,1,1,,,,,,,,,,,,,,,,,,,,,,,,,,,,,,,,,,,
Coastal Empire Community MH Ctr,Hilton Head Mental Health Clinic,151 Dillon Road,,Hilton Head Island,SC,29925,,Beaufort,843-681-4865,,,,http://www.cecmhc.org,32.229703,-80.688447,MH,1,,,,,,,1,,1,1,1,1,,1,,1,,,1,1,,,,,,1,,1,,,,,1,1,1,,1,,,,,,,,,,,1,1,,,1,1,1,1,,,,1,1,1,1,1,1,,1,,1,,1,1,1,1,1,1,,1,1,1,,,,,,,,1,1,1,,,1,1,1,1,1,,,,,,1,,1,,1,1,,1,,,,,,1,,1,1,1,1,1,1,1,1,1,1,1,,,,,1,1,,,1,1,,,,,,,,,,,,,,,,,,,,,,,,,,,,,,,
Anderson/Oconee/Pickens Comm MH Ctr,Oconee Clinic,115 Carter Park Drive,,Seneca,SC,29678,,Oconee,864-885-0157,,,,http://www.aopmentalhealth.org/,34.6840896,-82.9862331,MH,1,,,,,,,1,,1,,1,1,1,1,1,1,,,1,,1,,,,,1,,1,,,,,1,1,1,1,1,1,,1,1,1,1,,1,1,1,1,1,,,1,,1,1,,,,1,1,,1,1,1,,1,,1,,1,,1,,1,1,,1,1,1,,,,,,1,,1,1,1,,,,1,1,1,1,,,,,,1,,1,,1,1,1,1,1,1,1,1,1,1,1,,1,1,1,1,1,,1,1,1,1,,1,,,1,1,,,,1,,,,,,,,,,,,,,,,,,,,,,,,,,,,,,,
Waccamaw Mental Health Center,Horry County Clinic,164 Waccamaw Medical Park Drive,,Conway,SC,29526,,Horry,843-347-4888,,,,http://www.waccamawmentalhealth.org,33.787434,-78.998733,MH,1,,,,,,,1,,1,1,1,1,1,,1,1,,,1,1,,,,,,1,,1,,,,,1,1,1,1,1,1,1,1,1,,,1,1,1,1,1,1,,,1,,1,,,,,1,1,,1,1,1,,1,,1,,,,1,,1,1,,,1,1,,,,,,1,,1,1,1,,,,1,1,1,1,,,,,,1,,1,,1,1,1,1,1,1,1,1,1,1,1,1,1,1,1,1,1,,1,1,1,1,,,,,1,1,,,,,,,,,,,,,,,,,,,,,,,,,,,,,,,,,,,
Lighthouse Behavioral Health Hospital,,152 Waccamaw Medical Park Drive,,Conway,SC,29526,,Horry,843-347-8871,,,,http://www.lighthousecarecenterofconway.com,33.7877719,-78.998025,MH,1,1,,,,,,,,1,1,1,1,,,1,,1,,1,1,,,1,1,,,,,,,,,1,1,1,,1,1,1,1,,1,1,,,,1,1,1,,,,,1,,,,,,1,,1,1,1,1,1,,1,1,,,,,1,,1,1,1,,,,,1,1,1,1,1,,,,1,,1,1,1,1,,1,,,,1,,1,,1,1,1,,,,,,,,,,,,,,,,,,,,,,,,,,,,,,,,,,,,,,,,,,,,,,,,,,,,,,,,,,,,
Waccamaw Center for Mental Health,South Strand Clinic,9630 Scipio Lane,,Myrtle Beach,SC,29588,,Horry,843-492-2795,,,,http://www.waccamawmentalhealth.org/index.html,33.6340583,-79.0110862,MH,1,,,,,,,1,,1,1,1,1,1,,1,1,,,1,,1,,,,,1,,1,,,,,1,1,1,1,1,,1,1,1,1,,,,1,,1,1,,,1,1,,1,,,,,1,,1,1,1,,1,,1,,1,1,1,,1,1,,,1,1,,,,,,1,1,1,1,1,,,,1,1,1,1,,,,,,1,,1,,1,1,1,1,1,1,1,1,1,1,1,1,1,1,1,1,1,,1,1,1,1,,1,,,1,1,1,,,1,,,,,,1,,,,,,,,,,,,,,,,,,,,,,,,,
Grand Strand Behavioral Health Servs,,5050 Highway 17 Bypass South,,Myrtle Beach,SC,29588,,Horry,843-839-6112,Intake,843-839-6113,,http://mygrandstrandhealth.com/service/behavioral-health,33.6676422,-78.9716869,MH,1,1,,,,,,,,1,1,1,1,1,1,,1,1,,,1,,,1,,1,1,,,,,,,1,1,1,1,1,1,1,,,,,,,,1,,1,,,1,,1,,1,,1,1,1,1,1,,1,1,1,,,,,,1,1,1,,1,1,1,1,1,1,,1,1,,1,1,,,,1,,,1,1,1,,1,,,,,,1,,1,1,1,1,1,1,,,,1,,1,,1,,1,1,1,1,1,1,1,,,,,1,,,,1,1,,,,,,,,,,,,,,,,,,,,,,,,,,,,,,,