stabr,fscskey,fscs_seq,c_fscs,libid,libname,address,city,zip,zip4,cnty,phone,c_out_ty,sq_feet,f_sq_ft,l_num_bm,hours,f_hours,wks_open,f_wksopn,yr_sub,obereg,statstru,statname,stataddr,incitsst,incitsco,gnisplac,cntypop,locale,centract,cenblock,cdcode,cbsa,microf,geomatch,intersection,geoid,tract_latitude,tract_longitude,lat,lon
SC,SC0002,2,Y,SC0002-017,ABBE REGIONAL LIBRARY BOOKMOBILE,314 CHESTERFIELD STREET SW,AIKEN,29801,7117,AIKEN,8036427575,BS,-4,N_19,1,2470,R_19,52,R_19,2019,5,0,0,0,45,3,550,170872,21,213,1145,4502,12260,0,A,917,45003021300,+33.5673561,-081.7526423,33.5562,-81.7215
SC,SC0002,3,Y,SC0002-003,AIKEN COUNTY PUBLIC LIBRARY,"314 CHESTERFIELD STREET, S.W.",AIKEN,29801,7117,AIKEN,8036422022,CE,32140,R_19,0,2713,R_19,52,R_19,2019,5,0,0,0,45,3,550,170872,21,213,1145,4502,12260,0,A,917,45003021300,+33.5673561,-081.7526423,33.5562,-81.7215
SC,SC0002,4,Y,SC0002-004,BAMBERG COUNTY PUBLIC LIBRARY,315 NORTH EAST RAILROAD AVENUE,BAMBERG,29003,M,BAMBERG,8032453022,BR,6800,R_19,0,2393,R_19,52,R_19,2019,5,0,0,0,45,9,M,14066,41,9602,2046,4506,-4,N,A,511,45009960200,+33.2528574,-080.9598246,33.28715,-80.9868
SC,SC0002,5,Y,SC0002-005,BARNWELL COUNTY PUBLIC LIBRARY,40 BURR STREET,BARNWELL,29812,2533,BARNWELL,8032593612,BR,17000,R_19,0,2373,R_19,52,R_19,2019,5,0,0,0,45,11,4060,20866,32,9703,1001,4502,-4,N,A,228,45011970300,+33.2731810,-081.3721662,33.24313,-81.364
SC,SC0002,6,Y,SC0002-006,EDGEFIELD COUNTY PUBLIC LIBRARY,105 COURT HOUSE SQUARE,EDGEFIELD,29824,1340,EDGEFIELD,8036374025,BR,6000,R_19,0,2425,R_19,52,R_19,2019,5,0,0,0,45,37,22795,27260,32,9702.02,3006,4503,12260,0,A,333,45037970202,+33.8472526,-081.9454445,33.78942,-81.9292
SC,SC0002,7,Y,SC0002-007,NANCY CARSON LIBRARY,135 EDGEFIELD ROAD,NORTH AUGUSTA,29841,2423,AIKEN,8032795767,BR,16000,R_19,0,2597,R_19,52,R_19,2019,5,0,0,0,45,3,50695,170872,21,207.02,2000,4502,12260,0,A,903,45003020702,+33.5019859,-081.9498430,33.52342,-81.953
SC,SC0002,8,Y,SC0002-008,BLACKVILLE LIBRARY,19420 SOL BLATT AVENUE NORTH,BLACKVILLE,29817,M,BARNWELL,8032842295,BR,1860,R_19,0,1228,R_19,51,R_19,2019,5,0,0,0,45,11,6490,20866,42,9702,2064,4502,-4,N,A,229,45011970200,+33.3685118,-081.2762976,33.35692,-81.2706
SC,SC0002,9,Y,SC0002-009,DENMARK LIBRARY,5122 CAROLINA HIGHWAY,DENMARK,29042,1689,BAMBERG,8037934511,BR,3000,R_19,0,870,R_19,49,R_19,2019,5,0,0,0,45,9,19105,14066,32,9601,3059,4506,-4,N,A,510,45009960100,+33.3261599,-081.1667580,33.32036,-81.1429
SC,SC0002,10,Y,SC0002-010,MOBLEY (JOHNSTON) BRANCH,406 CALHOUN STREET,JOHNSTON,29832,1317,EDGEFIELD,8032755157,BR,4000,R_19,0,878,R_19,51,R_19,2019,5,0,0,0,45,37,37150,27260,42,9703,2012,4503,12260,0,A,661,45037970300,+33.7963576,-081.7706297,33.83135,-81.8016
SC,SC0002,11,Y,SC0002-011,NEW ELLENTON LIBRARY,113 PINE HILL AVENUE,NEW ELLENTON,29809,2527,AIKEN,8036527845,BR,2337,R_19,0,949,R_19,51,R_19,2019,5,0,0,0,45,3,49705,170872,21,220.01,2065,4502,12260,0,A,751,45003022001,+33.4469771,-081.6399794,33.42033,-81.6828
SC,SC0002,12,Y,SC0002-012,TRENTON BRANCH LIBRARY,117 WATSON ROAD,TRENTON,29847,3242,EDGEFIELD,8032752538,BR,1600,R_19,0,480,R_19,51,R_19,2019,5,0,0,0,45,37,72520,27260,42,9704,1111,4503,12260,0,A,731,45037970400,+33.7032284,-081.8705262,33.74102,-81.8425
SC,SC0002,13,Y,SC0002-013,NANCY BONNETTE BRANCH,"204 PARK STREET, NE",WAGENER,29164,9323,AIKEN,8035645396,BR,2617,R_19,0,1380,R_19,51,R_19,2019,5,0,0,0,45,3,74050,170872,42,217,1132,4502,12260,0,A,916,45003021700,+33.6526535,-081.4246323,33.64996,-81.3586
SC,SC0002,14,Y,SC0002-014,WILLISTON LIBRARY,205 SPRINGFIELD ROAD,WILLISTON,29853,2737,BARNWELL,8032663027,BR,1568,R_19,0,1363,R_19,51,R_19,2019,5,0,0,0,45,11,77965,20866,42,9701,4048,4502,-4,N,A,230,45011970100,+33.3910823,-081.3942081,33.40333,-81.4189
SC,SC0002,15,Y,SC0002-015,JACKSON BRANCH LIBRARY,106 MAIN STREET,JACKSON,29831,2616,AIKEN,8034713811,BR,1320,R_19,0,911,R_19,51,R_19,2019,5,0,0,0,45,3,36205,170872,42,221,2043,4502,12260,0,A,2,45003022100,+33.3147374,-081.8384557,33.32518,-81.788
SC,SC0002,16,Y,SC0002-016,MIDLAND VALLEY BRANCH LIBRARY,9 HILLSIDE ROAD,WARRENVILLE,29834,M,AIKEN,8035937379,BR,1600,R_19,0,996,R_19,51,R_19,2019,5,0,0,0,45,3,40390,170872,21,210.01,1021,4502,12260,0,A,904,45003021001,+33.5096425,-081.8696608,33.51411,-81.8485
SC,SC0003,2,Y,SC0003-002,ALLENDALE HAMPTON JASPER REGIONAL LIBRARY,297 MAIN STREET NORTH,ALLENDALE,29810,3711,ALLENDALE,8035843513,CE,12000,R_19,0,2288,R_19,52,R_19,2019,5,0,0,0,45,5,955,8688,32,9702,2070,4506,-4,N,A,252,45005970200,+33.0356436,-081.4486751,33.00944,-81.3072
SC,SC0003,4,Y,SC0003-004,HAMPTON COUNTY LIBRARY,12 LOCUST STREET,HAMPTON,29924,3530,HAMPTON,8039437528,BR,8700,R_19,0,2184,R_19,52,R_19,2019,5,0,0,0,45,49,31885,19222,33,9202,5099,4506,-4,N,A,51,45049920200,+32.8590563,-081.0106074,32.86478,-81.1113
SC,SC0003,5,Y,SC0003-005,PRATT MEMORIAL LIBRARY,451 EAST WILSON STREET,RIDGELAND,29936,8525,JASPER,8437267744,BR,6366,R_19,0,1924,R_19,52,R_19,2019,5,0,6,0,45,53,60280,30073,32,9502.02,3064,4506,25940,0,A,1100,45053950202,+32.5364880,-080.8861724,32.48138,-80.9783
SC,SC0003,6,Y,SC0003-006,HARDEEVILLE PUBLIC LIBRARY,37 MAIN STREET,HARDEEVILLE,29927,M,JASPER,8437843426,BR,6200,R_19,0,1976,R_19,52,R_19,2019,5,0,0,0,45,53,32245,30073,31,9503,2135,4506,25940,0,A,649,45053950300,+32.2481288,-081.0599775,32.28534,-81.0787
SC,SC0003,7,Y,SC0003-007,AHJ LIBRARY ANNEX - BOOKMOBILE,801 E. FIRST ST.,HAMPTON,29924,M,HAMPTON,8039432994,BS,-4,N_19,1,1250,R_19,50,R_19,2019,5,0,0,0,45,49,31885,19222,33,9202,5111,4506,-4,N,A,51,45049920200,+32.8590563,-081.0106074,32.86404,-81.1103
SC,SC0003,9,Y,SC0003-009,ESTILL PUBLIC LIBRARY,100 PEEPLES AVENUE,ESTILL,29918,M,HAMPTON,8036254560,BR,5125,R_19,0,600,R_19,52,R_19,2019,5,0,0,0,45,49,23830,19222,42,9204,3083,4506,-4,N,A,54,45049920400,+32.7786383,-081.2056929,32.75363,-81.237
SC,SC0004,2,Y,SC0004-002,ANDERSON COUNTY LIBRARY,300 N MCDUFFIE STREET,ANDERSON,29621,5643,ANDERSON,8642604500,CE,96000,R_19,0,3640,R_19,52,R_19,2019,5,0,0,0,45,7,1360,202558,13,123,1017,4503,24860,0,A,205,45007012300,+34.5134656,-082.6052554,34.50561,-82.649
SC,SC0004,3,Y,SC0004-003,JENNIE ERWIN BRANCH LIBRARY,318 SHIRLEY AVENUE,HONEA PATH,29654,1636,ANDERSON,8643697751,BR,3900,R_19,0,2392,R_19,52,R_19,2019,5,0,0,0,45,7,34810,202558,31,115,5042,4503,24860,0,A,239,45007011500,+34.4662024,-082.4055574,34.44906,-82.3938
SC,SC0004,4,Y,SC0004-004,BELTON BRANCH LIBRARY,91 BREAZEALE STREET,BELTON,29627,1732,ANDERSON,8643388330,BR,6600,R_19,0,2392,R_19,52,R_19,2019,5,0,0,0,45,7,5365,202558,31,114.01,1059,4503,24860,0,A,201,45007011401,+34.5142174,-082.5030071,34.52287,-82.4948
SC,SC0004,5,Y,SC0004-005,LANDER MEMORIAL REGIONAL LIBRARY,925 GREENVILLE DRIVE,WILLIAMSTON,29697,1131,ANDERSON,8648475238,BR,6000,R_19,0,2730,R_19,52,R_19,2019,5,0,0,0,45,7,77875,202558,21,104.01,3036,4503,24860,0,A,203,45007010401,+34.6216670,-082.4858460,34.63035,-82.4689
SC,SC0004,6,Y,SC0004-006,PENDLETON BRANCH LIBRARY,650 SOUTH MECHANIC STREET,PENDLETON,29670,1809,ANDERSON,8646463923,BR,12000,R_19,0,2730,R_19,52,R_19,2019,5,0,0,0,45,7,55645,202558,21,107,6031,4503,24860,0,A,237,45007010700,+34.6422416,-082.7791119,34.64281,-82.7823
SC,SC0004,7,Y,SC0004-007,POWDERSVILLE BRANCH LIBRARY,4 CIVIC COURT,EASLEY,29642,8276,ANDERSON,8642951190,BR,12000,R_19,0,2730,R_19,52,R_19,2019,5,0,0,0,45,7,58170,202558,41,101.03,2024,4503,24860,0,A,501,45007010103,+34.7838001,-082.5142370,34.77533,-82.4891
SC,SC0004,8,Y,SC0004-008,PIEDMONT BRANCH LIBRARY,1407 HIGHWAY 86,PIEDMONT,29673,8322,ANDERSON,8648456534,BR,2100,R_19,0,2392,R_19,52,R_19,2019,5,0,0,0,45,7,M,202558,21,102,3010,4503,24860,0,A,242,45007010200,+34.7136393,-082.4741527,34.70567,-82.4867
SC,SC0004,9,Y,SC0004-009,IVA BRANCH LIBRARY,203 W. CRUETTE ST.,IVA,29655,8774,ANDERSON,8643486150,BR,5000,R_19,0,2392,R_19,52,R_19,2019,5,0,0,0,45,7,36160,202558,42,117,2053,4503,24860,0,A,244,45007011700,+34.3109700,-082.6793835,34.3043,-82.6664
SC,SC0004,11,Y,SC0004-011,ANDERSON COUNTY LIBRARY BOOKMOBILE,300 N. MCDUFFIE STREET,ANDERSON,29621,5643,ANDERSON,8642604500,BS,-4,N_19,1,672,R_19,51,R_19,2019,5,0,0,0,45,7,1360,202558,13,123,1017,4503,24860,0,A,205,45007012300,+34.5134656,-082.6052554,34.50561,-82.649
SC,SC0004,12,Y,SC0004-012,WESTSIDE COMMUNITY CENTER BRANCH,1100 WEST FRANKLIN STREET,ANDERSON,29624,2012,ANDERSON,8642604460,BR,1950,R_19,0,1950,R_19,52,R_19,2019,5,0,0,0,45,7,1360,202558,13,7,2043,4503,24860,0,A,232,45007000700,+34.4939131,-082.6616905,34.49576,-82.6645
SC,SC0005,2,Y,SC0005-002,BEAUFORT COUNTY LIBRARY,311 SCOTT STREET,BEAUFORT,29902,5556,BEAUFORT,8432556430,CE,32747,R_19,0,2370,R_19,52,R_19,2019,5,0,0,0,45,13,4690,192122,32,7,3056,4501,25940,0,A,55,45013000700,+32.4169450,-080.6897104,32.43193,-80.6708
SC,SC0005,3,Y,SC0005-003,BLUFFTON BRANCH LIBRARY,120 PALMETTO WAY,BLUFFTON,29910,9628,BEAUFORT,8432556490,BR,25000,R_19,0,2370,R_19,52,R_19,2019,5,0,0,0,45,13,7210,192122,13,21.07,4011,4501,25940,0,A,753,45013002107,+32.2608068,-080.8659839,32.24213,-80.8569
SC,SC0005,4,Y,SC0005-004,HILTON HEAD ISLAND LIBRARY,11 BEACH CITY ROAD,HILTON HEAD ISLAND,29926,2709,BEAUFORT,8432556500,BR,26900,R_19,0,2370,R_19,52,R_19,2019,5,0,0,0,45,13,34045,192122,13,107,2044,4501,25940,0,A,70,45013010700,+32.2572090,-080.7106039,32.21854,-80.7123
SC,SC0005,6,Y,SC0005-006,LOBECO BRANCH LIBRARY,1862 TRASK PARKWAY,LOBECO,29931,M,BEAUFORT,8432556475,BR,4000,R_19,0,2080,R_19,52,R_19,2019,5,0,0,0,45,13,M,192122,42,1,1140,4506,25940,0,A,68,45013000100,+32.5821594,-080.7263936,32.55551,-80.7447
SC,SC0005,7,Y,SC0005-007,SAINT HELENA BRANCH LIBRARY,1025 SEA ISLAND PARKWAY,ST HELENA ISLAND,29920,4301,BEAUFORT,8432556486,BR,23000,R_19,0,2080,R_19,52,R_19,2019,5,0,0,0,45,13,M,192122,42,11.01,2055,4501,25940,0,A,468,45013001102,+32.3630229,-080.5792222,32.40035,-80.561
SC,SC0005,9,Y,SC0005-009,BEAUFORT COUNTY LIBRARY BOOKMOBILE,311 SCOTT STREET,BEAUFORT,29902,5556,BEAUFORT,8432556547,BS,-4,N_19,1,1470,R_19,34,R_19,2019,5,0,0,0,45,13,4690,192122,32,7,3056,4501,25940,0,A,55,45013000700,+32.4169450,-080.6897104,32.43193,-80.6708
SC,SC0006,2,Y,SC0006-002,BERKELEY COUNTY LIBRARY: HANAHAN,1316 OLD MURRAY COURT,HANAHAN,29406,M,BERKELEY,8435530047,BR,6700,R_19,0,2600,R_19,52,R_19,2019,5,0,0,0,45,19,50875,411406,12,31.04,2004,4506,16700,0,5,667,45019003104,+32.9290256,-080.0392057,32.92819,-80.0346
SC,SC0006,5,Y,SC0006-005,BERKELEY COUNTY LIBRARY: ST. STEPHEN,1104 SOUTH MAIN STREET,ST. STEPHEN,29479,M,BERKELEY,8435674862,BR,5000,R_19,0,2496,R_19,52,R_19,2019,5,0,0,0,45,15,62755,227907,42,202.01,2051,4506,16700,0,A,828,45015020201,+33.3806007,-079.8905635,33.40074,-79.924
SC,SC0006,6,Y,SC0006-006,BERKELEY COUNTY LIBRARY: GOOSE CREEK,325 OLD MONCKS CORNER ROAD,GOOSE CREEK,29445,4026,BERKELEY,8435721376,BR,15000,R_19,0,2912,R_19,52,R_19,2019,5,0,0,0,45,15,29815,227907,21,207.07,2039,4501,16700,0,A,637,45015020707,+33.0619117,-080.0440881,33.02017,-80.0426
SC,SC0006,7,Y,SC0006-007,BERKELEY COUNTY LIBRARY: MONCKS CORNER,1003 HIGHWAY 52,MONCKS CORNER,29461,3007,BERKELEY,8437194243,CE,15082,R_19,0,2912,R_19,52,R_19,2019,5,0,0,0,45,15,47275,227907,21,205.06,3057,4501,16700,0,A,823,45015020506,+33.1834737,-079.9987130,33.18704,-80.0008
SC,SC0006,8,Y,SC0006-008,BERKELEY COUNTY LIBRARY: DANIEL ISLAND,2301 DANIEL ISLAND DRIVE,DANIEL ISLAND,29492,8222,BERKELEY,8434712952,BR,5180,R_19,0,2496,R_19,52,R_19,2019,5,0,0,0,45,15,13330,227907,12,204.03,1045,4501,16700,0,A,596,45015020403,+32.8630475,-079.9189550,32.85086,-79.9091
SC,SC0006,9,Y,SC0006-009,BERKELEY COUNTY LIBRARY: SANGAREE,595 SANGAREE PARKWAY,SUMMERVILLE,29483,5323,BERKELEY,8436951208,BR,5300,R_19,0,2496,R_19,52,R_19,2019,5,0,0,0,45,15,63665,227907,21,207.15,1014,4501,16700,0,A,804,45015020715,+33.0374732,-080.1221350,33.02982,-80.1214
SC,SC0006,10,Y,SC0006-010,BERKELEY COUNTY LIBRARY BOOKMOBILE,100 LIBRARY STREET,MONCKS CORNER,29461,3749,BERKELEY,8437194247,BS,-4,N_19,1,2000,R_19,50,R_19,2019,5,0,0,0,45,15,47275,227907,21,205.06,3023,4501,16700,0,A,823,45015020506,+33.1834737,-079.9987130,33.19445,-80.0093
SC,SC0007,2,Y,SC0007-002,CALHOUN COUNTY LIBRARY,900 F.R. HUFF DRIVE,ST. MATTHEWS,29135,1475,CALHOUN,8038743389,CE,12500,R_19,0,2456,R_19,52,R_19,2019,5,0,0,0,45,17,62620,14553,42,9502,3057,4506,17900,0,A,99,45017950200,+33.6883735,-080.8061167,33.66335,-80.7783
SC,SC0007,4,Y,SC0007-004,CALHOUN COUNTY LIBRARY BOOKMOBILE,900 F.R. HUFF DRIVE,ST. MATTHEWS,29135,1475,CALHOUN,8038743389,BS,-4,N_19,1,369,R_19,48,R_19,2019,5,0,0,0,45,17,62620,14553,42,9502,3057,4506,17900,0,A,99,45017950200,+33.6883735,-080.8061167,33.66335,-80.7783
SC,SC0008,2,Y,SC0008-002,CHAPIN MEMORIAL LIBRARY,400 14TH AVE. N.,MYRTLE BEACH,29577,3612,HORRY,8439181275,CE,24918,R_19,0,2964,R_19,52,R_19,2019,5,0,0,0,45,51,49075,354081,13,506,2080,4507,34820,0,A,1081,45051050600,+33.7041378,-078.8898834,33.69695,-78.8771
SC,SC0009,2,Y,SC0009-002,VILLAGE BRANCH LIBRARY,430 WHILDEN STREET,MT. PLEASANT,29464,5357,CHARLESTON,8438849741,BR,1413,R_19,0,1844,R_19,52,R_19,2019,5,0,0,0,45,19,48535,411406,21,47.01,1022,4501,16700,0,A,292,45019004701,+32.7801651,-079.8675218,32.78854,-79.8762
SC,SC0009,3,Y,SC0009-003,COOPER RIVER MEMORIAL BRANCH,3503 RIVERS AVENUE,CHARLESTON,29405,7744,CHARLESTON,8437442489,BR,6800,R_19,0,2866,R_19,52,R_19,2019,5,0,0,0,45,19,50875,411406,12,55,2013,4506,16700,0,A,357,45019005500,+32.8532338,-079.9554747,32.8567,-79.9791
SC,SC0009,4,Y,SC0009-004,EDISTO BRANCH LIBRARY,1589 HIGHWAY 174,EDISTO ISLAND,29438,6724,CHARLESTON,8438692355,BR,1650,R_19,0,1330,R_19,52,R_19,2019,5,0,0,0,45,19,M,411406,42,23,1084,4501,16700,0,A,663,45019002300,+32.5734128,-080.3153210,32.5696,-80.283
SC,SC0009,5,Y,SC0009-005,EDGAR ALLAN POE BRANCH LIBRARY,1921 I`ON AVENUE,SULLIVAN`S ISLAND,29482,M,CHARLESTON,8438833914,BR,3596,R_19,0,1304,R_19,52,R_19,2019,5,0,0,0,45,19,70090,411406,21,48,2038,4501,16700,0,A,762,45019004800,+32.7709494,-079.8311365,32.75958,-79.8409
SC,SC0009,6,Y,SC0009-006,MCCLELLANVILLE BRANCH LIBRARY,222 BAKER STREET,MCCLELLANVILLE,29458,9714,CHARLESTON,8438873699,BR,1280,R_19,0,1592,R_19,52,R_19,2019,5,0,0,0,45,19,43585,411406,42,50,3154,4501,16700,0,A,757,45019005000,+33.0393507,-079.5734552,33.0882,-79.4626
SC,SC0009,7,Y,SC0009-007,FOLLY BEACH BRANCH LIBRARY,55 CENTER STREET,FOLLY BEACH,29439,M,CHARLESTON,8435882001,BR,250,R_19,0,1276,R_19,52,R_19,2019,5,0,0,0,45,19,26035,411406,21,20.04,2014,4501,16700,0,A,284,45019002004,+32.6626912,-079.9316597,32.65485,-79.9404
SC,SC0009,8,Y,SC0009-008,ST. PAUL`S BRANCH LIBRARY,5151 HIGHWAY 165,HOLLYWOOD,29449,M,CHARLESTON,8438893600,BR,1026,R_19,0,1844,R_19,52,R_19,2019,5,0,0,0,45,19,34495,411406,42,25.02,4020,4506,16700,0,A,664,45019002502,+32.7290527,-080.2269830,32.73115,-80.2409
SC,SC0009,9,Y,SC0009-009,JOHN L. DART BRANCH LIBRARY,1067 KING STREET,CHARLESTON,29403,3708,CHARLESTON,8437227550,BR,6585,R_19,0,2456,R_19,52,R_19,2019,5,0,0,0,45,19,13330,411406,12,15,2000,4506,16700,0,A,857,45019005300,+32.8001609,-079.9443767,32.8053,-79.9508
SC,SC0009,10,Y,SC0009-010,JAMES ISLAND BRANCH LIBRARY,1248 CAMP ROAD,CHARLESTON,29412,9206,CHARLESTON,8437956679,BR,6306,R_19,0,2866,R_19,52,R_19,2019,5,0,0,0,45,19,36430,411406,21,20.02,2008,4501,16700,0,A,77,45019002002,+32.7340159,-079.9611767,32.72789,-79.9496
SC,SC0009,11,Y,SC0009-011,WEST ASHLEY BRANCH LIBRARY,45 WINDEMERE BLVD.,CHARLESTON,29407,M,CHARLESTON,8437666635,BR,6540,R_19,0,2866,R_19,52,R_19,2019,5,0,0,0,45,19,13330,411406,12,30,2019,4501,16700,0,A,80,45019003000,+32.7772471,-079.9726864,32.77701,-79.9761
SC,SC0009,12,Y,SC0009-012,CHARLESTON COUNTY LIBRARY,68 CALHOUN STREET,CHARLESTON,29401,3508,CHARLESTON,8438056801,CE,101000,R_19,0,3326,R_19,52,R_19,2019,5,0,0,0,45,19,13330,411406,12,51,2022,4501,16700,0,A,308,45019005100,+32.7866809,-079.9264498,32.78822,-79.9308
SC,SC0009,13,Y,SC0009-013,CHARLESTON COUNTY LIBRARY BOOKMOBILE,68 CALHOUN STREET,CHARLESTON,29401,3508,CHARLESTON,8438056881,BS,-4,N_19,1,1650,R_19,52,R_19,2019,5,0,0,0,45,19,13330,411406,12,51,2022,4501,16700,0,A,308,45019005100,+32.7866809,-079.9264498,32.78822,-79.9308
SC,SC0009,14,Y,SC0009-014,DORCHESTER ROAD REGIONAL LIBRARY,6325 DORCHESTER ROAD,N. CHARLESTON,29418,5103,CHARLESTON,8035526466,BR,14000,R_19,0,2866,R_19,52,R_19,2019,5,0,0,0,45,19,50875,411406,12,31.1,2006,4506,16700,0,A,766,45019003110,+32.8669862,-080.0576673,32.87509,-80.0596
SC,SC0009,15,Y,SC0009-016,OTRANTO ROAD REGIONAL LIBRARY,2261 OTRANTO ROAD,N. CHARLESTON,29406,9602,CHARLESTON,8435724094,BR,14000,R_19,0,2866,R_19,52,R_19,2019,5,0,0,0,45,19,50875,411406,12,31.14,1005,4501,16700,0,A,352,45019003114,+32.9525906,-080.0509817,32.96477,-80.048
SC,SC0009,16,Y,SC0009-017,CYNTHIA GRAHAM HURD ST. ANDREWS REGIONAL LIBRARY,1735 N. WOODMERE DRIVE,CHARLESTON,29407,3875,CHARLESTON,8437662546,BR,14000,R_19,0,2866,R_19,52,R_19,2019,5,0,0,0,45,19,13330,411406,12,26.12,5008,4501,16700,0,A,336,45019002612,+32.8174841,-080.0204648,32.80653,-80.0138
SC,SC0009,17,Y,SC0009-015,MT. PLEASANT REGIONAL LIBRARY,1133 MATHIS FERRY ROAD,MT. PLEASANT,29464,5211,CHARLESTON,8438496161,BR,14000,R_19,0,2866,R_19,52,R_19,2019,5,0,0,0,45,19,48535,411406,21,46.06,3029,4501,16700,0,A,94,45019004606,+32.8232078,-079.8820580,32.81628,-79.865
SC,SC0009,18,Y,SC0009-018,JOHN`S ISLAND REGIONAL LIBRARY,3531 MAYBANK HIGHWAY,JOHN`S ISLAND,29455,4823,CHARLESTON,8435591945,BR,16000,R_19,0,2866,R_19,52,R_19,2019,5,0,0,0,45,19,13330,411406,12,21.01,1089,4501,16700,0,A,223,45019002101,+32.7430103,-080.0840064,32.72319,-80.077
SC,SC0009,19,Y,SC0009-019,WANDO MOUNT PLEASANT LIBRARY,1400 CAROLINA PARK BOULEVARD,MT. PLEASANT,29466,7501,CHARLESTON,8438056930,BR,-1,M_19,0,-1,M_19,-1,M_19,2019,5,0,0,0,45,19,48535,411406,41,46.08,4109,4501,16700,0,A,348,45019004608,+32.8973520,-079.7890349,32.89219,-79.7654
SC,SC0009,20,Y,SC0009-020,BAXTER-PATRICK JAMES ISLAND LIBRARY,1858 SOUTH GRIMBALL ROAD,CHARLESTON,29412,8013,CHARLESTON,8437956679,BR,-1,M_19,0,-1,M_19,-1,M_19,2019,5,0,0,0,45,19,M,411406,21,20.03,3059,4501,16700,0,A,283,45019002003,+32.6854321,-079.9526678,32.70106,-79.9718
SC,SC0010,2,Y,SC0010-002,BLACKSBURG PUBLIC LIBRARY,201 SOUTH RUTHERFORD STREET,BLACKSBURG,29702,1535,CHEROKEE,8648392630,BR,6575,R_19,0,1924,R_19,52,R_19,2019,5,0,0,0,45,21,6400,57300,42,9704.02,1001,4505,23500,1,A,58,45021970402,+35.0931953,-081.4721855,35.1195,-81.5163
SC,SC0010,3,Y,SC0010-003,CHEROKEE COUNTY PUBLIC LIBRARY BOOKMOBILE,300 E. RUTLEDGE AVENUE,GAFFNEY,29340,2227,CHEROKEE,8644872711,BS,-4,N_19,1,962,R_19,52,R_19,2019,5,0,0,0,45,21,28060,57300,31,9706.01,1013,4505,23500,1,A,621,45021970601,+35.0111132,-081.6599835,35.06634,-81.6511
SC,SC0010,4,Y,SC0010-004,CHEROKEE COUNTY PUBLIC LIBRARY,300 E. RUTLEDGE AVENUE,GAFFNEY,29340,2227,CHEROKEE,8644872711,CE,21245,R_19,0,2860,R_19,52,R_19,2019,5,0,0,0,45,21,28060,57300,31,9706.01,1013,4505,23500,1,A,621,45021970601,+35.0111132,-081.6599835,35.06634,-81.6511
SC,SC0011,2,Y,SC0011-002,CHESTER COUNTY LIBRARY BOOKMOBILE,100 CENTER STREET,CHESTER,29706,1703,CHESTER,8033778145,BS,-4,N_19,1,416,R_19,52,R_19,2019,5,0,0,0,45,23,14095,32244,32,202,2005,4505,16740,0,A,217,45023020200,+34.7003242,-081.2195686,34.70489,-81.2142
SC,SC0011,3,Y,SC0011-003,GREAT FALLS BRANCH LIBRARY,39 CALHOUN STREET,GREAT FALLS,29055,1504,CHESTER,8034822149,BR,3400,R_19,0,2548,R_19,52,R_19,2019,5,0,0,0,45,23,30490,32244,42,210,2061,4505,16740,0,A,222,45023021000,+34.5721311,-080.9053042,34.57029,-80.8972
SC,SC0011,4,Y,SC0011-004,CHESTER COUNTY LIBRARY,100 CENTER STREET,CHESTER,29706,1703,CHESTER,8033778145,CE,22508,R_19,0,2990,R_19,52,R_19,2019,5,0,0,0,45,23,14095,32244,32,202,2005,4505,16740,0,A,217,45023020200,+34.7003242,-081.2195686,34.70489,-81.2142
SC,SC0011,5,Y,SC0011-005,LEWISVILLE COMMUNITY LIBRARY,3771 LANCASTER HWY,RICHBURG,29729,9049,CHESTER,8037897800,BR,4108,R_19,0,2548,R_19,52,R_19,2019,5,0,0,0,45,23,59920,32244,42,207,2037,4505,16740,0,A,215,45023020700,+34.7364624,-081.0291076,34.71936,-81.0115
SC,SC0012,3,Y,SC0012-003,MATHESON MEMORIAL LIBRARY,227 HUGER STREET,CHERAW,29520,2628,CHESTERFIELD,8435373571,BR,6000,R_19,0,2496,R_19,52,R_19,2019,5,0,0,0,45,25,13600,45650,32,9506,1020,4507,-4,N,A,486,45025950600,+34.5951251,-079.8967144,34.69503,-79.8897
SC,SC0012,4,Y,SC0012-004,PAGELAND COMMUNITY LIBRARY,109 WEST BLAKENEY STREET,PAGELAND,29728,2101,CHESTERFIELD,8436726930,BR,2208,R_19,0,2236,R_19,52,R_19,2019,5,0,0,0,45,25,54025,45650,32,9501.01,1011,4507,-4,N,A,782,45025950101,+34.7587822,-080.4600952,34.76949,-80.3911
SC,SC0012,5,Y,SC0012-005,FANNIE D. LOWRY MEMORIAL LIBRARY,500 N. MAIN ST.,JEFFERSON,29718,M,CHESTERFIELD,8436583966,BR,1275,R_19,0,936,R_19,52,R_19,2019,5,0,0,0,45,25,36610,45650,42,9502,2090,4507,-4,N,A,496,45025950200,+34.6454671,-080.3337693,34.66075,-80.3876
SC,SC0012,6,Y,SC0012-006,MCBEE DEPOT LIBRARY,110 WEST PINE AVE.,MCBEE,29101,M,CHESTERFIELD,8433357515,BR,1000,R_19,0,624,R_19,52,R_19,2019,5,0,0,0,45,25,43495,45650,42,9508,2189,4507,-4,N,A,498,45025950800,+34.4978789,-080.2561591,34.46943,-80.2582
SC,SC0012,7,Y,SC0012-007,CHESTERFIELD COUNTY LIBRARY SYSTEM,119 W. MAIN STREET,CHESTERFIELD,29709,1702,CHESTERFIELD,8436237489,CE,16655,R_19,0,2496,R_19,52,R_19,2019,5,0,0,0,45,25,14140,45650,42,9504,2002,4507,-4,N,A,497,45025950400,+34.7255811,-080.1008750,34.73596,-80.0877
SC,SC0013,2,Y,SC0013-002,CLARENDON COUNTY LIBRARY SYSTEM,215 N. BROOKS ST.,MANNING,29102,3209,CLARENDON,8034358633,CE,6768,R_19,0,2668,R_19,52,R_19,2019,5,0,0,0,45,27,44350,33745,32,9605,1055,4506,44940,0,A,598,45027960500,+33.7032431,-080.2749535,33.69957,-80.2105
SC,SC0013,3,Y,SC0013-003,CLARENDON COUNTY LIBRARY SYSTEM BOOKMOBILE,215 N. BROOKS STREET,MANNING,29102,3209,CLARENDON,8034358633,BS,-4,N_19,1,457,R_19,52,R_19,2019,5,0,0,0,45,27,44350,33745,32,9605,1055,4506,44940,0,A,598,45027960500,+33.7032431,-080.2749535,33.69957,-80.2105
SC,SC0014,2,Y,SC0014-002,COLLETON COUNTY MEMORIAL LIBRARY,600 HAMPTON STREET,WALTERBORO,29488,4017,COLLETON,8435495621,CE,23339,R_19,0,2040,R_19,51,R_19,2019,5,0,0,0,45,29,74275,37677,32,9705,3005,4506,-4,N,A,725,45029970500,+32.9053462,-080.6718142,32.90171,-80.6569
SC,SC0014,3,Y,SC0014-003,EDISTO BEACH LIBRARY,71 STATION COURT,EDISTO ISLAND,29438,3020,COLLETON,8438692499,BR,1339,R_19,0,740,R_19,51,R_19,2019,5,0,0,0,45,29,M,37677,42,9708,3007,4501,-4,N,A,721,45029970800,+32.6282954,-080.5036583,32.5207,-80.2988
SC,SC0014,4,Y,SC0014-004,COLLETON COUNTY MEMORIAL LIBRARY BOOKMOBILE,600 HAMPTON STREET,WATERBORO,29488,4017,COLLETON,8435495621,BS,-4,N_19,1,1224,R_19,51,R_19,2019,5,0,0,0,45,29,74275,37677,32,9705,3005,4506,-4,N,A,725,45029970500,+32.9053462,-080.6718142,32.90171,-80.6569
SC,SC0014,5,Y,SC0014-005,COTTAGEVILLE BRANCH LIBRARY,72 SALLEY ACKERMAN DRIVE,COTTAGEVILLE,29435,5441,COLLETON,8438355621,BR,2500,R_19,0,49,R_19,51,R_19,2019,5,0,0,0,45,29,16990,37677,42,9707,3019,4506,-4,N,A,724,45029970700,+32.9441939,-080.4785182,32.93432,-80.4824
SC,SC0015,2,Y,SC0015-002,HARTSVILLE MEMORIAL LIBRARY,147 W. COLLEGE AVE,HARTSVILLE,29550,4113,DARLINGTON,8433325115,BR,20620,R_19,0,3068,R_19,52,R_19,2019,5,0,0,0,45,31,32560,66618,32,105,3016,4507,22500,0,A,993,45031010500,+34.3693401,-080.0874346,34.37482,-80.0749
SC,SC0015,3,Y,SC0015-003,LAMAR DISTRICT LIBRARY,103 E. MAIN STREET,LAMAR,29069,M,DARLINGTON,8433265524,BR,6200,R_19,0,2444,R_19,52,R_19,2019,5,0,0,0,45,31,39805,66618,42,116,2032,4507,22500,0,A,994,45031011600,+34.1546333,-080.0807553,34.16858,-80.0625
SC,SC0015,4,Y,SC0015-004,SOCIETY HILL LIBRARY,114 CARRIGAN ST.,SOCIETY HILL,29593,M,DARLINGTON,8433780026,BR,4400,R_19,0,2444,R_19,52,R_19,2019,5,0,0,0,45,31,67435,66618,42,101,4015,4507,22500,0,A,992,45031010100,+34.4505586,-079.8239245,34.51032,-79.8527
SC,SC0015,5,Y,SC0015-005,DARLINGTON COUNTY LIBRARY SYSTEM,204 N. MAIN STREET,DARLINGTON,29532,3125,DARLINGTON,8433984940,CE,15000,R_19,0,3068,R_19,52,R_19,2019,5,0,0,0,45,31,18565,66618,23,111,1021,4507,22500,0,A,982,45031011100,+34.3032610,-079.8702831,34.30489,-79.8726
SC,SC0016,3,Y,SC0016-003,SADIE CARMICHAEL BRANCH LIBRARY (LAKE VIEW),207 S. MAIN STREET,LAKE VIEW,29563,M,DILLON,8037592692,BR,4830,R_19,0,1820,R_19,52,R_19,2019,5,0,0,0,45,33,39715,30479,42,9705,5057,4507,-4,N,A,716,45033970500,+34.3339068,-079.2077718,34.34212,-79.1659
SC,SC0016,4,Y,SC0016-004,DILLON COUNTY LIBRARY BOOKMOBILE,600 EAST MAIN STREET,DILLON,29536,3558,DILLON,8437740330,BS,-4,N_19,1,520,R_19,52,R_19,2019,5,0,0,0,45,33,19420,30479,32,9704,3006,4507,-4,N,A,713,45033970300,+34.4536751,-079.4414521,34.41438,-79.3668
SC,SC0016,5,Y,SC0016-005,DILLON COUNTY LIBRARY SYSTEM,600 EAST MAIN STREET,DILLON,29536,3558,DILLON,8437740330,CE,10500,R_19,0,2080,R_19,52,R_19,2019,5,0,0,0,45,33,19420,30479,32,9704,3006,4507,-4,N,A,713,45033970300,+34.4536751,-079.4414521,34.41438,-79.3668
SC,SC0016,6,Y,SC0016-006,LATTA BRANCH LIBRARY,101 NORTH MARION STREET,LATTA,29565,1311,DILLON,8437525389,BR,4000,R_19,0,2080,R_19,52,R_19,2019,5,0,0,0,45,33,40480,30479,42,9706,3034,4507,-4,N,A,718,45033970600,+34.3374526,-079.4823899,34.3393,-79.4342
SC,SC0017,2,Y,SC0017-002,SUMMERVILLE BRANCH LIBRARY,76 OLD TROLLEY ROAD,SUMMERVILLE,29485,4904,DORCHESTER,8438715075,BR,19863,R_19,0,3172,R_19,52,R_19,2019,5,0,0,0,45,35,70270,162809,21,108.08,1000,4501,16700,0,A,881,45035010808,+32.9763518,-080.1774487,32.99772,-80.1822
SC,SC0017,3,Y,SC0017-003,DORCHESTER COUNTY LIBRARY BOOKMOBILE,506 N. PARLER AVENUE,ST. GEORGE,29477,2230,DORCHESTER,8435639189,BS,-4,N_19,1,346,R_19,37,R_19,2019,5,0,0,0,45,35,62530,162809,42,102,2107,4506,16700,0,A,883,45035010200,+33.1882779,-080.5663258,33.18831,-80.5716
SC,SC0017,5,Y,SC0017-004,DORCHESTER COUNTY LIBRARY: SAINT GEORGE,506 N. PARLER AVENUE,ST. GEORGE,29477,2230,DORCHESTER,8435639189,CE,13638,R_19,0,3172,R_19,52,R_19,2019,5,0,0,0,45,35,62530,162809,42,102,2107,4506,16700,0,A,883,45035010200,+33.1882779,-080.5663258,33.18831,-80.5716
SC,SC0018,2,Y,SC0018-002,FAIRFIELD COUNTY LIBRARY,300 W. WASHINGTON STREET,WINNSBORO,29180,1333,FAIRFIELD,8036354971,CE,6000,R_19,0,2704,R_19,52,R_19,2019,5,0,0,0,45,39,78460,22347,32,9604,4028,4505,17900,0,A,726,45039960400,+34.3646209,-081.0494245,34.37972,-81.0897
SC,SC0018,4,Y,SC0018-004,FAIRFIELD COUNTY LIBRARY BOOKMOBILE,300 W. WASHINGTON STREET,WINNSBORO,29180,1333,FAIRFIELD,8036354971,BS,-4,N_19,1,300,R_19,52,R_19,2019,5,0,0,0,45,39,78460,22347,32,9604,4028,4505,17900,0,A,726,45039960400,+34.3646209,-081.0494245,34.37972,-81.0897
SC,SC0018,5,Y,SC0018-005,RIDGEWAY BRANCH LIBRARY,175 S. PALMER STREET,RIDGEWAY,29130,M,FAIRFIELD,8033372068,BR,700,R_19,0,832,IP17,52,IP17,2019,5,0,0,0,45,39,60415,22347,41,9603,2084,4505,17900,0,A,729,45039960300,+34.3424663,-080.9219134,34.3067,-80.9598
SC,SC0019,2,Y,SC0019-002,JOHNSONVILLE PUBLIC LIBRARY,252 SOUTH GEORGETOWN HIGHWAY,JOHNSONVILLE,29555,8080,FLORENCE,8433862052,BR,6500,R_19,0,2496,R_19,52,R_19,2019,5,0,0,0,45,41,37105,138293,42,19,5043,4507,22500,0,A,1072,45041001900,+33.8455832,-079.4838564,33.81533,-79.4418
SC,SC0019,3,Y,SC0019-003,LAKE CITY PUBLIC LIBRARY,221 EAST MAIN STREET,LAKE CITY,29560,2113,FLORENCE,8433948071,BR,11300,R_19,0,2594,R_19,52,R_19,2019,5,0,0,0,45,41,39310,138293,32,22.02,2005,4506,22500,0,A,1093,45041002202,+33.8389294,-079.7194929,33.87121,-79.7517
SC,SC0019,4,Y,SC0019-004,OLANTA PUBLIC LIBRARY,210 EAST HAMPTON STREET,OLANTA,29114,9376,FLORENCE,8433964287,BR,6500,R_19,0,2184,R_19,52,R_19,2019,5,0,0,0,45,41,52540,138293,42,24,3011,4506,22500,0,A,1061,45041002400,+33.9317418,-079.8698900,33.93878,-79.9293
SC,SC0019,6,Y,SC0019-006,TIMMONSVILLE PUBLIC LIBRARY,298 WEST SMITH STREET,TIMMONSVILLE,29161,1740,FLORENCE,8433462941,BR,6500,R_19,0,1923,R_19,52,R_19,2019,5,0,0,0,45,41,71980,138293,23,26,3027,4507,22500,0,A,1059,45041002600,+34.0956922,-079.9204399,34.13014,-79.9425
SC,SC0019,7,Y,SC0019-007,FLORENCE COUNTY LIBRARY BOOKMOBILE,509 S. DARGAN STREET,FLORENCE,29506,2549,FLORENCE,8436628424,BS,-4,N_19,1,1300,R_19,52,R_19,2019,5,0,0,0,45,41,25810,138293,13,10,2029,4507,22500,0,A,1084,45041001000,+34.1911403,-079.7695503,34.18924,-79.7653
SC,SC0019,8,Y,SC0019-008,FLORENCE COUNTY LIBRARY,509 SOUTH DARGAN STREET,FLORENCE,29506,2549,FLORENCE,8436628424,CE,83000,R_19,0,3484,R_19,52,R_19,2019,5,0,0,0,45,41,25810,138293,13,10,2029,4507,22500,0,A,1084,45041001000,+34.1911403,-079.7695503,34.18924,-79.7653
SC,SC0019,10,Y,SC0019-010,PAMPLICO BRANCH LIBRARY,100 EAST MAIN STREET,PAMPLICO,29583,M,FLORENCE,8434137077,BR,8134,R_19,0,2022,R_19,52,R_19,2019,5,0,0,0,45,41,54340,138293,42,18,1048,4507,22500,0,A,1075,45041001800,+33.9396465,-079.5799293,33.99593,-79.5698
SC,SC0020,2,Y,SC0020-002,GEORGETOWN COUNTY LIBRARY,405 CLELAND STREET,GEORGETOWN,29440,3200,GEORGETOWN,8435453304,CE,19331,R_19,0,3240,R_19,52,R_19,2019,5,0,0,0,45,43,28870,62680,32,9203.02,1030,4507,23860,1,A,255,45043920302,+33.3895567,-079.2722447,33.37359,-79.2848
SC,SC0020,3,Y,SC0020-003,ANDREWS BRANCH LIBRARY,105 NORTH MORGAN STREET,ANDREWS,29510,M,GEORGETOWN,8435453621,BR,10000,R_19,0,2288,R_19,52,R_19,2019,5,0,0,0,45,43,1450,62680,32,9202.01,3008,4507,23860,1,A,479,45043920201,+33.4085413,-079.4854138,33.45357,-79.5605
SC,SC0020,4,Y,SC0020-004,GEORGETOWN COUNTY LIBRARY BOOKMOBILE,405 CLELAND STREET,GEORGETOWN,29440,3200,GEORGETOWN,8435453300,BS,-4,N_19,1,1218,R_19,52,R_19,2019,5,0,0,0,45,43,28870,62680,32,9203.02,1030,4507,23860,1,A,255,45043920302,+33.3895567,-079.2722447,33.37359,-79.2848
SC,SC0020,5,Y,SC0020-005,WACCAMAW BRANCH LIBRARY,24 COMMERCE DRIVE,PAWLEY`S ISLAND,29585,6011,GEORGETOWN,8435453623,BR,17000,R_19,0,3240,R_19,52,R_19,2019,5,0,0,0,45,43,M,62680,31,9205.03,3007,4507,23860,1,A,533,45043920503,+33.4766920,-079.1281755,33.44881,-79.1223
SC,SC0020,7,Y,SC0020-006,CARVER`S BAY BRANCH LIBRARY,13048 CHOPPEE ROAD,HEMINGWAY,29554,3318,GEORGETOWN,8435453515,BR,7550,R_19,0,2080,R_19,52,R_19,2019,5,0,0,0,45,43,M,62680,42,9204,1105,4507,23860,1,A,302,45043920400,+33.5532527,-079.2329199,33.61129,-79.3295
SC,SC0021,2,Y,SC0021-002,GREENVILLE COUNTY LIBRARY: HUGHES LIBRARY,25 HERITAGE GREEN PLACE,GREENVILLE,29601,2034,GREENVILLE,8642425000,CE,119215,R_19,0,3530,R_19,52,R_19,2019,5,0,0,0,45,45,30850,523542,13,10,2012,4504,24860,0,A,148,45045001000,+34.8606403,-082.4002483,34.85671,-82.4015
SC,SC0021,3,Y,SC0021-003,AUGUSTA ROAD BRANCH,100 LYDIA STREET,GREENVILLE,29605,1241,GREENVILLE,8642770161,BR,11500,R_19,0,3315,R_19,52,R_19,2019,5,0,0,0,45,45,30850,523542,13,15.02,1009,4504,24860,0,A,135,45045001502,+34.8028510,-082.3837910,34.80496,-82.3781
SC,SC0021,4,Y,SC0021-004,BEREA BRANCH,111 NORTH HWY. 25 BYPASS,GREENVILLE,29617,1105,GREENVILLE,8642461695,BR,11173,R_19,0,3315,R_19,52,R_19,2019,5,0,0,0,45,45,M,523542,21,37.01,1019,4504,24860,0,A,286,45045003701,+34.9089437,-082.4780232,34.91947,-82.4598
SC,SC0021,5,Y,SC0021-005,PELHAM ROAD BRANCH,1508 PELHAM ROAD,GREENVILLE,29615,3923,GREENVILLE,8642886688,BR,12050,R_19,0,3315,R_19,52,R_19,2019,5,0,0,0,45,45,M,523542,21,28.05,2007,4504,24860,0,A,4,45045002805,+34.8495102,-082.2900591,34.85697,-82.3006
SC,SC0021,6,Y,SC0021-006,FOUNTAIN INN BRANCH,311 NORTH MAIN STREET,FOUNTAIN INN,29644,1603,GREENVILLE,8648622576,BR,11306,R_19,0,3315,R_19,52,R_19,2019,5,0,0,0,45,45,27070,523542,22,31.01,2037,4503,24860,0,A,23,45045003101,+34.7043385,-082.2045941,34.6964,-82.2029
SC,SC0021,7,Y,SC0021-007,GREER BRANCH,505 PENNSYLVANIA AVE.,GREER,29650,1732,GREENVILLE,8648778722,BR,10905,R_19,0,3315,R_19,52,R_19,2019,5,0,0,0,45,45,30985,523542,21,25.05,3017,4504,24860,0,A,143,45045002505,+34.9340064,-082.2349844,34.94011,-82.247
SC,SC0021,8,Y,SC0021-008,MAULDIN BRANCH,800 WEST BUTLER ROAD,GREENVILLE,29607,4838,GREENVILLE,8642777397,BR,11454,R_19,0,3315,R_19,52,R_19,2019,5,0,0,0,45,45,45115,523542,22,29.04,1036,4504,24860,0,A,157,45045002904,+34.7790647,-082.3298211,34.77526,-82.3259
SC,SC0021,9,Y,SC0021-009,SIMPSONVILLE BRANCH,626 NE MAIN STREET,SIMPSONVILLE,29681,2025,GREENVILLE,8649639031,BR,11159,R_19,0,3315,R_19,52,R_19,2019,5,0,0,0,45,45,66580,523542,22,30.1,2039,4504,24860,0,A,163,45045003010,+34.7569276,-082.2476429,34.74759,-82.2609
SC,SC0021,10,Y,SC0021-010,TRAVELERS REST BRANCH,17 CENTER STREET,TRAVELERS REST,29690,1826,GREENVILLE,8648343650,BR,10929,R_19,0,3315,R_19,52,R_19,2019,5,0,0,0,45,45,72430,523542,21,39.04,2047,4504,24860,0,A,289,45045003904,+34.9863586,-082.4422353,34.96906,-82.4401
SC,SC0021,11,Y,SC0021-011,TAYLORS BRANCH,316 WEST MAIN STREET,TAYLORS,29687,2210,GREENVILLE,8642685955,BR,11306,R_19,0,3315,R_19,52,R_19,2019,5,0,0,0,45,45,71395,523542,21,26.04,1066,4504,24860,0,A,14,45045002604,+34.9153567,-082.2848315,34.9196,-82.307
SC,SC0021,12,Y,SC0021-012,ANDERSON ROAD BRANCH,2625 ANDERSON ROAD,GREENVILLE,29611,6019,GREENVILLE,8642695210,BR,11306,R_19,0,3315,R_19,52,R_19,2019,5,0,0,0,45,45,M,523542,21,21.07,1032,4504,24860,0,A,183,45045002107,+34.8167433,-082.4266676,34.81631,-82.4401
SC,SC0021,13,Y,SC0021-013,GREENVILLE COUNTY LIBRARY BOOKMOBILE,25 HERITAGE GREEN PLACE,GREENVILLE,29601,2034,GREENVILLE,8642425238,BS,-4,N_19,1,740,R_19,52,R_19,2019,5,0,0,0,45,45,30850,523542,13,10,2012,4504,24860,0,A,148,45045001000,+34.8606403,-082.4002483,34.85671,-82.4015
SC,SC0021,17,Y,SC0021-017,FIVE FORKS BRANCH,104 SUNNYDALE DRIVE,SIMPSONVILLE,29681,4801,GREENVILLE,8642344904,BR,28064,R_19,0,960,R_19,14,R_19,2019,5,0,0,0,45,45,25540,523542,22,28.14,1016,4504,24860,0,A,129,45045002814,+34.8299663,-082.2121214,34.80823,-82.2228
SC,SC0022,2,Y,SC0022-002,CONWAY LIBRARY,801 MAIN ST,CONWAY,29526,4343,HORRY,8439157323,CE,28000,R_19,0,2340,R_19,52,R_19,2019,5,0,0,0,45,51,16405,354081,13,702,2069,4507,34820,0,A,974,45051070200,+33.8580120,-079.0476531,33.84182,-79.0505
SC,SC0022,3,Y,SC0022-003,AYNOR LIBRARY,500 9TH. AVENUE,AYNOR,29511,3150,HORRY,8433583324,BR,4000,R_19,0,1924,R_19,52,R_19,2019,5,0,0,0,45,51,3430,354081,42,801.02,2026,4507,34820,0,A,537,45051080102,+34.0039385,-079.2072429,33.99806,-79.2002
SC,SC0022,4,Y,SC0022-004,NORTH MYRTLE BEACH LIBRARY,910 1ST AVE SOUTH,NORTH MYRTLE BEACH,29582,3102,HORRY,8439155281,BR,19888,R_19,0,1742,R_19,52,R_19,2019,5,0,0,0,45,51,51280,354081,13,403,1061,4507,34820,0,A,1057,45051040300,+33.8340470,-078.6677196,33.82756,-78.6826
SC,SC0022,5,Y,SC0022-005,LORIS LIBRARY,4316 MAIN STREET,LORIS,29569,2614,HORRY,8437568101,BR,4300,R_19,0,1742,R_19,52,R_19,2019,5,0,0,0,45,51,42730,354081,42,202,2060,4507,34820,0,A,1056,45051020200,+34.0490659,-078.8433664,34.05485,-78.8869
SC,SC0022,6,Y,SC0022-006,SURFSIDE BEACH LIBRARY,410 SURFSIDE DRIVE,SURFSIDE BEACH,29575,3779,HORRY,8439155280,BR,17260,R_19,0,2080,R_19,52,R_19,2019,5,0,0,0,45,51,70585,354081,22,512.01,2048,4507,34820,0,A,818,45051051201,+33.6145803,-078.9706701,33.60734,-78.9748
SC,SC0022,7,Y,SC0022-007,HORRY COUNTY MEMORIAL LIBRARY BOOKMOBILE,1603 4TH AVENUE,CONWAY,29526,5037,HORRY,8439156388,BS,-4,N_19,1,2184,R_19,52,R_19,2019,5,0,0,0,45,51,16405,354081,13,703,2058,4507,34820,0,A,1097,45051070300,+33.8534671,-079.0653864,33.83129,-79.0574
SC,SC0022,8,Y,SC0022-008,SOCASTEE LIBRARY,141-707 CONNECTOR RD,MYRTLE BEACH,29588,M,HORRY,8432154700,BR,23000,R_19,0,2964,R_19,52,R_19,2019,5,0,0,0,45,51,67390,354081,22,516.01,2001,4507,34820,0,A,973,45051051601,+33.6597535,-079.0227565,33.67515,-79.003
SC,SC0022,9,Y,SC0022-009,BUCKSPORT LIBRARY,7657 HWY 701 SOUTH,CONWAY,29527,7846,HORRY,8433971950,BR,3000,R_19,0,1664,R_19,52,R_19,2019,5,0,0,0,45,51,M,354081,41,706.02,2077,4507,34820,0,A,520,45051070602,+33.7107240,-079.1159442,33.70191,-79.1072
SC,SC0022,10,Y,SC0022-010,LITTLE RIVER LIBRARY,107 HWY 57 NORTH,LITTLE RIVER,29566,7050,HORRY,8439155284,BR,4000,R_19,0,1664,R_19,52,R_19,2019,5,0,0,0,45,51,M,354081,22,401.01,1027,4507,34820,0,A,810,45051040101,+33.8980755,-078.6953749,33.88482,-78.6851
SC,SC0022,11,Y,SC0022-011,GREEN SEA FLOYDS LIBRARY,5331 HWY 9,GREEN SEA,29545,4949,HORRY,8433920994,BR,3700,R_19,0,1924,R_19,52,R_19,2019,5,0,0,0,45,51,M,354081,42,101,2094,4507,34820,0,A,978,45051010100,+34.1740918,-079.0834546,34.1478,-79.0224
SC,SC0022,12,Y,SC0022-012,CAROLINA FOREST LIBRARY,2250 CAROLINA FOREST BLVD,MYRTLE BEACH,29579,3654,HORRY,8439155282,BR,19888,R_19,0,1664,R_19,52,R_19,2019,5,0,0,0,45,51,M,354081,22,602.06,1000,4507,34820,0,A,552,45051060206,+33.7481936,-078.9320200,33.76121,-78.89
SC,SC0023,2,Y,SC0023-002,CAMDEN LIBRARY,1304 BROAD STREET,CAMDEN,29020,3506,KERSHAW,8034251508,CE,13660,R_19,0,3276,R_19,52,R_19,2019,5,0,0,0,45,55,10855,66551,31,9708,3021,4505,17900,0,A,127,45055970800,+34.2226390,-080.5951484,34.24996,-80.6074
SC,SC0023,3,Y,SC0023-003,BETHUNE BRANCH LIBRARY,206 S. MAIN STREET,BETHUNE,29009,M,KERSHAW,8033348420,BR,1175,R_19,0,936,R_19,52,R_19,2019,5,0,0,0,45,55,6040,66551,42,9701,2037,4505,17900,0,A,122,45055970100,+34.4265586,-080.3805615,34.413,-80.3465
SC,SC0023,4,Y,SC0023-004,KERSHAW COUNTY LIBRARY BOOKMOBILE,632 WEST DEKALB STREET,CAMDEN,29020,4254,KERSHAW,8034242353,BS,-4,N_19,1,391,R_19,52,R_19,2019,5,0,0,0,45,55,10855,66551,31,9708,3033,4505,17900,0,A,127,45055970800,+34.2226390,-080.5951484,34.24639,-80.6081
SC,SC0023,5,Y,SC0023-005,ELGIN BRANCH LIBRARY,2652 MAIN STREET,ELGIN,29045,9415,KERSHAW,8034387881,BR,3600,R_19,0,2496,R_19,52,R_19,2019,5,0,0,0,45,55,23245,66551,21,9709.03,2028,4505,17900,0,A,495,45055970903,+34.1746939,-080.8163615,34.16628,-80.8017
SC,SC0024,2,Y,SC0024-002,LANCASTER COUNTY LIBRARY SYSTEM,313 S. WHITE ST.,LANCASTER,29720,2506,LANCASTER,8032851502,CE,16433,R_19,0,3146,R_19,52,R_19,2019,5,0,0,0,45,57,39895,98012,32,107,2014,4505,16740,0,A,774,45057010700,+34.7180813,-080.7600821,34.71789,-80.7681
SC,SC0024,3,Y,SC0024-003,KERSHAW BRANCH LIBRARY,3855 FORK HILL ROAD,KERSHAW,29067,9297,LANCASTER,8034752609,BR,4900,R_19,0,1976,R_19,52,R_19,2019,5,0,0,0,45,57,M,98012,42,102,3059,4505,16740,0,A,770,45057010200,+34.5820726,-080.5578749,34.56975,-80.5868
SC,SC0024,4,Y,SC0024-004,LANCASTER COUNTY LIBRARY BOOKMOBILE,313 S. WHITE STREET,LANCASTER,29720,2506,LANCASTER,8032851502,BS,-4,N_19,1,3146,R_19,52,R_19,2019,5,0,0,0,45,57,39895,98012,32,107,2014,4505,16740,0,A,774,45057010700,+34.7180813,-080.7600821,34.71789,-80.7681
SC,SC0024,5,Y,SC0024-005,DEL WEBB LIBRARY AT INDIAN LAND,7641 CHARLOTTE HIGHWAY,INDIAN LAND,29707,9653,LANCASTER,8035489260,BR,11000,R_19,0,2704,R_19,52,R_19,2019,5,0,0,0,45,57,M,98012,21,112.02,1040,4505,16740,0,A,505,45057011202,+34.8889877,-080.8262996,34.93406,-80.8356
SC,SC0025,2,Y,SC0025-002,LAURENS COUNTY LIBRARY SYSTEM,1017 WEST MAIN STREET,LAURENS,29360,2647,LAURENS,8646817323,CE,31500,R_19,0,2723,R_19,52,R_19,2019,5,0,0,0,45,59,40615,67493,32,9204,5001,4503,24860,0,A,270,45059920400,+34.4928213,-082.0269534,34.49348,-82.035
SC,SC0025,3,Y,SC0025-003,CLINTON PUBLIC LIBRARY,"107 JACOBS HIGHWAY, SUITE A",CLINTON,29325,7282,LAURENS,8648331853,BR,8500,R_19,0,2540,R_19,52,R_19,2019,5,0,0,0,45,59,15295,67493,32,9208,2034,4503,24860,0,A,267,45059920800,+34.4227328,-081.8992407,34.45799,-81.8777
SC,SC0025,5,Y,SC0025-005,LAURENS COUNTY LIBRARY BOOKMOBILE,1107 W. MAIN STREET,LAURENS,29360,2609,LAURENS,8646817323,BS,-4,N_19,1,158,R_19,36,R_19,2019,5,0,0,0,45,59,40615,67493,41,9204,5003,4503,24860,0,A,270,45059920400,+34.4928213,-082.0269534,34.49598,-82.0419
SC,SC0026,2,Y,SC0026-002,LEE COUNTY PUBLIC LIBRARY SYSTEM,200 NORTH MAIN STREET,BISHOPVILLE,29010,1416,LEE,8034845921,CE,2970,R_19,0,2600,R_19,52,R_19,2019,5,0,0,0,45,61,6310,16828,32,9203.02,2045,4505,-4,N,A,418,45061920302,+34.1505544,-080.2166106,34.21895,-80.2474
SC,SC0027,2,Y,SC0027-002,LEXINGTON COUNTY PUBLIC LIBRARY SYSTEM,5440 AUGUSTA ROAD,LEXINGTON,29072,3892,LEXINGTON,8037852600,CE,48000,R_19,0,3484,R_19,52,R_19,2019,5,0,0,0,45,63,41335,298750,21,210.3,1020,4502,17900,0,A,801,45063021030,+33.9818300,-081.2111492,33.97453,-81.2197
SC,SC0027,3,Y,SC0027-003,CAYCE-WEST COLUMBIA BRANCH LIBRARY,1500 AUGUSTA ROAD,WEST COLUMBIA,29169,6129,LEXINGTON,8037946791,BR,20000,R_19,0,3484,R_19,52,R_19,2019,5,0,0,0,45,63,75850,298750,21,205.05,2050,4502,17900,0,A,669,45063020505,+33.9923387,-081.0921352,33.98635,-81.0778
SC,SC0027,4,Y,SC0027-004,BATESBURG-LEESVILLE BRANCH LIBRARY,203 ARMORY STREET,BATESBURG,29006,1435,LEXINGTON,8035329223,BR,7900,R_19,0,2964,R_19,52,R_19,2019,5,0,0,0,45,63,4300,298750,41,214.02,3007,4502,17900,0,A,659,45063021402,+33.9067406,-081.5379320,33.91777,-81.5346
SC,SC0027,5,Y,SC0027-005,IRMO BRANCH LIBRARY,6251 ST. ANDREWS ROAD,COLUMBIA,29212,3152,LEXINGTON,8037987880,BR,25000,R_19,0,3484,R_19,52,R_19,2019,5,0,0,0,45,63,65207,298750,21,211.11,1034,4502,17900,0,A,310,45063021109,+34.0512270,-081.1754666,34.05939,-81.1628
SC,SC0027,6,Y,SC0027-006,PELION BRANCH LIBRARY,206 PINE STREET,PELION,29123,9807,LEXINGTON,8037853272,BR,6000,R_19,0,2080,R_19,52,R_19,2019,5,0,0,0,45,63,55420,298750,42,209.03,1061,4502,17900,0,A,315,45063020903,+33.7695612,-081.3006091,33.76918,-81.2427
SC,SC0027,7,Y,SC0027-007,CHAPIN BRANCH LIBRARY,129 N.W. COLUMBIA AVENUE,CHAPIN,29036,M,LEXINGTON,8033455479,BR,6500,R_19,0,2288,R_19,52,R_19,2019,5,0,0,0,45,63,13150,298750,41,212.04,2049,4502,17900,0,A,375,45063021204,+34.1597134,-081.3343000,34.17108,-81.3587
SC,SC0027,8,Y,SC0027-008,GASTON BRANCH LIBRARY,214 S. MAIN,GASTON,29053,9116,LEXINGTON,8037913208,BR,4000,R_19,0,1716,R_19,52,R_19,2019,5,0,0,0,45,63,28780,298750,21,208.02,1014,4502,17900,0,A,365,45063020802,+33.7720562,-081.0791953,33.81449,-81.1022
SC,SC0027,9,Y,SC0027-009,SWANSEA BRANCH LIBRARY,199 N. LAWRENCE AVENUE,SWANSEA,29160,9406,LEXINGTON,8037853519,BR,4000,R_19,0,1716,R_19,52,R_19,2019,5,0,0,0,45,63,70675,298750,41,208.02,1084,4502,17900,0,A,365,45063020802,+33.7720562,-081.0791953,33.73875,-81.0974
SC,SC0027,10,Y,SC0027-010,GILBERT BRANCH LIBRARY,405 BROAD STREET,GILBERT,29054,8451,LEXINGTON,8037855387,BR,4000,R_19,0,1716,R_19,52,R_19,2019,5,0,0,0,45,63,29050,298750,41,213.05,1060,4502,17900,0,A,319,45063021305,+33.9090644,-081.4354958,33.91971,-81.4047
SC,SC0027,11,Y,SC0027-011,LEXINGTON COUNTY PUBLIC LIBRARY BOOKMOBILE,5440 AUGUSTA ROAD,LEXINGTON,29072,3892,LEXINGTON,8037852649,BS,-4,N_19,1,1500,R_19,50,R_19,2019,5,0,0,0,45,63,41335,298750,21,210.3,1020,4502,17900,0,A,801,45063021030,+33.9818300,-081.2111492,33.97453,-81.2197
SC,SC0027,12,Y,SC0027-012,SOUTH CONGAREE - PINE RIDGE BRANCH,200 SUNSET DRIVE,WEST COLUMBIA,29172,2101,LEXINGTON,8037853050,BR,4000,R_19,0,1716,R_19,52,R_19,2019,5,0,0,0,45,63,67705,298750,21,207.03,1004,4502,17900,0,A,655,45063020703,+33.9136144,-081.1464299,33.91148,-81.1318
SC,SC0028,2,Y,SC0028-002,MCCORMICK COUNTY LIBRARY,201 RAILROAD AVE.,MCCORMICK,29835,8576,MCCORMICK,8648522821,CE,8400,R_19,0,2288,R_19,51,R_19,2019,5,0,0,0,45,65,43720,9463,42,9202,4018,4503,-4,N,A,441,45065920200,+33.9241259,-082.2468990,33.91439,-82.2966
SC,SC0029,2,Y,SC0029-002,MARION COUNTY LIBRARY,101 EAST COURT STREET,MARION,29571,3631,MARION,8434238300,CE,6930,R_19,0,2574,R_19,52,R_19,2019,5,0,0,0,45,67,44575,30657,32,9506,4006,4507,-4,N,A,454,45067950600,+34.1309919,-079.3264614,34.17822,-79.3997
SC,SC0029,3,Y,SC0029-003,MULLINS LIBRARY,210 NORTH MAIN STREET,MULLINS,29574,2708,MARION,8434649621,BR,3400,R_19,0,1950,R_19,52,R_19,2019,5,0,0,0,45,67,48805,30657,32,9504,4016,4507,-4,N,A,453,45067950400,+34.2456525,-079.2054743,34.20691,-79.2548
SC,SC0029,4,Y,SC0029-004,NICHOLS LIBRARY,208 FLOYD STREET,NICHOLS,29581,M,MARION,8435262641,BR,1146,R_19,0,144,R_19,12,R_19,2019,5,0,0,0,45,67,50110,30657,42,9504,1050,4507,-4,N,A,453,45067950400,+34.2456525,-079.2054743,34.23499,-79.1496
SC,SC0029,5,Y,SC0029-005,MARION COUNTY LIBRARY BOOKMOBILE,101 E. COURT STREET,MARION,29571,3631,MARION,8434238300,BS,-4,N_19,1,504,R_19,24,R_19,2019,5,0,0,0,45,67,44575,30657,32,9506,4006,4507,-4,N,A,454,45067950600,+34.1309919,-079.3264614,34.17822,-79.3997
SC,SC0030,2,Y,SC0030-002,MARLBORO COUNTY LIBRARY SYSTEM,203 FAYETTEVILLE AVENUE,BENNETTSVILLE,29512,4021,MARLBORO,8434795630,CE,13000,R_19,0,2652,R_19,52,R_19,2019,5,0,0,0,45,69,5680,26118,32,9603.01,2025,4507,13500,1,A,651,45069960301,+34.6238660,-079.6508936,34.61429,-79.6822
SC,SC0030,3,Y,SC0030-003,MARLBORO COUNTY LIBRARY BOOKMOBILE,203 FAYETTEVILLE AVENUE,BENNETTSVILLE,29512,4021,MARLBORO,8434795630,BS,-4,N_19,1,150,R_19,50,R_19,2019,5,0,0,0,45,69,5680,26118,32,9603.01,2025,4507,13500,1,A,651,45069960301,+34.6238660,-079.6508936,34.61429,-79.6822
SC,SC0032,2,Y,SC0032-002,OCONEE COUNTY PUBLIC LIBRARY,501 W S BROAD ST,WALHALLA,29691,M,OCONEE,8646384133,CE,22500,R_19,0,2781,R_19,51,R_19,2019,5,0,0,0,45,73,74095,79546,31,304.01,2004,4503,42860,1,A,576,45073030401,+34.7713029,-083.0642802,34.76479,-83.0723
SC,SC0032,3,Y,SC0032-003,SENECA BRANCH LIBRARY,300 EAST SOUTH SECOND STREET,SENECA,29678,3438,OCONEE,8648824855,BR,9000,R_19,0,2922,R_19,51,R_19,2019,5,0,0,0,45,73,65095,79546,31,307.01,1024,4503,42860,1,A,1067,45073030701,+34.6770968,-082.9344373,34.68239,-82.951
SC,SC0032,4,Y,SC0032-004,WESTMINSTER BRANCH LIBRARY,112 WEST NORTH AVENUE,WESTMINSTER,29693,1446,OCONEE,8643645760,BR,5050,R_19,0,2182,R_19,51,R_19,2019,5,0,0,0,45,73,76165,79546,42,310,5050,4503,42860,1,A,1066,45073031000,+34.6292891,-083.0946501,34.66685,-83.0969
SC,SC0032,5,Y,SC0032-005,SALEM BRANCH LIBRARY,5 PARK AVENUE,SALEM,29676,3304,OCONEE,8649440912,BR,1025,R_19,0,1809,R_19,51,R_19,2019,5,0,0,0,45,73,62980,79546,42,302,2018,4503,42860,1,A,1064,45073030200,+34.9536664,-082.9849556,34.89127,-82.9756
SC,SC0032,6,Y,SC0032-006,OCONEE COUNTY PUBLIC LIBRARY BOOKMOBILE,501 W. SOUTH BROAD ST.,WALHALLA,29691,2105,OCONEE,8646384133,BS,-4,N_19,1,386,R_19,42,R_19,2019,5,0,0,0,45,73,74095,79546,31,304.01,2004,4503,42860,1,A,576,45073030401,+34.7713029,-083.0642802,34.76479,-83.0723
SC,SC0033,2,Y,SC0033-002,ORANGEBURG COUNTY LIBRARY COMMISSION,510 LOUIS STREET,ORANGEBURG,29115,5030,ORANGEBURG,8035314636,CE,13000,R_19,0,2647,R_19,52,R_19,2019,5,0,0,0,45,75,53080,86175,32,114,4009,4506,36700,1,A,948,45075011400,+33.5011636,-080.8687913,33.49564,-80.8623
SC,SC0033,3,Y,SC0033-003,MENTOR BRANCH LIBRARY,2621 CLEVELAND STREET,ELLOREE,29047,M,ORANGEBURG,8038972162,BR,700,R_19,0,696,R_19,52,R_19,2019,5,0,0,0,45,75,23470,86175,42,104,1082,4506,36700,1,A,960,45075010400,+33.4713405,-080.5743439,33.53156,-80.571
SC,SC0033,4,Y,SC0033-004,HOLLY HILL BRANCH LIBRARY,"8423 SUITE 3, OLD STATE ROAD",HOLLY HILL,29059,M,ORANGEBURG,8034967177,BR,1800,R_19,0,1644,R_19,52,R_19,2019,5,0,0,0,45,75,34360,86175,42,102,1043,4506,36700,1,A,957,45075010200,+33.3204311,-080.3922399,33.32528,-80.416
SC,SC0033,5,Y,SC0033-005,NORTH BRANCH LIBRARY,9316 NORTH ROAD,NORTH,29112,M,ORANGEBURG,8032475880,BR,1600,R_19,0,696,R_19,52,R_19,2019,5,0,0,0,45,75,50560,86175,42,120,1067,4502,36700,1,A,963,45075012000,+33.6313521,-081.0559758,33.61552,-81.1039
SC,SC0033,8,Y,SC0033-008,ORANGEBURG COUNTY LIBRARY BOOKMOBILE,510 LOUIS STREET NE,ORANGEBURG,29115,5030,ORANGEBURG,8035314636,BS,-4,N_19,1,311,R_19,52,R_19,2019,5,0,0,0,45,75,53080,86175,32,114,4009,4506,36700,1,A,948,45075011400,+33.5011636,-080.8687913,33.49564,-80.8623
SC,SC0033,9,Y,SC0033-009,SANTEE BRANCH LIBRARY,119 DAZZY COURT,SANTEE,29142,M,ORANGEBURG,8038545300,BR,-1,M_19,0,696,R_19,52,R_19,2019,5,0,0,0,45,75,63790,86175,42,103,4050,4506,36700,1,A,964,45075010300,+33.4385177,-080.4719225,33.47435,-80.4849
SC,SC0033,10,Y,SC0033-010,SPRINGFIELD BRANCH LIBRARY,210 BRODIE ST.,SPRINGFIELD,29146,M,ORANGEBURG,8032581100,BR,-1,M_19,0,696,R_19,52,R_19,2019,5,0,0,0,45,75,68470,86175,42,118,3054,4502,36700,1,A,959,45075011800,+33.4920648,-081.1791302,33.49429,-81.2744
SC,SC0034,2,Y,SC0034-002,PICKENS COUNTY LIBRARY,304 BILTMORE ROAD,EASLEY,29640,3708,PICKENS,8648507077,CE,77600,R_19,0,3476,R_19,52,R_19,2019,5,0,0,0,45,77,21985,126884,21,108.04,1051,4503,24860,0,A,1029,45077010804,+34.8226519,-082.5830564,34.8261,-82.58
SC,SC0034,3,Y,SC0034-003,VILLAGE BRANCH LIBRARY,124 NORTH CATHERINE STREET,PICKENS,29671,2207,PICKENS,8648985747,BR,8200,R_19,0,2541,R_19,52,R_19,2019,5,0,0,0,45,77,56140,126884,21,104.02,3057,4503,24860,0,A,1035,45077010402,+34.9027375,-082.7107738,34.88337,-82.7106
SC,SC0034,4,Y,SC0034-004,SARLIN COMMUNITY BRANCH,15 SOUTH PALMETTO STREET,LIBERTY,29657,1027,PICKENS,8648435805,BR,6400,R_19,0,2180,R_19,52,R_19,2019,5,0,0,0,45,77,41380,126884,21,110.02,2035,4503,24860,0,A,1033,45077011002,+34.7760173,-082.6984761,34.78724,-82.6951
SC,SC0034,8,Y,SC0034-005,CENTRAL CLEMSON REGIONAL BRANCH,105 COMMONS WAY,CENTRAL,29630,4107,PICKENS,8646392711,BR,12000,R_19,0,3476,R_19,52,R_19,2019,5,0,0,0,45,77,13015,126884,21,111.02,3030,4503,24860,0,A,1016,45077011102,+34.7109098,-082.7563613,34.71434,-82.7874
SC,SC0035,2,Y,SC0035-002,RICHLAND LIBRARY MAIN,1431 ASSEMBLY STREET,COLUMBIA,29201,3101,RICHLAND,8037999084,CE,175656,R_19,0,3640,R_19,52,R_19,2019,5,0,0,0,45,79,16000,415759,12,31,2026,4506,17900,0,A,484,45079003100,+34.0078902,-081.0307786,34.00405,-81.0368
SC,SC0035,3,Y,SC0035-003,RICHLAND LIBRARY COOPER,5317 N. TRENHOLM ROAD,COLUMBIA,29206,3211,RICHLAND,8037873462,BR,11094,R_19,0,3432,R_19,52,R_19,2019,5,0,0,0,45,79,26305,415759,21,112.02,1021,4502,17900,0,A,1009,45079011301,+34.0374796,-080.9464728,34.02145,-80.9663
SC,SC0035,4,Y,SC0035-004,RICHLAND LIBRARY WHEATLEY,931 WOODROW STREET,COLUMBIA,29205,1634,RICHLAND,8037995873,BR,3728,R_19,0,3016,R_19,52,R_19,2019,5,0,0,0,45,79,16000,415759,12,21,3010,4502,17900,0,A,492,45079002100,+33.9963901,-081.0085159,34.00157,-81.0052
SC,SC0035,5,Y,SC0035-005,RICHLAND LIBRARY EASTOVER,608 MAIN STREET,EASTOVER,29044,M,RICHLAND,8033538584,BR,5200,R_19,0,3224,R_19,52,R_19,2019,5,0,0,0,45,79,22390,415759,42,120,3118,4506,17900,0,A,1006,45079012000,+33.9116689,-080.6752843,33.87732,-80.695
SC,SC0035,6,Y,SC0035-006,RICHLAND LIBRARY SOUTHEAST,7421 GARNERS FERRY ROAD,COLUMBIA,29209,2602,RICHLAND,8037760855,BR,20000,R_19,0,3640,R_19,52,R_19,2019,5,0,0,0,45,79,16000,415759,12,116.07,1025,4506,17900,0,A,1046,45079011607,+33.9539740,-080.9388575,33.96854,-80.9458
SC,SC0035,7,Y,SC0035-007,RICHLAND LIBRARY NORTHEAST,7490 PARKLANE ROAD,COLUMBIA,29223,7618,RICHLAND,8037366575,BR,16287,R_19,0,3432,R_19,52,R_19,2019,5,0,0,0,45,79,19285,415759,21,113.03,2020,4506,17900,0,A,1011,45079011303,+34.0800258,-080.9404466,34.07565,-80.9582
SC,SC0035,8,Y,SC0035-008,RICHLAND LIBRARY NORTH MAIN,5306 NORTH MAIN STREET,COLUMBIA,29203,6114,RICHLAND,8037547734,BR,12577,R_19,0,3432,R_19,52,R_19,2019,5,0,0,0,45,79,16000,415759,12,1,1022,4506,17900,0,A,462,45079000100,+34.0497425,-081.0201576,34.05214,-81.0222
SC,SC0035,9,Y,SC0035-009,RICHLAND LIBRARY ST. ANDREWS,2916 BROAD RIVER ROAD,COLUMBIA,29210,5918,RICHLAND,8037726675,BR,14689,R_19,0,3640,R_19,52,R_19,2019,5,0,0,0,45,79,62395,415759,21,104.07,3008,4506,17900,0,A,793,45079010407,+34.0504530,-081.0900867,34.04755,-81.103
SC,SC0035,10,Y,SC0035-010,RICHLAND LIBRARY BALLENTINE,1321 DUTCH FORK RD.,IRMO,29063,8788,RICHLAND,8037999084,BR,13386,R_19,0,3224,R_19,52,R_19,2019,5,0,0,0,45,79,39475,415759,21,103.06,3000,4502,17900,0,A,613,45079010306,+34.1347747,-081.2648753,34.12466,-81.235
SC,SC0035,11,Y,SC0035-011,RICHLAND LIBRARY BLYTHEWOOD,218 MCNULTY ROAD,BLYTHEWOOD,29016,8553,RICHLAND,8036919806,BR,6384,R_19,0,3224,R_19,52,R_19,2019,5,0,0,0,45,79,7255,415759,41,101.02,1064,4502,17900,0,A,1007,45079010102,+34.1723843,-080.9792738,34.21584,-80.9759
SC,SC0035,12,Y,SC0035-012,RICHLAND LIBRARY SANDHILLS,1 SUMMIT PARKWAY,COLUMBIA,29229,9057,RICHLAND,8036999230,BR,33039,R_19,0,3432,R_19,52,R_19,2019,5,0,0,0,45,79,M,415759,21,114.17,1005,4502,17900,0,A,475,45079011417,+34.1485824,-080.8993483,34.13927,-80.8828
SC,SC0035,14,Y,SC0035-014,RICHLAND LIBRARY EDGEWOOD,2101 OAK STREET,COLUMBIA,29204,1193,RICHLAND,8037999084,BR,-1,M_19,0,-1,M_19,-1,M_19,2019,5,0,0,0,45,79,16000,415759,12,10,2014,4506,17900,0,A,684,45079001000,+34.0186611,-081.0204553,34.01784,-81.021
SC,SC0036,2,Y,SC0036-002,SPARTANBURG COUNTY PUBLIC LIBRARY SYSTEM,151 S. CHURCH STREET,SPARTANBURG,29306,3241,SPARTANBURG,8645963507,CE,105000,R_19,0,3822,R_19,52,R_19,2019,5,0,0,0,45,83,68290,319785,13,212,1145,4504,43900,0,A,842,45083021200,+34.9509248,-081.9167596,34.94857,-81.9311
SC,SC0036,3,Y,SC0036-003,BOILING SPRINGS LIBRARY,871 DOUBLE BRIDGE ROAD,BOILING SPRINGS,29316,8576,SPARTANBURG,8645783665,BR,9000,R_19,0,2704,R_19,52,R_19,2019,5,0,0,0,45,83,7345,319785,22,224.06,1001,4504,43900,0,A,251,45083022406,+35.0323381,-081.9747638,35.04284,-81.9809
SC,SC0036,4,Y,SC0036-004,CHESNEE BRANCH LIBRARY,100 PICKENS AVENUE,CHESNEE,29323,1726,SPARTANBURG,8644612423,BR,7773,R_19,0,2704,R_19,52,R_19,2019,5,0,0,0,45,83,14050,319785,31,223.03,2096,4505,43900,0,A,415,45083022303,+35.1507291,-081.8682837,35.13777,-81.8605
SC,SC0036,5,Y,SC0036-005,INMAN BRANCH LIBRARY,50 MILL STREET,INMAN,29349,1533,SPARTANBURG,8644728363,BR,7765,R_19,0,2704,R_19,52,R_19,2019,5,0,0,0,45,83,35755,319785,22,229,2096,4504,43900,0,A,851,45083022900,+35.0471492,-082.0859382,35.04616,-82.0929
SC,SC0036,6,Y,SC0036-006,LANDRUM BRANCH LIBRARY,111 E. ASBURY DRIVE,LANDRUM,29356,1402,SPARTANBURG,8644572218,BR,12500,R_19,0,2912,R_19,52,R_19,2019,5,0,0,0,45,83,40075,319785,31,226,1031,4504,43900,0,A,846,45083022600,+35.1735263,-082.1860038,35.18007,-82.1741
SC,SC0036,7,Y,SC0036-007,MIDDLE TYGER BRANCH LIBRARY,170 GROCE ROAD,LYMAN,29365,1724,SPARTANBURG,8644394759,BR,12500,R_19,0,3042,R_19,52,R_19,2019,5,0,0,0,45,83,43315,319785,22,231.02,3059,4504,43900,0,A,855,45083023102,+34.9459973,-082.1019723,34.94214,-82.1219
SC,SC0036,8,Y,SC0036-008,WESTSIDE BRANCH LIBRARY,5250 OAK GROVE ROAD,SPARTANBURG,29301,M,SPARTANBURG,8645746815,BR,21000,R_19,0,3614,R_19,52,R_19,2019,5,0,0,0,45,83,M,319785,22,219.02,4002,4504,43900,0,A,712,45083021902,+34.9240100,-082.0181976,34.92388,-82.0015
SC,SC0036,9,Y,SC0036-009,WOODRUFF BRANCH LIBRARY,270 E. HAYNE STREET,WOODRUFF,29388,1922,SPARTANBURG,8644768770,BR,11500,R_19,0,2600,R_19,52,R_19,2019,5,0,0,0,45,83,79090,319785,31,236,4041,4504,43900,0,A,853,45083023600,+34.7198669,-082.0268573,34.73978,-82.0339
SC,SC0036,10,Y,SC0036-010,SPARTANBURG COUNTY PUBLIC LIBRARIES BKMOBILE,151 S. CHURCH STREET,SPARTANBURG,29306,3241,SPARTANBURG,8645963512,BS,-4,N_19,1,275,R_19,52,R_19,2019,5,0,0,0,45,83,68290,319785,13,212,1145,4504,43900,0,A,842,45083021200,+34.9509248,-081.9167596,34.94857,-81.9311
SC,SC0036,12,Y,SC0036-012,PACOLET BRANCH LIBRARY,390 WEST MAIN STREET,PACOLET,29372,2008,SPARTANBURG,8644740421,BR,5600,R_19,0,2496,R_19,52,R_19,2019,5,0,0,0,45,83,53845,319785,41,239,2086,4504,43900,0,A,844,45083023900,+34.8869316,-081.7864815,34.90181,-81.7674
SC,SC0036,13,Y,SC0036-013,COWPENS BRANCH LIBRARY,181 SCHOOL STREET,COWPENS,29330,M,SPARTANBURG,8644630430,BR,8800,R_19,0,2600,R_19,52,R_19,2019,5,0,0,0,45,83,17260,319785,22,222.02,1019,4504,43900,0,A,848,45083022202,+34.9887462,-081.7972162,35.01977,-81.8031
SC,SC0037,2,Y,SC0037-002,SUMTER COUNTY PUBLIC LIBRARY,111 N. HARVIN STREET,SUMTER,29150,4961,SUMTER,8037737273,CE,45000,R_19,0,2964,R_19,52,R_19,2019,5,0,0,0,45,85,70405,106721,13,13,2002,4506,44940,0,A,412,45085001300,+33.9165836,-080.3525729,33.92245,-80.3398
SC,SC0037,3,Y,SC0037-003,SUMTER COUNTY LIBRARY BOOKMOBILE,111 N. HARVIN STREET,SUMTER,29150,4961,SUMTER,8037737273,BS,-4,N_19,1,1040,R_19,52,R_19,2019,5,0,0,0,45,85,70405,106721,13,13,2002,4506,44940,0,A,412,45085001300,+33.9165836,-080.3525729,33.92245,-80.3398
SC,SC0037,4,Y,SC0037-004,WESMARK BRANCH LIBRARY,180 W. WESMARK BLVD,SUMTER,29150,1964,SUMTER,8034698110,BR,13800,R_19,0,2340,R_19,52,R_19,2019,5,0,0,0,45,85,70405,106721,13,9.01,1025,4505,44940,0,A,481,45085000901,+33.9483910,-080.3732220,33.95093,-80.3847
SC,SC0037,5,Y,SC0037-005,SOUTH SUMTER BRANCH LIBRARY,337 MANNING AVE,SUMTER,29150,5742,SUMTER,8037757132,BR,1000,R_19,0,1040,R_19,52,R_19,2019,5,0,0,0,45,85,70405,106721,13,15,2015,4506,44940,0,A,413,45085001500,+33.9057056,-080.3508863,33.90923,-80.3409
SC,SC0038,2,Y,SC0038-002,UNION COUNTY CARNEGIE LIBRARY,300 EAST SOUTH STREET,UNION,29379,2349,UNION,8644277140,CE,12000,R_19,0,2597,R_19,49,R_19,2019,5,0,0,0,45,87,73105,27316,32,303,2022,4505,46420,1,A,791,45087030300,+34.7154252,-081.5908516,34.71348,-81.6208
SC,SC0038,4,Y,SC0038-004,JONESVILLE BRANCH LIBRARY,131 NORTH MAIN STREET,JONESVILLE,29353,1525,JONESVILLE,8644277140,BR,-1,M_19,0,-1,M_19,-1,M_19,2019,5,0,0,0,45,87,37330,27316,42,308,4047,4505,46420,1,A,921,45087030800,+34.8417937,-081.6902672,34.83683,-81.6811
SC,SC0038,5,Y,SC0038-005,CARLISLE BRANCH LIBRARY,3911 FISHDAM AVE,CARLISLE,29031,9207,CARLISLE,8644271505,BR,-1,M_19,0,-1,M_19,-1,M_19,2019,5,0,0,0,45,87,11755,27316,42,306,2030,4505,46420,1,A,919,45087030600,+34.6087329,-081.4943191,34.59263,-81.4675
SC,SC0038,6,Y,SC0038-006,LOCKHART BRANCH LIBRARY,118 MILL STREET,LOCKHART,29364,M,LOCKHART,8645452103,BR,-1,M_19,0,-1,M_19,-1,M_19,2019,5,0,0,0,45,87,42190,27316,42,309,2016,4505,46420,1,A,780,45087030900,+34.8144497,-081.5303340,34.79011,-81.4594
SC,SC0039,2,Y,SC0039-002,WILLIAMSBURG COUNTY LIBRARY,215 NORTH JACKSON STREET,KINGSTREE,29556,3319,WILLIAMSBURG,8433559486,CE,8685,R_19,0,1924,R_19,51,R_19,2019,5,0,0,0,45,89,38590,30368,32,9706,5018,4506,-4,N,A,274,45089970600,+33.6990298,-079.8814089,33.66504,-79.8323
SC,SC0039,3,Y,SC0039-003,HEMINGWAY LIBRARY,306 NORTH MAIN STREET,HEMINGWAY,29554,9192,WILLIAMSBURG,8435587679,BR,5790,R_19,0,1716,R_19,51,R_19,2019,5,0,0,0,45,89,33145,30368,42,9703,2045,4506,-4,N,A,272,45089970300,+33.7322496,-079.4268421,33.7562,-79.447
SC,SC0039,5,Y,SC0039-005,WILLIAMSBURG COUNTY LIBRARY BOOKMOBILE,215 NORTH JACKSON STREET,KINGSTREE,29556,3319,WILLIAMSBURG,8433555946,BS,-4,N_19,1,75,R_19,50,R_19,2019,5,0,0,0,45,89,38590,30368,32,9706,5018,4506,-4,N,A,274,45089970600,+33.6990298,-079.8814089,33.66504,-79.8323
SC,SC0039,6,Y,SC0039-006,DR. C. E. MURRAY BRANCH,72 C. E. MURRAY BLVD.,GREELEYVILLE,29056,8839,WILLIAMSBURG,8434262381,BR,2351,R_19,0,2106,R_19,51,R_19,2019,5,0,0,0,45,89,30535,30368,43,9707,3014,4506,-4,N,A,279,45089970700,+33.6086383,-080.0059872,33.58162,-79.9919
SC,SC0040,2,Y,SC0040-002,YORK COUNTY LIBRARY,138 EAST BLACK STREET,ROCK HILL,29730,4530,YORK,8039815858,CE,33250,R_19,0,3386,R_19,52,R_19,2019,5,0,0,0,45,91,61405,280979,13,605.01,2043,4505,16740,0,A,693,45091060501,+34.9325443,-081.0382008,34.92495,-81.0281
SC,SC0040,3,Y,SC0040-003,CLOVER PUBLIC LIBRARY,107 KNOX STREET,CLOVER,29710,1465,YORK,8032223474,BR,5000,R_19,0,2799,R_19,52,R_19,2019,5,0,0,0,45,91,15355,280979,31,618.02,2024,4505,16740,0,A,704,45091061802,+35.0920972,-081.2223217,35.10862,-81.2272
SC,SC0040,4,Y,SC0040-004,FORT MILL PUBLIC LIBRARY,1818 SECOND BAXTER CROSSING,FORT MILL,29708,6401,YORK,8035474114,BR,12000,R_19,0,3039,R_19,52,R_19,2019,5,0,0,0,45,91,M,280979,21,610.04,1006,4505,16740,0,A,688,45091061004,+35.0120768,-080.9768143,35.0288,-80.9686
SC,SC0040,5,Y,SC0040-005,LAKE WYLIE PUBLIC LIBRARY,185 BLUCHER CIRCLE,LAKE WYLIE,29710,8024,YORK,8038317774,BR,5100,R_19,0,2799,R_19,52,R_19,2019,5,0,0,0,45,91,39785,280979,21,617.07,1029,4505,16740,0,A,396,45091061707,+35.1328855,-081.0658123,35.10994,-81.042
SC,SC0040,6,Y,SC0040-006,YORK PUBLIC LIBRARY,21 EAST LIBERTY STREET,YORK,29745,1546,YORK,8036843751,BR,11800,R_19,0,3039,R_19,52,R_19,2019,5,0,0,0,45,91,79630,280979,31,616.02,2019,4505,16740,0,A,458,45091061602,+34.9921871,-081.2207561,34.99345,-81.2405
SC,SC0040,7,Y,SC0040-007,YORK COUNTY LIBRARY BOOKMOBILE,138 EAST BLACK STREET,ROCK HILL,29730,4530,YORK,8039815841,BS,-4,N_19,1,1360,R_19,52,R_19,2019,5,0,0,0,45,91,61405,280979,13,605.01,2043,4505,16740,0,A,693,45091060501,+34.9325443,-081.0382008,34.92495,-81.0281
SC,SC8001,1,Y,SC8001-001,NEWBERRY COUNTY LIBRARY,1100 FRIEND STREET,NEWBERRY,29108,3416,NEWBERRY,8032760854,CE,21214,R_19,0,2834,R_19,52,R_19,2019,5,0,0,0,45,71,49570,38440,32,9505.02,5008,4505,35140,1,A,756,45071950502,+34.3098563,-081.6453407,34.27351,-81.6198
SC,SC8001,2,Y,SC8001-002,WHITMIRE MEMORIAL LIBRARY,303 CHURCH STREET,WHITMIRE,29178,1461,NEWBERRY,8036943961,BR,4111,R_19,0,2080,R_19,52,R_19,2019,5,0,0,0,45,71,77380,38440,43,9503,1020,4505,35140,1,A,115,45071950300,+34.4418336,-081.6326682,34.50305,-81.6115
SC,SC8002,1,Y,SC8002-001,SALUDA COUNTY LIBRARY,101 S MAIN STREET,SALUDA,29138,1703,SALUDA,8644454500,CE,2276,R_19,0,2080,R_19,52,R_19,2019,5,0,0,0,45,81,63250,20473,32,9602.02,2077,4503,17900,0,A,618,45081960202,+33.9835560,-081.7334123,34.00147,-81.772
SC,SC8002,2,Y,SC8002-002,RIDGE SPRING BRANCH LIBRARY,108 MAINTENANCE SHOP CIRCLE,RIDGE SPRING,29129,M,SALUDA,8036852665,BR,810,R_19,0,780,R_19,52,R_19,2019,5,0,0,0,45,81,60325,20473,42,9604,3015,4503,17900,0,A,178,45081960400,+33.8896333,-081.6851220,33.84573,-81.6636
SC,SC8003,4,Y,SC8003-001,ABBEVILLE COUNTY LIBRARY,1407 NORTH MAIN STREET,ABBEVILLE,29620,1671,ABBEVILLE,8644594009,CE,9000,R_19,0,2782,R_19,52,R_19,2019,5,0,0,0,45,1,100,24527,32,9504,4036,4503,-4,N,A,297,45001950400,+34.2280103,-082.3768866,34.1865,-82.3978
SC,SC8003,5,Y,SC8003-002,AGNEW BRANCH LIBRARY,429 WEST MAIN STREET,DONALDS,29638,8786,ABBEVILLE,8643798568,BR,1200,R_19,0,1872,R_19,52,R_19,2019,5,0,0,0,45,1,M,24527,42,9502,2010,4503,-4,N,A,294,45001950200,+34.3258512,-082.4084968,34.36798,-82.3524
SC,SC8003,6,Y,SC8003-003,CALHOUN FALLS BRANCH LIBRARY,409 WEST TUGALOO STREET,CALHOUN FALLS,29628,1246,ABBEVILLE,8644188724,BR,1800,R_19,0,1794,R_19,52,R_19,2019,5,0,0,0,45,1,10720,24527,42,9506,1050,4503,-4,N,A,296,45001950600,+34.1246804,-082.5850722,34.09085,-82.5896
SC,SC8004,5,Y,SC8004-001,GREENWOOD COUNTY LIBRARY,600 SOUTH MAIN ST.,GREENWOOD,29646,3210,GREENWOOD,8649414650,CE,43999,R_19,0,3333,R_19,52,R_19,2019,5,0,0,0,45,47,30895,70811,32,9704,2006,4503,24940,1,A,867,45047970400,+34.1698568,-082.2054546,34.18707,-82.1596
SC,SC8004,6,Y,SC8004-002,NINETY-SIX BRANCH LIBRARY,100 SOUTH CAMBRIDGE STREET,NINETY-SIX,29666,1111,GREENWOOD,8645434749,BR,3750,R_19,0,2439,R_19,52,R_19,2019,5,0,0,0,45,47,50290,70811,42,9707.02,4018,4503,24940,1,A,331,45047970702,+34.1649441,-082.0235799,34.17452,-82.0238
SC,SC8004,7,Y,SC8004-003,WARE SHOALS BRANCH LIBRARY,54 SOUTH GREENWOOD AVENUE,WARE SHOALS,29692,1541,GREENWOOD,8644562813,BR,9600,R_19,0,2635,R_19,49,R_19,2019,5,0,0,0,45,47,74680,70811,42,9701.02,2028,4503,24940,1,A,326,45047970102,+34.3181322,-082.2696150,34.39338,-82.2406
SC,SC8004,8,Y,SC8004-004,GREENWOOD COUNTY LIBRARY BOOKMOBILE,600 SOUTH MAIN STREET,GREENWOOD,29646,3210,GREENWOOD,8649414650,BS,-4,N_19,1,1275,R_19,51,R_19,2019,5,0,0,0,45,47,30895,70811,32,9704,2006,4503,24940,1,A,867,45047970400,+34.1698568,-082.2054546,34.18707,-82.1596
